[{"type": "node", "id": 289017877, "lat": 58.0114618, "lon": 56.2376835, "tags": {"addr:country": "RU", "alt_name": "\u041c\u0430\u043a\u0434\u043e\u043d\u0430\u043b\u044c\u0434\u0441", "amenity": "fast_food", "brand": "\u041c\u0430\u043a\u0434\u043e\u043d\u0430\u043b\u0434\u0441", "brand:wikipedia": "en:McDonald\u2019s", "check_date": "2023-07-17", "contact:facebook": "https://www.facebook.com/mcdonaldsrussia", "contact:phone": "+7 342 2553166", "contact:website": "https://mcdonalds.ru", "cuisine": "burger", "int_name": "McDonald's", "name": "\u0412\u043a\u0443\u0441\u043d\u043e \u0438 \u0442\u043e\u0447\u043a\u0430", "name:de": "McDonald's", "name:en": "McDonald's", "name:ru": "\u0412\u043a\u0443\u0441\u043d\u043e \u0438 \u0442\u043e\u0447\u043a\u0430", "nat_name": "\u041c\u0430\u043a\u0434\u043e\u043d\u0430\u043b\u044c\u0434\u0441", "not:brand:wikidata": "Q112406961", "opening_hours": "07:00-24:00", "operator": "\u041c\u0430\u043a\u0434\u043e\u043d\u0430\u043b\u0434\u0441", "operator:en": "McDonald's", "operator:ru": "\u041c\u0430\u043a\u0434\u043e\u043d\u0430\u043b\u0434\u0441", "payment:mastercard": "yes", "payment:visa": "yes", "smoking": "no", "takeaway": "yes"}}, {"type": "node", "id": 512073561, "lat": 57.9976717, "lon": 56.1649368, "tags": {"amenity": "fast_food", "name": "\u0411\u043b\u0438\u043d\u043d\u0430\u044f \u0421\u043a\u043e\u0432\u043e\u0440\u043e\u0434\u043a\u0430"}}, {"type": "node", "id": 697311316, "lat": 58.0044761, "lon": 56.2663638, "tags": {"amenity": "cafe", "cuisine": "coffee_shop", "name": "\u041a\u043e\u0444\u0435 You"}}, {"type": "node", "id": 697534698, "lat": 58.0177431, "lon": 56.2795677, "tags": {"amenity": "fast_food", "cuisine": "pizza", "name": "\u0414\u043e\u043a\u0430 \u041f\u0438\u0446\u0446\u0430"}}, {"type": "node", "id": 750464053, "lat": 58.1133204, "lon": 56.3084053, "tags": {"amenity": "cafe", "name": "\u0414\u0435\u0442\u0441\u043a\u043e\u0435"}}, {"type": "node", "id": 776008460, "lat": 58.0438411, "lon": 55.871797, "tags": {"amenity": "restaurant", "name": "\u0421\u043e\u043b\u043d\u0435\u0447\u043d\u0430\u044f \u0410\u0434\u0436\u0430\u0440\u0438\u044f"}}, {"type": "node", "id": 837187442, "lat": 57.9557845, "lon": 56.1287419, "tags": {"amenity": "fast_food"}}, {"type": "node", "id": 898780680, "lat": 58.0089492, "lon": 56.1878072, "tags": {"amenity": "cafe", "description": "\u0441\u0442\u043e\u043b\u043e\u0432\u0430\u044f", "level": "1", "wheelchair": "no"}}, {"type": "node", "id": 898780696, "lat": 58.0072013, "lon": 56.1905056, "tags": {"amenity": "cafe", "description": "\u0441\u0442\u043e\u043b\u043e\u0432\u0430\u044f"}}, {"type": "node", "id": 898780703, "lat": 58.0092973, "lon": 56.1889096, "tags": {"amenity": "cafe", "level": "2"}}, {"type": "node", "id": 898780710, "lat": 58.0078947, "lon": 56.1856025, "tags": {"amenity": "cafe", "wheelchair": "limited"}}, {"type": "node", "id": 898780717, "lat": 58.0094266, "lon": 56.1901462, "tags": {"amenity": "cafe", "level": "1"}}, {"type": "node", "id": 905001589, "lat": 58.0076612, "lon": 56.1846806, "tags": {"amenity": "cafe", "description": "\u0441\u0442\u043e\u043b\u043e\u0432\u0430\u044f", "level": "1"}}, {"type": "node", "id": 905001897, "lat": 58.0082012, "lon": 56.1880227, "tags": {"amenity": "cafe", "description": "\u0411\u0443\u0444\u0435\u0442", "wheelchair": "limited"}}, {"type": "node", "id": 913618058, "lat": 57.9913032, "lon": 56.1966122, "tags": {"amenity": "fast_food", "check_date:opening_hours": "2020-11-11", "name": "\u0411\u043b\u0438\u043d\u043d\u0430\u044f \u0421\u043a\u043e\u0432\u043e\u0440\u043e\u0434\u043a\u0430", "opening_hours": "Mo-Su 09:00-21:00"}}, {"type": "node", "id": 932765602, "lat": 58.0097708, "lon": 56.1915045, "tags": {"amenity": "cafe", "description": "\u0441\u0442\u043e\u043b\u043e\u0432\u0430\u044f", "name": "\u0419\u0435\u0434\u0430"}}, {"type": "node", "id": 933631053, "lat": 57.9651539, "lon": 56.2635703, "tags": {"amenity": "fast_food", "cuisine": "regional", "name": "\u041f\u0435\u043b\u044c\u043c\u0435\u0448\u043a\u0438 \u0431\u0435\u0437 \u0441\u043f\u0435\u0448\u043a\u0438"}}, {"type": "node", "id": 934572897, "lat": 57.9194667, "lon": 56.0188683, "tags": {"amenity": "cafe", "name": "\u041a\u0430\u0444\u0435", "name:en": "Cafe", "name:ru": "\u041a\u0430\u0444\u0435"}}, {"type": "node", "id": 936390500, "lat": 58.0005207, "lon": 56.2604297, "tags": {"amenity": "cafe", "cuisine": "armenian", "name": "\u0411\u0430\u0439\u0430\u0437\u0435\u0442"}}, {"type": "node", "id": 936677663, "lat": 57.9975672, "lon": 56.2635156, "tags": {"amenity": "fast_food", "cuisine": "regional", "name": "\u0421\u0442\u043e\u043b\u043e\u0432\u0430\u044f"}}, {"type": "node", "id": 938248580, "lat": 58.0076429, "lon": 56.2132403, "tags": {"alt_name": "Kentucky Fried Chicken", "amenity": "fast_food", "brand": "KFC", "brand:wikidata": "Q524757", "brand:wikipedia": "en:KFC", "cuisine": "chicken", "name": "KFC", "opening_hours": "Mo-Su 09:00-01:00", "takeaway": "yes"}}, {"type": "node", "id": 938249006, "lat": 58.0057217, "lon": 56.2157536, "tags": {"amenity": "restaurant", "name": "\u041e\u0445\u043e\u0442\u043d\u0438\u0447\u0438\u0439", "phone": "+7 342 2360608"}}, {"type": "node", "id": 938250689, "lat": 58.0045328, "lon": 56.2147349, "tags": {"amenity": "cafe", "contact:phone": "+7 342 2595759", "cuisine": "ukrainian", "name": "\u0425\u0443\u0442\u043e\u0440\u043e\u043a"}}, {"type": "node", "id": 939242398, "lat": 57.9872609, "lon": 56.2177634, "tags": {"addr:city": "\u041f\u0435\u0440\u043c\u044c", "addr:housenumber": "21", "addr:postcode": "614022", "addr:street": "\u0443\u043b\u0438\u0446\u0430 \u041a\u0430\u0440\u043f\u0438\u043d\u0441\u043a\u043e\u0433\u043e", "amenity": "cafe", "cuisine": "pancake", "name": "\u0421\u043a\u043e\u0432\u043e\u0440\u043e\u0434\u043a\u0430"}}, {"type": "node", "id": 939293553, "lat": 58.0032165, "lon": 56.2094703, "tags": {"amenity": "restaurant", "brand": "\u0422\u0430\u043d\u0443\u043a\u0438", "brand:wikidata": "Q62758690", "contact:email": "perm@tanuki.ru", "contact:phone": "+7 342 2351729", "contact:website": "https://tanuki.ru/", "cuisine": "japanese", "name": "\u0422\u0430\u043d\u0443\u043a\u0438", "name:en": "Tanuki", "name:ru": "\u0422\u0430\u043d\u0443\u043a\u0438", "opening_hours": "Mo-Fr 11:30-24:00; Sa,Su 00:00-02:00,11:30-24:00", "operator": "\u0422\u0410\u041d\u0423\u041a\u0418-\u041f\u0435\u0440\u043c\u044c"}}, {"type": "node", "id": 941641759, "lat": 58.041228, "lon": 55.8992362, "tags": {"amenity": "cafe", "name": "\u041a\u0430\u043d\u0430\u0440\u044b", "tourism": "camp_site"}}, {"type": "node", "id": 966461474, "lat": 58.0091722, "lon": 56.297448, "tags": {"amenity": "cafe", "cuisine": "sushi", "name": "Sushki"}}, {"type": "node", "id": 967785593, "lat": 57.9879877, "lon": 56.2406641, "tags": {"amenity": "cafe", "name": "\u0421\u0435\u0432\u0430\u043d"}}, {"type": "node", "id": 980958608, "lat": 58.0346263, "lon": 56.0326889, "tags": {"amenity": "cafe", "name": "\u0424\u0440\u0435\u0433\u0430\u0442"}}, {"type": "node", "id": 1000524163, "lat": 58.0110191, "lon": 55.9671711, "tags": {"amenity": "fast_food", "contact:email": "info@alendvic.ru", "contact:phone": "+7 342 2065222;+7 342 2842044", "contact:website": "http://sfc-chicken.ru", "name": "Southern Fried Chicken", "opening_hours": "Mo-Su 10:00-22:00"}}, {"type": "node", "id": 1038000517, "lat": 57.9652298, "lon": 56.2636416, "tags": {"amenity": "fast_food", "cuisine": "sushi", "name": "\u0421\u0443\u0448\u0438-\u0441\u0430\u043d"}}, {"type": "node", "id": 1038000519, "lat": 57.9648035, "lon": 56.2639805, "tags": {"addr:city": "\u041f\u0435\u0440\u043c\u044c", "addr:housenumber": "105", "addr:postcode": "614025", "addr:street": "\u0443\u043b\u0438\u0446\u0430 \u0413\u0435\u0440\u043e\u0435\u0432 \u0425\u0430\u0441\u0430\u043d\u0430", "amenity": "fast_food", "cuisine": "pizza", "email": "info@alendvic.ru", "name": "Viva la pizza", "opening_hours": "Mo-Su 10:00-22:00", "phone": "+7 342 223-33-40 ext. 760", "website": "https://dostavka-alendvic.ru/"}}, {"type": "node", "id": 1038000525, "lat": 57.9648424, "lon": 56.2641412, "tags": {"amenity": "fast_food", "name": "\u0426\u044b\u043f\u043b\u044f\u0442\u0430 \u043f\u043e-\u0430\u043d\u0433\u043b\u0438\u0439\u0441\u043a\u0438"}}, {"type": "node", "id": 1040988970, "lat": 58.0123513, "lon": 56.2373102, "tags": {"amenity": "cafe", "cuisine": "coffee_shop", "name": "\u041a\u043e\u0444\u0435 You", "operator": "\u041a\u043e\u0444\u0435 You"}}, {"type": "node", "id": 1040989988, "lat": 58.0126101, "lon": 56.2381272, "tags": {"amenity": "restaurant", "name": "Porta"}}, {"type": "node", "id": 1044740007, "lat": 57.9974854, "lon": 56.2941267, "tags": {"amenity": "fast_food", "name": "\u0410\u043b\u0435\u043d\u0434\u0432\u0438\u043a"}}, {"type": "node", "id": 1053600692, "lat": 57.9983272, "lon": 56.2561101, "tags": {"amenity": "cafe", "cuisine": "regional", "indoor_seating": "yes", "name": "\u041f\u0435\u0440\u043c\u0441\u043a\u0430\u044f \u043a\u0443\u0445\u043d\u044f", "outdoor_seating": "no"}}, {"type": "node", "id": 1058847782, "lat": 57.9972643, "lon": 56.2540043, "tags": {"amenity": "cafe", "name": "\u0422\u0440\u0438\u0443\u043c\u0444"}}, {"type": "node", "id": 1091496565, "lat": 57.9630538, "lon": 56.2319553, "tags": {"amenity": "pub", "name": "\u0416\u0438\u0432\u043e\u0435 \u043f\u0438\u0432\u043e"}}, {"type": "node", "id": 1274193140, "lat": 58.0203506, "lon": 56.2802149, "tags": {"addr:housenumber": "111", "addr:street": "\u0423\u0440\u0430\u043b\u044c\u0441\u043a\u0430\u044f \u0443\u043b\u0438\u0446\u0430", "amenity": "pub", "check_date": "2023-08-21", "name": "\u041f\u0438\u0432\u043d\u0430\u044f \u0430\u0440\u0442\u0435\u043b\u044c", "wifi": "no"}}, {"type": "node", "id": 1281143122, "lat": 58.0285685, "lon": 56.2987945, "tags": {"amenity": "pub", "name": "\u0414\u0430\u0441\u0442\u0438\u0441\u0442\u0444\u0430\u043d\u0442\u0430\u0441\u0442\u0438\u0448"}}, {"type": "node", "id": 1341417271, "lat": 58.0146103, "lon": 56.2279323, "tags": {"amenity": "restaurant", "check_date": "2023-07-19", "contact:phone": "+7 342 2364550", "cuisine": "azerbaijan", "name": "\u0421\u0443\u0444\u0440\u0430", "opening_hours": "Mo-Th 09:00-24:00; Fr 09:00-01:00; Sa 12:00-01:00; Su 12:00-24:00", "wheelchair": "no"}}, {"type": "node", "id": 1341569915, "lat": 58.0052921, "lon": 56.2222189, "tags": {"amenity": "restaurant", "cuisine": "czesh", "name": "Zlat\u00e1 Husa", "website": "http://www.restunion.ru/zlatahusa/restaurants/43/"}}, {"type": "node", "id": 1396025450, "lat": 58.0100745, "lon": 56.2405733, "tags": {"addr:housenumber": "30", "addr:postcode": "614000", "addr:street": "\u041a\u043e\u043c\u0441\u043e\u043c\u043e\u043b\u044c\u0441\u043a\u0438\u0439 \u043f\u0440\u043e\u0441\u043f\u0435\u043a\u0442", "amenity": "cafe", "cuisine": "regional", "name": "\u0411\u043b\u0438\u043d\u0421\u0438\u0442\u0438", "wifi": "no"}}, {"type": "node", "id": 1422373177, "lat": 58.1121776, "lon": 56.2788606, "tags": {"amenity": "cafe", "name": "\u0411\u0430\u0440\u0441"}}, {"type": "node", "id": 1422373180, "lat": 58.1117922, "lon": 56.2816286, "tags": {"amenity": "cafe", "name": "\u041e\u0441\u0442\u0440\u043e\u0432\u043e\u043a"}}, {"type": "node", "id": 1430473977, "lat": 58.0216463, "lon": 56.2548057, "tags": {"amenity": "restaurant", "contact:phone": "+7 967 9001617", "contact:website": "https://halvaperm.ru/", "cuisine": "uzbek", "name": "\u0425\u0430\u043b\u0432\u0430", "opening_hours": "Fr-Su 10:00-01:00; Mo-Th 10:00-24:00", "website": "https://halvaperm.ru/"}}, {"type": "node", "id": 1430547303, "lat": 58.0088024, "lon": 56.2348118, "tags": {"amenity": "restaurant", "name": "\u041d\u0435\u0432\u0430"}}, {"type": "node", "id": 1431626406, "lat": 58.0096655, "lon": 56.280787, "tags": {"amenity": "restaurant", "name": "Da Vinci"}}, {"type": "node", "id": 1446092081, "lat": 58.0137938, "lon": 56.2826826, "tags": {"amenity": "fast_food", "name": "\u0421\u043a\u043e\u0432\u043e\u0440\u043e\u0434\u043a\u0430"}}, {"type": "node", "id": 1468444467, "lat": 58.0153032, "lon": 56.2319793, "tags": {"amenity": "fast_food", "name": "\u041a \u0442\u0451\u0449\u0435 \u043d\u0430 \u0431\u043b\u0438\u043d\u044b", "opening_hours": "Mo-Su 10:00-22:00"}}, {"type": "node", "id": 1468444474, "lat": 58.0152619, "lon": 56.2317522, "tags": {"amenity": "fast_food", "cuisine": "sushi", "name": "\u042f\u043f\u043e\u043d\u0430 \u041c\u0430\u0442\u0440\u0451\u043d\u0430"}}, {"type": "node", "id": 1481383170, "lat": 58.009134, "lon": 56.2867162, "tags": {"amenity": "cafe", "cuisine": "uzbek", "name": "\u0420\u0438\u043e", "name:en": "Rio"}}, {"type": "node", "id": 1484523730, "lat": 58.0396382, "lon": 56.0945653, "tags": {"amenity": "fast_food", "cuisine": "international", "name": "\u0421\u0442\u043e\u043b\u043e\u0432\u0430\u044f \u211629"}}, {"type": "node", "id": 1485603746, "lat": 58.0171982, "lon": 56.2912282, "tags": {"amenity": "fast_food", "cuisine": "kebab", "name": "\u0428\u0430\u0432\u0435\u0440\u043c\u0430"}}, {"type": "node", "id": 1485644090, "lat": 58.0166841, "lon": 56.280496, "tags": {"amenity": "fast_food", "cuisine": "kebab", "name": "\u0428\u0430\u0432\u0435\u0440\u043c\u0430"}}, {"type": "node", "id": 1493001595, "lat": 58.0142806, "lon": 56.2289588, "tags": {"amenity": "cafe", "name": "\u0411\u043b\u0438\u043d\u0421\u0438\u0442\u0438"}}, {"type": "node", "id": 1493210007, "lat": 58.0144696, "lon": 56.2318934, "tags": {"alt_name": "Intergalactic bar", "amenity": "cafe", "name": "Custom House", "smoking": "yes"}}, {"type": "node", "id": 1494051381, "lat": 58.0143123, "lon": 56.2353524, "tags": {"amenity": "cafe", "name": "FreshMix", "opening_hours": "Mo-Su 09:00-22:00"}}, {"type": "node", "id": 1494084139, "lat": 58.0125664, "lon": 56.2354349, "tags": {"amenity": "restaurant", "name": "\u0422\u0440\u044e\u0444\u0435\u043b\u044c"}}, {"type": "node", "id": 1494084145, "lat": 58.0128536, "lon": 56.2366722, "tags": {"amenity": "fast_food", "cuisine": "regional", "name": "\u041f\u0435\u043b\u044c\u043c\u0435\u0448\u043a\u0438 \u0434\u0430 \u0412\u0430\u0440\u0435\u043d\u0438\u043a\u0438"}}, {"type": "node", "id": 1494084152, "lat": 58.0125692, "lon": 56.2355625, "tags": {"amenity": "cafe", "name": "\u0428\u043e\u043a\u043e\u043b\u0430\u0434"}}, {"type": "node", "id": 1494084164, "lat": 58.0128929, "lon": 56.2366154, "tags": {"amenity": "fast_food", "cuisine": "pizza", "name": "Viva la Pizza"}}, {"type": "node", "id": 1499656518, "lat": 58.0154472, "lon": 56.241279, "tags": {"amenity": "fast_food", "name": "\u0421\u043a\u043e\u0432\u043e\u0440\u043e\u0434\u043a\u0430"}}, {"type": "node", "id": 1500992098, "lat": 58.0063401, "lon": 56.2485271, "tags": {"amenity": "cafe", "name": "\u0421\u043a\u0430\u0437\u043a\u0430"}}, {"type": "node", "id": 1506956107, "lat": 58.0166685, "lon": 56.2591198, "tags": {"addr:country": "RU", "alt_name": "\u0421\u0430\u0431\u0432\u0435\u0439", "amenity": "fast_food", "brand": "Subway", "brand:wikidata": "Q244457", "cuisine": "sandwich", "indoor_seating": "yes", "int_name": "Subway", "name": "Subway", "name:de": "Subway", "name:en": "Subway", "name:ru": "\u0421\u0430\u0431\u0432\u044d\u0439", "outdoor_seating": "no", "takeaway": "yes", "website": "https://www.subway.ru/"}}, {"type": "node", "id": 1507558014, "lat": 58.015293, "lon": 56.2531585, "tags": {"amenity": "fast_food", "cuisine": "kebab", "name": "\u0428\u0430\u0443\u0440\u043c\u0430"}}, {"type": "node", "id": 1515084752, "lat": 58.0129318, "lon": 56.2466988, "tags": {"amenity": "cafe", "cuisine": "ukrainian", "name": "\u0425\u0443\u0442\u043e\u0440\u043e\u043a"}}, {"type": "node", "id": 1515147539, "lat": 58.0117624, "lon": 56.2477698, "tags": {"amenity": "restaurant", "name": "\u041a\u0430\u043c\u0430", "name:ja": "\u30ab\u30de"}}, {"type": "node", "id": 1515147543, "lat": 58.0116174, "lon": 56.2479229, "tags": {"amenity": "restaurant", "cuisine": "sushi", "name": "\u041a\u0438\u043e\u0442\u043e"}}, {"type": "node", "id": 1522966049, "lat": 58.0071715, "lon": 56.2488, "tags": {"amenity": "restaurant", "name": "\u0415\u0432\u0440\u043e\u043f\u0435\u0439\u0441\u043a\u0438\u0439"}}, {"type": "node", "id": 1532494684, "lat": 58.006465, "lon": 56.2687236, "tags": {"amenity": "cafe", "cuisine": "kebab", "name": "\u041a\u043e\u0442\u043b\u0435\u0442\u043a\u0438\u043d \u0434\u043e\u043c"}}, {"type": "node", "id": 1569640224, "lat": 58.0266498, "lon": 56.2938727, "tags": {"amenity": "fast_food", "cuisine": "regional", "name": "\u0412\u0438\u0432\u0430\u0442-\u0411\u0443\u0444\u0435\u0442"}}, {"type": "node", "id": 1594666828, "lat": 57.9472106, "lon": 56.0766293, "tags": {"amenity": "cafe", "name": "\u0425\u043e\u0437\u044f\u044e\u0448\u043a\u0430"}}, {"type": "node", "id": 1653913422, "lat": 57.9985897, "lon": 56.2565936, "tags": {"amenity": "cafe", "name": "\u0416\u0443-\u0416\u0443"}}, {"type": "node", "id": 1768496419, "lat": 58.0012716, "lon": 56.2597148, "tags": {"amenity": "cafe", "brand": "\u0425\u0443\u0442\u043e\u0440\u043e\u043a", "check_date": "2023-07-17", "cuisine": "ukrainian", "name": "\u0425\u0443\u0442\u043e\u0440\u043e\u043a", "payment:mastercard": "yes", "payment:visa": "yes", "takeaway": "yes"}}, {"type": "node", "id": 1768812989, "lat": 57.9997348, "lon": 56.2410316, "tags": {"amenity": "fast_food", "cuisine": "regional", "name": "\u0421\u043a\u043e\u0432\u043e\u0440\u043e\u0434\u043a\u0430", "opening_hours": "Mo-Su 09:00-20:00"}}, {"type": "node", "id": 1803751681, "lat": 57.9606045, "lon": 56.1560259, "tags": {"amenity": "cafe", "name": "\u041e\u0441\u043a\u0430\u0440"}}, {"type": "node", "id": 1905932783, "lat": 58.0095615, "lon": 56.233019, "tags": {"amenity": "fast_food", "cuisine": "chicken", "name": "Southern Fried Chicken"}}, {"type": "node", "id": 1906568543, "lat": 58.0143149, "lon": 56.2567899, "tags": {"addr:housenumber": "32\u0410", "addr:postcode": "614000", "addr:street": "\u0415\u043a\u0430\u0442\u0435\u0440\u0438\u043d\u0438\u043d\u0441\u043a\u0430\u044f \u0443\u043b\u0438\u0446\u0430", "amenity": "fast_food", "cuisine": "regional", "email": "gornica-da@mail.ru", "internet_access": "yes", "internet_access:fee": "no", "level": "-1", "name": "\u0413\u043e\u0440\u043d\u0438\u0446\u0430", "operator": "\u041e\u041e\u041e \u00ab\u0417\u0438\u043c\u0430\u00bb", "payment:mastercard": "yes", "payment:visa": "yes", "phone": "+7 342 2156039"}}, {"type": "node", "id": 1930765984, "lat": 58.0569059, "lon": 55.8800185, "tags": {"amenity": "cafe", "name": "\u041c\u0435\u0447\u0442\u0430"}}, {"type": "node", "id": 1932336505, "lat": 58.0013955, "lon": 56.1471658, "tags": {"amenity": "restaurant", "name": "100\u043b\u043e\u0432\u0430\u044f"}}, {"type": "node", "id": 1932347636, "lat": 58.0036696, "lon": 56.2092029, "tags": {"amenity": "fast_food", "cuisine": "regional", "name": "\u0421\u0442\u043e\u043b\u043e\u0432\u0430\u044f"}}, {"type": "node", "id": 1932349391, "lat": 58.0031802, "lon": 56.215623, "tags": {"amenity": "fast_food", "cuisine": "regional", "name": "\u0421\u0442\u043e\u043b\u043e\u0432\u0430\u044f"}}, {"type": "node", "id": 1958284414, "lat": 58.113454, "lon": 56.3192833, "tags": {"addr:housenumber": "6", "addr:street": "\u0443\u043b\u0438\u0446\u0430 \u041a\u0430\u0440\u0431\u044b\u0448\u0435\u0432\u0430", "amenity": "cafe", "cuisine": "coffee_shop", "name": "La fleur"}}, {"type": "node", "id": 1966963844, "lat": 58.1124211, "lon": 56.3034821, "tags": {"addr:housenumber": "37", "addr:street": "\u0443\u043b\u0438\u0446\u0430 \u041f\u0438\u0441\u0430\u0440\u0435\u0432\u0430", "amenity": "restaurant", "cuisine": "international", "name": "\u041b\u0443\u043a\u043e\u043c\u043e\u0440\u044c\u0435"}}, {"type": "node", "id": 1969439871, "lat": 58.0045655, "lon": 56.2063944, "tags": {"amenity": "cafe", "name": "\u041f\u0438\u0440\u043e\u0436\u043a\u043e\u0432\u0430\u044f", "opening_hours": "Mo-Su 08:00-18:00"}}, {"type": "node", "id": 1969467420, "lat": 57.9943091, "lon": 56.227902, "tags": {"amenity": "cafe", "name": "\u0416\u0430\u0440-\u043f\u0442\u0438\u0446\u0430"}}, {"type": "node", "id": 1971072180, "lat": 57.990295, "lon": 56.2337003, "tags": {"addr:housenumber": "33", "addr:street": "\u0443\u043b\u0438\u0446\u0430 \u041c\u0438\u043b\u044c\u0447\u0430\u043a\u043e\u0432\u0430", "amenity": "cafe", "cuisine": "asian", "name": "\u0420\u0438\u0441 \u041b\u0430\u043f\u0448\u0430", "opening_hours": "Mo-Su 12:00-24:00", "operator": "\u041e\u041e\u041e \u00ab\u0412\u0438\u0441\u00bb", "phone": "+7 342 2247650"}}, {"type": "node", "id": 1971765462, "lat": 57.9720154, "lon": 56.2447965, "tags": {"amenity": "cafe", "name": "\u0420\u0435\u0433\u0438\u043e\u043d"}}, {"type": "node", "id": 2014736132, "lat": 58.011618, "lon": 56.2052463, "tags": {"amenity": "fast_food"}}, {"type": "node", "id": 2183017690, "lat": 57.9766646, "lon": 56.2455084, "tags": {"amenity": "restaurant", "name": "\u041b\u0430\u043d\u0433\u0443\u0441\u0442"}}, {"type": "node", "id": 2292111024, "lat": 57.977947, "lon": 56.2308227, "tags": {"amenity": "cafe", "name": "\u0414\u0438\u0430\u043b\u043e\u0433"}}, {"type": "node", "id": 2295919157, "lat": 57.9892933, "lon": 56.2022283, "tags": {"amenity": "cafe", "name": "100\u043b\u043e\u0432\u0430\u044f"}}, {"type": "node", "id": 2304008324, "lat": 58.0148372, "lon": 56.2532103, "tags": {"amenity": "restaurant", "cuisine": "balkan", "name": "\u041c\u043e\u043d\u0442\u0435\u043d\u0435\u0433\u0440\u043e", "opening_hours": "Mo-Sa 12:00-24:00; Su 13:00-22:00", "phone": "+7 342 2121231", "website": "http://four-rest.ru"}}, {"type": "node", "id": 2304012687, "lat": 58.0013192, "lon": 56.2611826, "tags": {"amenity": "cafe", "cuisine": "french", "name": "Ma Cherie"}}, {"type": "node", "id": 2306370084, "lat": 58.0003335, "lon": 56.1626071, "tags": {"amenity": "cafe", "name": "\u0411\u043b\u0438\u043a"}}, {"type": "node", "id": 2327951722, "lat": 58.012787, "lon": 56.2503434, "tags": {"amenity": "restaurant", "contact:phone": "+7 342 217 10 01", "contact:vk": "http://vk.com/kafenikala", "cuisine": "georgian", "name": "\u041d\u0438\u043a\u0430\u043b\u0430 \u041f\u0438\u0440\u043e\u0441\u043c\u0430\u043d\u0438", "opening_hours:lunch": "Mo-Fr 11:00-16:00", "website": "http://vk.com/kafenikala"}}, {"type": "node", "id": 2335309555, "lat": 57.9991883, "lon": 56.1150849, "tags": {"amenity": "cafe", "name": "\u0412\u0430\u043b\u0434\u0435\u0440"}}, {"type": "node", "id": 2335541834, "lat": 57.9530485, "lon": 56.2505843, "tags": {"amenity": "fast_food", "cuisine": "regional", "name": "\u0421\u0442\u043e\u043b\u043e\u0432\u0430\u044f"}}, {"type": "node", "id": 2335541835, "lat": 57.9873135, "lon": 56.2483864, "tags": {"amenity": "fast_food", "cuisine": "regional", "name": "\u0421\u0442\u043e\u043b\u043e\u0432\u0430\u044f"}}, {"type": "node", "id": 2336998244, "lat": 58.0093255, "lon": 56.2395716, "tags": {"amenity": "pub", "check_date": "2023-07-22", "name": "\u0428\u0435\u0439\u043c\u0443\u0441", "payment:mastercard": "yes", "payment:visa": "yes", "theme": "irish"}}, {"type": "node", "id": 2337789928, "lat": 58.0065529, "lon": 56.2311125, "tags": {"amenity": "fast_food", "cuisine": "regional", "name": "\u0421\u0442\u0443\u0434\u0435\u043d\u0447\u0435\u0441\u043a\u0430\u044f \u0441\u0442\u043e\u043b\u043e\u0432\u0430\u044f"}}, {"type": "node", "id": 2340833650, "lat": 58.0136471, "lon": 56.2372028, "tags": {"amenity": "cafe", "cuisine": "coffee_shop", "name": "Cup By Cup", "opening_hours": "Mo-Fr 08:00-23:00; Sa,Su 10:00-23:00"}}, {"type": "node", "id": 2376762519, "lat": 57.9937896, "lon": 56.1968253, "tags": {"addr:housenumber": "8\u0410", "addr:postcode": "614087", "addr:street": "\u0443\u043b\u0438\u0446\u0430 \u0410\u043a\u0430\u0434\u0435\u043c\u0438\u043a\u0430 \u0412\u0430\u0432\u0438\u043b\u043e\u0432\u0430", "amenity": "cafe", "cuisine": "international", "name": "\u0410\u0437\u0438\u0437\u0430"}}, {"type": "node", "id": 2378081439, "lat": 58.0058904, "lon": 56.2407624, "tags": {"amenity": "restaurant", "cuisine": "ukrainian", "name": "\u0425\u0443\u0442\u043e\u0440\u043e\u043a"}}, {"type": "node", "id": 2469518440, "lat": 58.0140257, "lon": 56.2539638, "tags": {"amenity": "restaurant", "cuisine": "regional", "name": "Gorki\u0439"}}, {"type": "node", "id": 2481291072, "lat": 58.0204441, "lon": 56.2504045, "tags": {"amenity": "cafe", "name": "\u0417\u043e\u043b\u043e\u0442\u0430\u044f \u0440\u044b\u0431\u043a\u0430"}}, {"type": "node", "id": 2481304233, "lat": 57.9732695, "lon": 56.2390982, "tags": {"amenity": "public_building", "name": "\u042e\u043d\u043e\u0441\u0442\u044c"}}, {"type": "node", "id": 2481311469, "lat": 58.0057642, "lon": 56.2466827, "tags": {"amenity": "cafe", "name": "\u0423\u0440\u0430\u043b\u044c\u0441\u043a\u0438\u0435 \u043f\u043e\u0441\u0438\u043a\u0443\u043d\u0447\u0438\u043a\u0438"}}, {"type": "node", "id": 2481311470, "lat": 58.0055943, "lon": 56.2460749, "tags": {"amenity": "restaurant", "cuisine": "ukrainian", "name": "\u0425\u0443\u0442\u043e\u0440\u043e\u043a"}}, {"type": "node", "id": 2482640653, "lat": 57.9681965, "lon": 56.203334, "tags": {"amenity": "cafe", "name": "\u041d\u0430\u0442\u0430\u043b\u0438"}}, {"type": "node", "id": 2488005989, "lat": 57.9636867, "lon": 56.2336173, "tags": {"amenity": "restaurant", "name": "\u0420\u0430\u0441\u043f\u0443\u0442\u0438\u043d"}}, {"type": "node", "id": 2492251763, "lat": 58.0076793, "lon": 56.2324171, "tags": {"amenity": "restaurant", "cuisine": "azerbaijan", "name": "\u0421\u0443\u0444\u0440\u0430"}}, {"type": "node", "id": 2493515699, "lat": 58.0132657, "lon": 56.2397018, "tags": {"amenity": "restaurant", "cuisine": "french", "name": "\u041a\u0440\u0435\u043f\u0435\u0440\u0438 \u0424\u0440\u0430\u043d\u0441\u0435\u0437"}}, {"type": "node", "id": 2494859864, "lat": 58.0063212, "lon": 56.2071245, "tags": {"amenity": "cafe", "name": "\u0418\u0441\u0442\u043e\u0440\u0438\u044f"}}, {"type": "node", "id": 2504131924, "lat": 58.1038889, "lon": 56.3002345, "tags": {"addr:housenumber": "43", "addr:street": "\u0443\u043b\u0438\u0446\u0430 \u0412\u0438\u043b\u044c\u044f\u043c\u0441\u0430", "amenity": "cafe", "name": "\u0424\u0438\u043b\u0438\u043d", "wifi": "no"}}, {"type": "node", "id": 2526658484, "lat": 58.0028191, "lon": 56.2492723, "tags": {"amenity": "cafe", "name": "\u041a \u0442\u0435\u0449\u0435 \u043d\u0430 \u0431\u043b\u0438\u043d\u044b"}}, {"type": "node", "id": 2558145616, "lat": 57.977054, "lon": 56.1840439, "tags": {"addr:city": "\u041f\u0435\u0440\u043c\u044c", "addr:housenumber": "45\u0411", "addr:postcode": "614022", "addr:street": "\u0443\u043b\u0438\u0446\u0430 \u041c\u0438\u0440\u0430", "amenity": "restaurant", "cuisine": "international", "internet_access": "wlan", "name": "FOUR", "opening_hours": "24/7", "phone": "+7 (342) 227\u201267\u201290", "website": "https://www.four-perm.ru/"}}, {"type": "node", "id": 2560032207, "lat": 58.0094228, "lon": 56.2456507, "tags": {"amenity": "restaurant", "cuisine": "french", "name": "\u041b\u0435 \u041c\u0430\u0440\u0448"}}, {"type": "node", "id": 2578345021, "lat": 57.9421089, "lon": 56.2683677, "tags": {"amenity": "cafe", "name": "\u0414\u0430\u043b\u0438"}}, {"type": "node", "id": 2578384040, "lat": 58.0066774, "lon": 56.2368952, "tags": {"amenity": "cafe", "name": "\u041a\u043e\u0440\u0438\u0446\u0430", "name:en": "Koritsa", "opening_hours": "Mo-Th 11:00-02:00; Fr 11:00-04:00; Sa 12:00-04:00; Su 12:00-02:00"}}, {"type": "node", "id": 2578384044, "lat": 58.006751, "lon": 56.2368398, "tags": {"amenity": "restaurant", "cuisine": "ukrainian", "name": "\u0425\u0443\u0442\u043e\u0440\u043e\u043a"}}, {"type": "node", "id": 2588118171, "lat": 57.9692274, "lon": 56.15656, "tags": {"amenity": "cafe", "name": "\u0423\u0440\u0430\u043b\u044c\u0441\u043a\u0438\u0435 \u043f\u043e\u0441\u0438\u043a\u0443\u043d\u0447\u0438\u043a\u0438", "opening_hours": "24/7"}}, {"type": "node", "id": 2588125280, "lat": 57.9755627, "lon": 56.1976146, "tags": {"amenity": "cafe", "name": "\u0412\u043e\u0441\u0442\u043e\u043a"}}, {"type": "node", "id": 2604579702, "lat": 57.9953785, "lon": 56.2450705, "tags": {"amenity": "restaurant", "check_date:opening_hours": "2021-08-19", "cuisine": "greek", "name": "\u041e\u043b\u0438\u0432\u0430", "opening_hours": "Mo-Su 12:00-24:00"}}, {"type": "node", "id": 2614775241, "lat": 57.9773754, "lon": 56.1707933, "tags": {"amenity": "fast_food", "cuisine": "sushi", "name": "\u0410\u0432\u0442\u043e\u0440\u043e\u043b\u043b\u044b"}}, {"type": "node", "id": 2616945839, "lat": 58.0089788, "lon": 56.2352409, "tags": {"amenity": "restaurant", "capacity": "50", "name": "In Vino", "opening_hours": "10:00-24:00", "phone": "+7 342 2114555"}}, {"type": "node", "id": 2635396886, "lat": 58.0164787, "lon": 56.2411812, "tags": {"amenity": "cafe", "contact:phone": "+7 342 218 12 35", "cuisine": "balkan", "name": "\u0414\u0440\u0443\u0433\u043e\u0435 \u043c\u0435\u0441\u0442\u043e", "opening_hours": "Mo-Sa 12:00-23:00, Su 13:00-22:00", "website": "https://www.vkusnoest.ru/kafe-drugoe-mesto"}}, {"type": "node", "id": 2635464372, "lat": 58.0046856, "lon": 56.2063375, "tags": {"amenity": "pub", "contact:phone": "+7 922 3631112", "name": "\u0427\u0435\u0448\u0438\u0440\u0441\u043a\u0438\u0439 \u043a\u043e\u0442", "opening_hours": "Mo-Su 00:00-23:00"}}, {"type": "node", "id": 2646950131, "lat": 57.9844454, "lon": 56.2679811, "tags": {"amenity": "cafe", "name": "\u0422\u0430\u0440\u044b-\u0411\u0430\u0440\u044b"}}, {"type": "node", "id": 2675384940, "lat": 57.9533136, "lon": 56.2693824, "tags": {"amenity": "fast_food", "cuisine": "regional", "name": "\u0421\u0442\u043e\u043b\u043e\u0432\u0430\u044f \u0441\u0435\u043b\u044c\u0445\u043e\u0437\u0430\u043a\u0430\u0434\u0435\u043c\u0438\u0438"}}, {"type": "node", "id": 2696051700, "lat": 58.035886, "lon": 56.1443005, "tags": {"amenity": "fast_food", "contact:email": "info@alendvic.ru", "contact:phone": "+7 342 2065222;+7 342 2137522", "contact:website": "http://sfc-chicken.ru", "name": "Southern Fried Chicken", "opening_hours": "Mo-Su 10:00-21:00"}}, {"type": "node", "id": 2696629014, "lat": 57.9829992, "lon": 56.2175809, "tags": {"amenity": "cafe", "name": "\u041c\u0430\u0444\u0438\u044f"}}, {"type": "node", "id": 2713826953, "lat": 57.9816298, "lon": 56.1893314, "tags": {"amenity": "public_building", "name": "\u0426\u0435\u043d\u0442\u0440 \u0433\u0438\u0433\u0438\u0435\u043d\u044b \u0438 \u044d\u043f\u0438\u0434\u0435\u043c\u0438\u043e\u043b\u043e\u0433\u0438\u0438 \u0432 \u041f\u0435\u0440\u043c\u0441\u043a\u043e\u043c \u043a\u0440\u0430\u0435"}}, {"type": "node", "id": 2714408357, "lat": 57.9981232, "lon": 56.1159479, "tags": {"amenity": "cafe", "name": "\u0423 \u0422\u0440\u043e\u0444\u0438\u043c\u0430"}}, {"type": "node", "id": 2782033781, "lat": 58.0060459, "lon": 56.2112927, "tags": {"amenity": "fast_food", "brand": "\u0421\u0443\u0448\u0438 Wok", "brand:en": "Sushi Wok", "brand:ru": "\u0421\u0443\u0448\u0438 Wok", "brand:wikidata": "Q25444754", "cuisine": "asian", "name": "\u0421\u0443\u0448\u0438 Wok", "name:en": "Sushi Wok", "name:ru": "\u0421\u0443\u0448\u0438 Wok", "takeaway": "yes"}}, {"type": "node", "id": 2917114511, "lat": 57.9546657, "lon": 56.2645576, "tags": {"amenity": "fast_food", "cuisine": "regional", "name": "\u0421\u0442\u043e\u043b\u043e\u0432\u0430\u044f", "opening_hours": "Mo-Fr 11:00-16:00"}}, {"type": "node", "id": 2917165466, "lat": 58.0091027, "lon": 56.2419487, "tags": {"amenity": "cafe", "name": "\u041f\u0435\u0447\u043a\u0430 - \u043f\u0438\u0440\u043e\u0436\u043a\u0438, \u043f\u0435\u043b\u044c\u043c\u0435\u043d\u0438"}}, {"type": "node", "id": 2917470668, "lat": 57.9479429, "lon": 56.0855914, "tags": {"amenity": "cafe", "name": "\u041e\u043f\u0435\u0440\u0430"}}, {"type": "node", "id": 2942102456, "lat": 58.0023341, "lon": 56.2466635, "tags": {"amenity": "restaurant", "cuisine": "italian", "name": "Casa Mia", "operator": "Restunion", "phone": "+7 342 2377647", "smoking": "yes", "website": "http://www.restunion.ru/restaurants/perm/casamia/17/"}}, {"type": "node", "id": 2942109132, "lat": 57.9572667, "lon": 56.2661972, "tags": {"amenity": "cafe", "name": "\u041a\u043e\u0444\u0435-terry"}}, {"type": "node", "id": 3018393870, "lat": 57.99668, "lon": 56.2533707, "tags": {"amenity": "cafe", "cuisine": "coffee_shop", "name": "\u041a\u043e\u0444\u0435 \u0441\u0438\u0442\u0438", "opening_hours": "Mo-Su 09:00-21:00"}}, {"type": "node", "id": 3018393875, "lat": 57.9977443, "lon": 56.252337, "tags": {"amenity": "cafe"}}, {"type": "node", "id": 3018393885, "lat": 57.9999127, "lon": 56.2503248, "tags": {"amenity": "cafe", "description": "\u041a\u0430\u0444\u0435 \u0435\u0433\u0438\u043f\u0435\u0442\u0441\u043a\u043e\u0439 \u043a\u0443\u0445\u043d\u0438", "name": "Cairo"}}, {"type": "node", "id": 3018393886, "lat": 58.00023, "lon": 56.2499981, "tags": {"amenity": "cafe", "name": "\u0421\u0435\u043c\u044c \u043b\u043e\u0436\u0435\u043a"}}, {"type": "node", "id": 3018393892, "lat": 58.0012957, "lon": 56.2490437, "tags": {"amenity": "restaurant", "cuisine": "sushi", "name": "\u0423\u043c\u0438"}}, {"type": "node", "id": 3018393899, "lat": 58.0095834, "lon": 56.2410963, "tags": {"amenity": "restaurant", "cuisine": "german", "name": "\u0410\u0432\u0433\u0443\u0441\u0442\u0438\u043d"}}, {"type": "node", "id": 3018393900, "lat": 58.0097241, "lon": 56.2409167, "tags": {"amenity": "restaurant", "cuisine": "sushi", "name": "\u0412\u0430\u0441\u0430\u0431\u0438"}}, {"type": "node", "id": 3018396334, "lat": 58.0074083, "lon": 56.2420443, "tags": {"amenity": "fast_food", "contact:email": "info@alendvic.ru", "contact:phone": "+7 342 2065222;+7 342 2233340-731", "contact:website": "http://sfc-chicken.ru", "cuisine": "burger", "name": "Southern Fried Chicken", "opening_hours": "Mo-Su 10:00-22:00"}}, {"type": "node", "id": 3039360750, "lat": 58.0098838, "lon": 56.2421775, "tags": {"amenity": "cafe", "cuisine": "coffee_shop", "name": "Central Perk"}}, {"type": "node", "id": 3039360753, "lat": 58.0098925, "lon": 56.2407822, "tags": {"amenity": "cafe", "name": "\u041a\u043e\u0444\u0435 \u0441\u0438\u0442\u0438"}}, {"type": "node", "id": 3060596436, "lat": 58.0127827, "lon": 56.2456752, "tags": {"amenity": "cafe", "cuisine": "regional", "name": "\u0421\u0442\u043e\u043b\u043e\u0432\u0430\u044f \u2116 1"}}, {"type": "node", "id": 3100245426, "lat": 58.0158113, "lon": 56.2457461, "tags": {"amenity": "cafe", "name": "\u0414\u044f\u0433\u0438\u043b\u0435\u0432"}}, {"type": "node", "id": 3103828575, "lat": 58.026963, "lon": 56.0005579, "tags": {"amenity": "fast_food", "cuisine": "kebab", "name": "\u0428\u0430\u0432\u0435\u0440\u043c\u0430", "name:ru": "\u0428\u0430\u0443\u0440\u043c\u0430", "opening_hours": "Mo-Su 09:00-00:00"}}, {"type": "node", "id": 3107414835, "lat": 58.0145917, "lon": 56.2507482, "tags": {"amenity": "restaurant", "cuisine": "georgian", "name": "\u0421\u0430\u043a\u0430\u0440\u0442\u0432\u0435\u043b\u043e"}}, {"type": "node", "id": 3109355497, "lat": 58.0144871, "lon": 56.2428545, "tags": {"amenity": "cafe", "name": "Iberia"}}, {"type": "node", "id": 3109357910, "lat": 58.0153275, "lon": 56.2409386, "tags": {"amenity": "restaurant", "name": "\u041a\u043e\u043c\u043f\u043e\u0442"}}, {"type": "node", "id": 3110965316, "lat": 58.0149216, "lon": 56.2325041, "tags": {"amenity": "restaurant", "contact:phone": "+7 342 237 57 47", "contact:vk": "http://vk.com/kafenikala", "cuisine": "georgian", "name": "\u041d\u0438\u043a\u0430\u043b\u0430 \u041f\u0438\u0440\u043e\u0441\u043c\u0430\u043d\u0438", "opening_hours:lunch": "Mo-Fr 11:00-16:00", "website": "http://vk.com/kafenikala"}}, {"type": "node", "id": 3112512872, "lat": 58.0259579, "lon": 56.2924397, "tags": {"amenity": "cafe", "name": "\u0420\u0443\u0441\u043b\u0430\u043d"}}, {"type": "node", "id": 3114541729, "lat": 57.9862615, "lon": 56.2853553, "tags": {"amenity": "cafe", "name": "\u0414\u043e\u043c\u0430\u0448\u043d\u044f\u044f \u043a\u0443\u043b\u0438\u043d\u0430\u0440\u0438\u044f"}}, {"type": "node", "id": 3114786301, "lat": 58.0112104, "lon": 56.2364917, "tags": {"amenity": "restaurant", "check_date": "2023-07-17", "cuisine": "regional", "name": "\u041f\u0435\u043b\u044c\u043c\u0435\u043d\u043d\u0430\u044f \u21162", "wheelchair": "no"}}, {"type": "node", "id": 3114786307, "lat": 58.0074602, "lon": 56.2190268, "tags": {"amenity": "cafe", "cuisine": "regional", "name": "\u0421\u0442\u043e\u043b\u043e\u0432\u0430\u044f \u0420\u043e\u0441\u0441\u0438\u044f\u043d\u043a\u0430", "opening_hours": "Mo-Su 10:00-20:00"}}, {"type": "node", "id": 3114786588, "lat": 58.0074755, "lon": 56.2633863, "tags": {"amenity": "cafe", "contact:email": "info@red-cup.ru", "contact:phone": "+7 912 0618033", "contact:website": "https://red-cup.ru/", "cuisine": "coffee_shop", "name": "Red Cup", "opening_hours": "Fr 08:30-16:00,16:30-22:04;Mo 08:30-16:00,16:30-22:00;Sa 08:30-16:00,16:30-22:05;Su 08:30-16:00,16:30-22:06;Th 08:30-16:00,16:30-22:03;Tu 08:30-16:00,16:30-22:01;We 08:30-16:00,16:30-22:02"}}, {"type": "node", "id": 3114786590, "lat": 58.0121659, "lon": 56.2515654, "tags": {"amenity": "fast_food", "brand": "\u0421\u0443\u0448\u0438 Wok", "brand:en": "Sushi Wok", "brand:ru": "\u0421\u0443\u0448\u0438 Wok", "brand:wikidata": "Q25444754", "cuisine": "asian", "name": "\u0421\u0443\u0448\u0438 Wok", "name:en": "Sushi Wok", "name:ru": "\u0421\u0443\u0448\u0438 Wok", "takeaway": "yes"}}, {"type": "node", "id": 3114786597, "lat": 58.0094147, "lon": 56.242165, "tags": {"amenity": "cafe", "name": "\u0421\u0435\u043b\u0438 \u041f\u043e\u0435\u043b\u0438"}}, {"type": "node", "id": 3114786598, "lat": 58.0089932, "lon": 56.2307456, "tags": {"amenity": "cafe", "name": "\u041a\u043e\u0444\u0435\u0439\u043d\u0430\u044f \u0447\u0430\u0448\u043a\u0430"}}, {"type": "node", "id": 3114786599, "lat": 58.0088873, "lon": 56.2280544, "tags": {"amenity": "cafe", "name": "\u0426\u0435\u043d\u0442\u0440 \u043f\u043b\u043e\u0432\u0430"}}, {"type": "node", "id": 3114787074, "lat": 58.0069901, "lon": 56.2160446, "tags": {"amenity": "cafe", "cuisine": "coffee_shop", "name": "\u041a\u043e\u0444\u0435 \u0421\u0438\u0442\u0438"}}, {"type": "node", "id": 3115236872, "lat": 58.0152233, "lon": 56.2315362, "tags": {"amenity": "restaurant", "check_date": "2023-07-19", "cuisine": "georgian", "name": "\u0421\u0430\u043a\u0430\u0440\u0442\u0432\u0435\u043b\u043e", "opening_hours": "Mo-Fr 11:00-24:00; Sa-Su 12:00-02:00", "payment:mastercard": "yes", "payment:visa": "yes", "wheelchair": "no"}}, {"type": "node", "id": 3115242229, "lat": 58.0160274, "lon": 56.2431345, "tags": {"amenity": "cafe", "cuisine": "coffee_shop", "name": "\u041a\u043e\u0444\u0435 \u0421\u0438\u0442\u0438"}}, {"type": "node", "id": 3116190367, "lat": 58.0081075, "lon": 56.2230917, "tags": {"amenity": "cafe", "name": "\u041c\u0430\u0440\u044c\u044f"}}, {"type": "node", "id": 3116191176, "lat": 58.0006391, "lon": 56.2496725, "tags": {"amenity": "fast_food", "brand": "Subway", "brand:wikidata": "Q244457", "brand:wikipedia": "en:Subway (restaurant)", "cuisine": "sandwich", "name": "Subway", "takeaway": "yes"}}, {"type": "node", "id": 3116191239, "lat": 57.9877747, "lon": 56.2570393, "tags": {"amenity": "cafe", "name": "\u0423\u0440\u0430\u043b\u044c\u0441\u043a\u0438\u0435 \u043f\u043e\u0441\u0438\u043a\u0443\u043d\u0447\u0438\u043a\u0438"}}, {"type": "node", "id": 3116191240, "lat": 57.9876901, "lon": 56.2570498, "tags": {"amenity": "cafe", "cuisine": "sushi", "name": "\u041a\u0438 \u0421\u0443\u0448\u0438"}}, {"type": "node", "id": 3116310958, "lat": 58.0084027, "lon": 56.2282201, "tags": {"amenity": "cafe", "name": "\u0412\u043a\u0443\u0441 \u0441\u0442\u0440\u0430\u043d\u0441\u0442\u0432\u0438\u0439"}}, {"type": "node", "id": 3116310961, "lat": 58.0066507, "lon": 56.2292743, "tags": {"amenity": "fast_food", "brand": "Subway", "brand:wikidata": "Q244457", "cuisine": "sandwich", "name": "Subway", "takeaway": "yes", "wheelchair": "yes"}}, {"type": "node", "id": 3116310962, "lat": 58.0065814, "lon": 56.2291096, "tags": {"amenity": "cafe", "cuisine": "french", "name": "Pari Paris", "wheelchair": "yes"}}, {"type": "node", "id": 3116310965, "lat": 58.0020232, "lon": 56.2384908, "tags": {"amenity": "cafe", "name": "Picasso"}}, {"type": "node", "id": 3116310966, "lat": 58.0013331, "lon": 56.2390588, "tags": {"amenity": "cafe", "cuisine": "uzbek", "name": "\u041b\u0430\u0433\u043c\u0430\u043d", "opening_hours": "24/7"}}, {"type": "node", "id": 3116311284, "lat": 57.9868324, "lon": 56.2482093, "tags": {"amenity": "fast_food", "name": "\u0411\u043b\u0438\u043d\u043d\u0430\u044f \u0441\u043a\u043e\u0432\u043e\u0440\u043e\u0434\u043a\u0430", "opening_hours": "Mo-Su 09:00-21:00"}}, {"type": "node", "id": 3116642252, "lat": 57.9935206, "lon": 56.1933055, "tags": {"amenity": "cafe", "cuisine": "pizza", "name": "Pizzaman"}}, {"type": "node", "id": 3118092921, "lat": 58.0266972, "lon": 56.2939552, "tags": {"amenity": "restaurant", "layer": "1", "name": "Fabrika\u041a\u0443\u0445\u043d\u044f", "phone": "+7 342 2036200"}}, {"type": "node", "id": 3118092923, "lat": 58.000339, "lon": 56.250445, "tags": {"amenity": "restaurant", "contact:facebook": "http://facebook.com/pastagrand", "contact:phone": "+7 342 281 15 77", "contact:twitter": "http://twitter.com/pasta_grande", "contact:vk": "http://vk.com/pastagrand", "cuisine": "italian", "email": "info@pastagrande.ru", "name": "Pasta Grande", "opening_hours": "Su-Th 12:00-22:00, Fr-Sa 12:00-24:00", "website": "http://www.pastagrande.ru/"}}, {"type": "node", "id": 3120323970, "lat": 58.015582, "lon": 56.2518721, "tags": {"amenity": "cafe", "name": "\u0418\u0437\u044e\u043c\u0438\u043d\u043a\u0430 & \u041a\u043e"}}, {"type": "node", "id": 3120324876, "lat": 58.0139854, "lon": 56.2566726, "tags": {"amenity": "pub", "contact:fax": "+7 (342) 212-25-45", "contact:phone": "+7 342 2122545", "contact:website": "http://www.blanche-perm.ru/", "internet_access": "yes", "internet_access:fee": "no", "name": "Blanche de Bruxelles"}}, {"type": "node", "id": 3120325983, "lat": 58.0147669, "lon": 56.2526481, "tags": {"amenity": "cafe", "name": "Two Look"}}, {"type": "node", "id": 3123700964, "lat": 57.9913007, "lon": 56.2481488, "tags": {"amenity": "fast_food", "name": "\u041f\u0438\u0440\u043e\u0436\u043a\u043e\u0432\u0430\u044f", "opening_hours": "Mo-Su 08:00-22:00"}}, {"type": "node", "id": 3123701886, "lat": 57.9998173, "lon": 56.2563966, "tags": {"addr:postcode": "614039", "amenity": "pub", "email": "freud.perm@gmail.com", "internet_access": "wlan", "name": "Freud", "opening_hours": "Mo-Th 12:00-01:00; Fr 12:00-07:00; Sa 14:00-07:00; Su 14:00-01:00", "phone": "+7 342 2072215"}}, {"type": "node", "id": 3124160846, "lat": 58.0141424, "lon": 56.234019, "tags": {"addr:housenumber": "62", "addr:street": "\u0421\u043e\u0432\u0435\u0442\u0441\u043a\u0430\u044f \u0443\u043b\u0438\u0446\u0430", "amenity": "fast_food", "name": "\u0421\u0442\u043e\u043b\u043e\u0432\u0430\u044f-\u041a\u0443\u043b\u0438\u043d\u0430\u0440\u0438\u044f", "operator": "\u0418\u041f \u041a\u0430\u0441\u0443\u043c\u043e\u0432 \u0425. \u041a.", "phone": "+7 342 2110996"}}, {"type": "node", "id": 3124163111, "lat": 58.0135455, "lon": 56.2496852, "tags": {"amenity": "restaurant", "contact:phone": "+7 342 2013345", "contact:website": "http://www.sufraperm.ru/", "cuisine": "azerbaijan", "internet_access": "no"}}, {"type": "node", "id": 3124163762, "lat": 58.0146161, "lon": 56.2341036, "tags": {"amenity": "cafe", "name": "\u041b\u0430\u043f\u0448\u0438\u0447\u043d\u0430\u044f"}}, {"type": "node", "id": 3128064789, "lat": 57.9800435, "lon": 56.2909178, "tags": {"amenity": "fast_food", "name": "Shaurma Gold", "opening_hours": "Mo-Su 11:00-22:30"}}, {"type": "node", "id": 3128813718, "lat": 57.9961467, "lon": 56.2015633, "tags": {"amenity": "cafe", "cuisine": "chinese;korean;uzbek", "description": "\u043a\u0438\u0442\u0430\u0439\u0441\u043a\u0430\u044f \u0441\u0442\u043e\u043b\u043e\u0432\u0430\u044f", "name": "\u041a\u0430\u0444\u0435"}}, {"type": "node", "id": 3128814529, "lat": 57.9953267, "lon": 56.2022136, "tags": {"addr:housenumber": "9", "addr:street": "\u041a\u0440\u043e\u043d\u0448\u0442\u0430\u0434\u0442\u0441\u043a\u0430\u044f \u0443\u043b\u0438\u0446\u0430", "amenity": "restaurant", "cuisine": "chinese;korean;uzbek", "name": "\u0410\u0440\u0438\u0440\u0430\u043d", "opening_hours": "Tu-Su 09:00-17:30"}}, {"type": "node", "id": 3129502982, "lat": 58.0099876, "lon": 56.2427669, "tags": {"amenity": "cafe", "cuisine": "regional;uzbek", "name": "\u0422\u044e\u043b\u044c\u043f\u0430\u043d"}}, {"type": "node", "id": 3130833985, "lat": 57.9997295, "lon": 56.2077694, "tags": {"amenity": "cafe", "name": "\u041c\u0430\u043d\u0433\u0430\u043b"}}, {"type": "node", "id": 3130834123, "lat": 57.9960296, "lon": 56.2017452, "tags": {"amenity": "cafe", "diet:halal": "yes", "name": "\u0410\u0445\u043c\u0430\u0434"}}, {"type": "node", "id": 3130834124, "lat": 58.0042632, "lon": 56.2229204, "tags": {"amenity": "fast_food", "name": "\u0414\u043e\u043c\u0430\u0448\u043d\u0438\u0435 \u043f\u043e\u0441\u0438\u043a\u0443\u043d\u0447\u0438\u043a\u0438", "opening_hours": "24/7"}}, {"type": "node", "id": 3130834230, "lat": 58.0075268, "lon": 56.2412138, "tags": {"amenity": "restaurant", "contact:email": "tsuru_perm@mail.ru", "contact:phone": "+7 342 2769388", "contact:website": "http://www.restunion.ru/tsuru/restaurants/9/", "cuisine": "sushi", "name": "\u0422\u0441\u0443\u0440\u0443", "opening_hours": "Mo-We,Su 12:00-22:00,Th-Sa 12:00-01:00"}}, {"type": "node", "id": 3133344249, "lat": 58.0073869, "lon": 56.2562109, "tags": {"amenity": "cafe", "name": "\u0410\u0440\u0431\u0430\u0442"}}, {"type": "node", "id": 3135139971, "lat": 58.0122224, "lon": 56.247889, "tags": {"amenity": "restaurant", "cuisine": "greek", "name": "\u0413\u0440\u0438\u0441 \u0410\u043d\u0434\u0435\u0440\u0433\u0440\u0430\u0443\u043d\u0434"}}, {"type": "node", "id": 3135141551, "lat": 58.0118524, "lon": 56.2476722, "tags": {"amenity": "restaurant", "cuisine": "sushi", "name": "\u041a\u0438\u043e\u0442\u043e"}}, {"type": "node", "id": 3139607206, "lat": 58.0164596, "lon": 56.2558372, "tags": {"amenity": "restaurant", "name": "\u0414\u0435\u0436\u0430\u0432\u044e", "opening_hours:lunch": "Mo-Su 11:00-18:00"}}, {"type": "node", "id": 3139607207, "lat": 58.0155073, "lon": 56.2560946, "tags": {"amenity": "fast_food", "name": "\u0421\u0442\u043e\u043b\u043e\u0430\u0432\u0430\u044f \u0421\u0443\u0448\u0438 \u0412\u0435\u0441\u043b\u0430", "opening_hours": "Mo-Su 11:00-18:00", "operator": "\u0418\u041f \u041f\u0438\u0433\u0430\u043b\u0435\u0432 \u0410. \u041f."}}, {"type": "node", "id": 3139607625, "lat": 58.012386, "lon": 56.240417, "tags": {"amenity": "cafe", "name": "Vertinsky"}}, {"type": "node", "id": 3139607626, "lat": 58.0123735, "lon": 56.2405865, "tags": {"amenity": "cafe", "name": "Pasternak"}}, {"type": "node", "id": 3139607627, "lat": 58.0155462, "lon": 56.2560421, "tags": {"amenity": "restaurant", "name": "\u0421\u0443\u0448\u0438 \u0432\u0435\u0441\u043b\u0430", "opening_hours": "Mo-Th 11:00-23:00, Fr-Sa 11:00-06:00"}}, {"type": "node", "id": 3141929943, "lat": 58.015101, "lon": 56.2606535, "tags": {"amenity": "restaurant", "name": "\u0420\u0430\u0437\u0433\u0443\u043b\u044f\u0439"}}, {"type": "node", "id": 3148697680, "lat": 58.0061156, "lon": 56.2282293, "tags": {"amenity": "fast_food", "name": "\u041f\u0438\u0440\u043e\u0436\u043a\u043e\u0432\u0430\u044f", "opening_hours": "Mo-Su 09:00-21:00"}}, {"type": "node", "id": 3149127247, "lat": 58.0183853, "lon": 56.2733228, "tags": {"amenity": "fast_food", "name": "#\u0412\u043a\u0443\u0441\u043d\u043e\u041f\u0440\u043e\u0441\u0442\u043e", "opening_hours": "Mo-Fr 10:00-17:00", "phone": "+79082555006"}}, {"type": "node", "id": 3150822677, "lat": 58.0037014, "lon": 56.265913, "tags": {"amenity": "cafe", "name": "\u041a\u0430\u0444\u0435\u0448\u0435\u0447\u043a\u0430", "opening_hours": "Mo-Fr 10:00-20:00, Sa-Su 11:00-18:00"}}, {"type": "node", "id": 3150822679, "lat": 58.0005023, "lon": 56.2715136, "tags": {"amenity": "cafe", "name": "\u041a\u043e\u043d\u0434\u0438\u0442\u0435\u0440\u0441\u043a\u0438\u0439 \u0414\u043e\u043c \u041a\u043e\u0444\u0435 \u0421\u0438\u0442\u0438"}}, {"type": "node", "id": 3151517923, "lat": 58.0005994, "lon": 56.2714213, "tags": {"amenity": "fast_food", "name": "\u0414\u0443\u0431\u0430\u0439 \u0441\u0438\u0442\u0438"}}, {"type": "node", "id": 3156340541, "lat": 58.0118734, "lon": 56.2290068, "tags": {"amenity": "fast_food", "name": "\u0411\u0435\u043b\u044f\u0448\u043d\u0430\u044f"}}, {"type": "node", "id": 3161368911, "lat": 58.0150359, "lon": 56.2382491, "tags": {"addr:housenumber": "48", "addr:postcode": "614015", "addr:street": "\u0421\u043e\u0432\u0435\u0442\u0441\u043a\u0430\u044f \u0443\u043b\u0438\u0446\u0430", "amenity": "pub", "cuisine": "steak_house", "name": "The Butcher's Daughter", "opening_hours": "Mo-Fr 14:00-24:00; Sa,Su 00:00-02:00,15:00-24:00", "phone": "+7 342 2888565"}}, {"type": "node", "id": 3188091150, "lat": 58.0127078, "lon": 56.2475431, "tags": {"amenity": "restaurant", "contact:phone": "+7 342 2124094", "contact:website": "http://www.restunion.ru/casamia/restaurants/19/", "name": "Casa Mia", "opening_hours": "Mo-Su 10:00-22:00"}}, {"type": "node", "id": 3188091261, "lat": 58.0127086, "lon": 56.2469112, "tags": {"amenity": "restaurant", "contact:phone": "+7 342 250 20 60", "contact:website": "http://www.makao-perm.ru/", "cuisine": "chinese;sushi", "name": "\u041c\u0430\u043a\u0430\u043e", "opening_hours": "Tu-Th 10:00-23:00, Fr-Sa 11:00-01:00"}}, {"type": "node", "id": 3188091262, "lat": 58.0099976, "lon": 56.2428097, "tags": {"amenity": "cafe", "name": "Red Cup"}}, {"type": "node", "id": 3188091263, "lat": 58.0130392, "lon": 56.2465953, "tags": {"amenity": "cafe", "contact:email": "violetperm@mail.ru", "contact:phone": "+7 342 2091212", "contact:website": "http://www.violetperm.ru/", "name": "\u0412\u0438\u043e\u043b\u0435\u0442 \u0412\u0438\u043d\u0442\u0430\u0436", "opening_hours": "Mo-Su 08:00-21:00", "shop": "confectionery"}}, {"type": "node", "id": 3189730899, "lat": 58.005693, "lon": 56.2529755, "tags": {"amenity": "restaurant", "name": "\u041a\u043e\u043c\u043f\u043e\u0442", "phone": "+7 342 2410505"}}, {"type": "node", "id": 3193437749, "lat": 58.0059915, "lon": 56.2208538, "tags": {"amenity": "fast_food", "cuisine": "kebab", "name": "\u0421\u043e\u0444\u044c\u044f", "opening_hours": "24/7"}}, {"type": "node", "id": 3195470111, "lat": 58.0071037, "lon": 56.2326404, "tags": {"amenity": "cafe", "contact:email": "violetperm@mail.ru", "contact:phone": "+7 342 2091212", "contact:website": "http://www.violetperm.ru/", "name": "\u0412\u0438\u043e\u043b\u0435\u0442 \u041f\u0440\u0435\u043c\u044c\u0435\u0440", "opening_hours": "Mo-Su 08:00-21:00", "shop": "confectionery"}}, {"type": "node", "id": 3195470113, "lat": 58.0077418, "lon": 56.2327589, "tags": {"amenity": "fast_food", "contact:phone": "+7 342 259 98 38", "name": "\u0421\u0442\u043e\u043b\u043e\u0432\u0430\u044f", "operator": "\u041e\u041e\u041e \u00ab\u042d\u043c\u0438\u0440\u00bb"}}, {"type": "node", "id": 3198633719, "lat": 57.965124, "lon": 56.2634456, "tags": {"amenity": "fast_food", "brand:wikidata": "Q177054", "brand:wikipedia": "ru:Burger King", "contact:email": "FeedBack@burgerking.ru", "contact:phone": "+7 495 5445000", "contact:website": "https://burgerkingrus.ru/", "cuisine": "burger", "internet_access": "wlan", "internet_access:fee": "no", "name": "\u0411\u0443\u0440\u0433\u0435\u0440 \u041a\u0438\u043d\u0433", "name:en": "Burger King", "name:ru": "\u0411\u0443\u0440\u0433\u0435\u0440 \u041a\u0438\u043d\u0433", "opening_hours": "Mo-Su 10:00-21:55", "ref": "270", "takeaway": "yes"}}, {"type": "node", "id": 3213641406, "lat": 58.0059764, "lon": 56.2061113, "tags": {"amenity": "restaurant", "cuisine": "pizza", "name": "\u041f\u0438\u0446\u0446\u0430 \u041f\u0440\u0435\u0441\u0442\u043e", "name:en": "Pizza Presto"}}, {"type": "node", "id": 3220086795, "lat": 58.0083174, "lon": 56.1908554, "tags": {"amenity": "cafe", "level": "1"}}, {"type": "node", "id": 3221424303, "lat": 58.0137732, "lon": 56.2277972, "tags": {"amenity": "restaurant", "cuisine": "uzbek", "name": "\u0411\u0430\u0440\u0430\u043a\u044f\u0442"}}, {"type": "node", "id": 3226027959, "lat": 57.9956646, "lon": 56.2543877, "tags": {"amenity": "cafe", "cuisine": "ice_cream", "email": "alendvic@perm.ru", "internet_access": "wlan", "name": "\u041a\u0430\u0444\u0435 \u0411\u0430\u0441\u043a\u0438\u043d \u0420\u043e\u0431\u0431\u0438\u043d\u0441", "note": "\u0430\u0434\u0440\u0435\u0441\u0430 \u0432\u0441\u0435\u0445 \u043a\u0430\u0444\u0435 \u0441\u0435\u0442\u0438 - \u0432 \u0433\u0440\u0443\u043f\u043f\u0435 http://vk.com/topic-63501470_29190576", "opening_hours": "08:00-22:00", "operator": "\u0417\u0410\u041e \u00ab\u0410\u043b\u0435\u043d\u0434\u0432\u0438\u043a\u00bb (http://alendvic.ru/contacts)", "phone": "+7 342 2103113;+7 342 2458703", "website": "https://baskinrobbins.ru/?n=6&overcityfind=1&findadress=%D0%BF%D0%B5%D1%80%D0%BC%D1%8C"}}, {"type": "node", "id": 3226429409, "lat": 57.9668304, "lon": 56.2610866, "tags": {"amenity": "fast_food", "name": "\"\u041d\u043e\u0432\u0430\u044f\" \u0441\u0442\u043e\u043b\u043e\u0432\u0430\u044f"}}, {"type": "node", "id": 3233962461, "lat": 58.0185576, "lon": 56.289535, "tags": {"amenity": "fast_food", "name": "\u041f\u0438\u0440\u043e\u0436\u043a\u043e\u0432\u0430\u044f"}}, {"type": "node", "id": 3235012600, "lat": 58.0054655, "lon": 56.2456221, "tags": {"amenity": "cafe", "name": "Riga", "phone": "+7 342 2786101"}}, {"type": "node", "id": 3451899717, "lat": 58.0686104, "lon": 56.3451826, "tags": {"amenity": "cafe", "name": "\u0421\u0442\u043e\u043b\u043e\u0432\u0430\u044f"}}, {"type": "node", "id": 3451901991, "lat": 58.087811, "lon": 56.3871565, "tags": {"amenity": "cafe", "name": "\u0421\u0442\u043e\u043b\u043e\u0432\u0430\u044f"}}, {"type": "node", "id": 3549494330, "lat": 58.0178472, "lon": 56.2931401, "tags": {"amenity": "cafe", "contact:phone": "+7 342 2625520", "name": "\u0413\u0430\u043b\u0430", "opening_hours": "Mo-Sa 11:00-23:00, Su 11:00-22:00"}}, {"type": "node", "id": 3556694628, "lat": 58.0068991, "lon": 56.2530403, "tags": {"amenity": "cafe", "name": "Cup By Cup"}}, {"type": "node", "id": 3561511777, "lat": 58.016639, "lon": 56.2916632, "tags": {"amenity": "cafe", "name": "\u0421\u0442\u0430\u0440\u044b\u0439 \u0434\u0432\u043e\u0440\u0438\u043a", "opening_hours": "12:00-22:00"}}, {"type": "node", "id": 3561512336, "lat": 58.0127364, "lon": 56.2836744, "tags": {"amenity": "fast_food", "name": "\u0411\u0443\u0440\u0433\u0435\u0440'S"}}, {"type": "node", "id": 3561512337, "lat": 58.0112788, "lon": 56.284591, "tags": {"amenity": "cafe", "brand": "Coffee Time", "brand:wikidata": "Q5140932", "cuisine": "coffee_shop", "name": "Coffee Time", "takeaway": "yes"}}, {"type": "node", "id": 3561512343, "lat": 58.0167654, "lon": 56.2921569, "tags": {"amenity": "fast_food", "brand": "\u0421\u0443\u0448\u0438 Wok", "brand:en": "Sushi Wok", "brand:ru": "\u0421\u0443\u0448\u0438 Wok", "brand:wikidata": "Q25444754", "cuisine": "asian", "name": "\u0421\u0443\u0448\u0438 Wok", "name:en": "Sushi Wok", "name:ru": "\u0421\u0443\u0448\u0438 Wok", "takeaway": "yes"}}, {"type": "node", "id": 3561512346, "lat": 58.0225077, "lon": 56.2963287, "tags": {"amenity": "fast_food", "name": "\u0423\u0440\u0430\u043b\u044c\u0441\u043a\u0438\u0435 \u041f\u043e\u0441\u0438\u043a\u0443\u043d\u0447\u0438\u043a\u0438"}}, {"type": "node", "id": 3561512347, "lat": 58.0269495, "lon": 56.2946804, "tags": {"amenity": "restaurant", "name": "Summer Veranda"}}, {"type": "node", "id": 3571133097, "lat": 58.0115712, "lon": 56.2835228, "tags": {"amenity": "cafe", "name": "\u0411\u0443\u0444\u0435\u0442"}}, {"type": "node", "id": 3571133298, "lat": 58.0144753, "lon": 56.2828777, "tags": {"amenity": "fast_food", "brand": "\u0421\u0443\u0448\u0438 Wok", "brand:en": "Sushi Wok", "brand:ru": "\u0421\u0443\u0448\u0438 Wok", "brand:wikidata": "Q25444754", "cuisine": "asian", "name": "\u0421\u0443\u0448\u0438 Wok", "name:en": "Sushi Wok", "name:ru": "\u0421\u0443\u0448\u0438 Wok", "takeaway": "yes"}}, {"type": "node", "id": 3571133445, "lat": 58.0134553, "lon": 56.2828894, "tags": {"amenity": "cafe", "name": "\u041c\u043e\u043b\u043e\u0442off"}}, {"type": "node", "id": 3598759331, "lat": 58.0131782, "lon": 56.2941317, "tags": {"amenity": "cafe", "name": "\u041f\u0430\u043b\u044c\u043c\u0430"}}, {"type": "node", "id": 3598761819, "lat": 58.0130107, "lon": 56.2941276, "tags": {"amenity": "fast_food", "name": "\u0428\u0430\u0443\u0440\u043c\u0430", "opening_hours": "24/7"}}, {"type": "node", "id": 3598816723, "lat": 58.0150892, "lon": 56.2830347, "tags": {"amenity": "fast_food", "name": "\u0428\u0430\u0443\u0440\u043c\u0430"}}, {"type": "node", "id": 3598817204, "lat": 58.0098253, "lon": 56.2579549, "tags": {"amenity": "restaurant", "contact:phone": "+7 34220 62929", "cuisine": "georgian", "name": "\u0421\u0430\u043a\u0430\u0440\u0442\u0432\u0435\u043b\u043e", "name:ru": "\u0421\u0430\u043a\u0430\u0440\u0442\u0432\u0435\u043b\u043e", "website": "http://sakartvelo-perm.ru/"}}, {"type": "node", "id": 3598817764, "lat": 58.010681, "lon": 56.2565373, "tags": {"amenity": "pub", "name": "Spinach"}}, {"type": "node", "id": 3598817899, "lat": 58.0076805, "lon": 56.2592807, "tags": {"amenity": "cafe", "contact:email": "info@red-cup.ru", "contact:phone": "+7 912 0618033", "contact:website": "https://red-cup.ru/", "name": "Red Cup", "opening_hours": "Mo-Su 08:00-14:00,14:30-17:00,17:30-21:30"}}, {"type": "node", "id": 3599083910, "lat": 58.0107215, "lon": 56.2405558, "tags": {"amenity": "cafe", "contact:email": "komidom59@gmail.com", "contact:instagram": "@komyperm_kuhnya", "description": "\u041a\u0430\u0444\u0435 \u043a\u043e\u043c\u0438-\u043f\u0435\u0440\u043c\u044f\u0446\u0441\u043a\u043e\u0439 \u043d\u0430\u0446\u0438\u043e\u043d\u0430\u043b\u044c\u043d\u043e\u0439 \u043a\u0443\u0445\u043d\u0438", "name": "\u0427\u043e\u0437\u043a\u044b\u0442 \u043a\u0435\u0440\u043a\u0443", "opening_hours": "Mo-Su 12:00-22:00", "phone": "+73422030098; +79082716148", "website": "https://nationalkomikitchen.com/"}}, {"type": "node", "id": 3599100990, "lat": 58.0108313, "lon": 56.2421091, "tags": {"amenity": "restaurant", "name": "Santorini"}}, {"type": "node", "id": 3604779131, "lat": 58.0093555, "lon": 56.2544953, "tags": {"amenity": "fast_food", "cuisine": "kebab", "name": "Doner-Kebab"}}, {"type": "node", "id": 3610740726, "lat": 58.0167259, "lon": 56.2919552, "tags": {"amenity": "fast_food", "name": "\u0423\u0440\u0430\u043b\u044c\u0441\u043a\u0438\u0435 \u043f\u043e\u0441\u0438\u043a\u0443\u043d\u0447\u0438\u043a\u0438"}}, {"type": "node", "id": 3612794855, "lat": 58.0509002, "lon": 56.08516, "tags": {"amenity": "cafe"}}, {"type": "node", "id": 3613007720, "lat": 58.0041987, "lon": 55.9403437, "tags": {"amenity": "cafe", "cuisine": "regional", "name": "\u0423\u0440\u0430\u043b\u044c\u0441\u043a\u0438\u0435 \u041f\u043e\u0441\u0438\u043a\u0443\u043d\u0447\u0438\u043a\u0438", "opening_hours": "24/7", "smoking": "outside"}}, {"type": "node", "id": 3615570838, "lat": 57.9754989, "lon": 56.243275, "tags": {"amenity": "cafe", "name": "\u0410\u0440\u0441\u0435\u043d\u0430\u043b-\u0422\u0435\u0445\u0446\u0435\u043d\u0442\u0440"}}, {"type": "node", "id": 3623093480, "lat": 58.0054952, "lon": 56.2143457, "tags": {"amenity": "restaurant", "cuisine": "japanese", "name": "\u0412\u0440\u0435\u043c\u044f \u0441\u0443\u0448\u0438", "opening_hours": "Mo-Th 16:00-23:00, Fr-Sa 16:00-24:00", "phone": "+7 342 2040000"}}, {"type": "node", "id": 3623093481, "lat": 58.0058209, "lon": 56.2165708, "tags": {"amenity": "restaurant", "name": "\u0417\u043b\u0430\u0442\u0438\u0431\u043e\u0440", "opening_hours": "Mo-Sa 12:00-00:00, Su 12:00-23:00"}}, {"type": "node", "id": 3625189227, "lat": 58.1308725, "lon": 56.3862509, "tags": {"amenity": "cafe", "name": "\u0421\u0442\u043e\u043b\u043e\u0432\u0430\u044f"}}, {"type": "node", "id": 3625430558, "lat": 57.9725984, "lon": 56.2312193, "tags": {"amenity": "cafe", "name": "\u0411\u0443\u0440\u0433\u0435\u0440-\u0445\u0438\u0442"}}, {"type": "node", "id": 3631680783, "lat": 58.0106067, "lon": 56.2506922, "tags": {"amenity": "cafe", "cuisine": "coffee_shop", "name": "Cappuccino Club"}}, {"type": "node", "id": 3631680788, "lat": 58.0129016, "lon": 56.2609098, "tags": {"amenity": "cafe", "name": "Z\u0430\u0447\u0435\u0442"}}, {"type": "node", "id": 3635219020, "lat": 58.0166156, "lon": 56.2805486, "tags": {"amenity": "restaurant", "name": "\u042d\u043b\u044c-\u041c\u0443\u043d"}}, {"type": "node", "id": 3635219025, "lat": 58.0077168, "lon": 56.2326149, "tags": {"amenity": "restaurant", "cuisine": "georgian;russian", "internet_access": "wlan", "name": "\u0413\u0443\u0440\u043c\u0430\u043d", "opening_hours": "10:00-24:00"}}, {"type": "node", "id": 3635219027, "lat": 58.0071473, "lon": 56.2287978, "tags": {"amenity": "fast_food", "name": "\u042d\u0442\u043e \u0411\u0443\u0440\u0433\u0435\u0440, \u041a\u0430\u0440\u043b!", "website": "http://eto-burger-carl.ru/", "wheelchair": "yes"}}, {"type": "node", "id": 3649020492, "lat": 58.0061853, "lon": 56.1979588, "tags": {"addr:city": "\u041f\u0435\u0440\u043c\u044c", "addr:housenumber": "113", "addr:postcode": "614068", "addr:street": "\u041f\u0435\u0442\u0440\u043e\u043f\u0430\u0432\u043b\u043e\u0432\u0441\u043a\u0430\u044f \u0443\u043b\u0438\u0446\u0430", "amenity": "cafe", "cuisine": "\u043a\u0438\u0442\u0430\u0439\u0441\u043a\u0438\u0439;\u0430\u0437\u0438\u0430\u0442\u0441\u043a\u0438\u0439", "internet_access": "yes", "name": "\u041f\u0435\u043a\u0438\u043d", "opening_hours": "Mo-Su 12:00-23:00", "phone": "+79120618888", "website": "https://vk.com/pekin_perm"}}, {"type": "node", "id": 3835404009, "lat": 58.028161, "lon": 56.0043302, "tags": {"amenity": "fast_food", "contact:phone": "+7 951 9367685", "cuisine": "kebab", "name": "La Vache"}}, {"type": "node", "id": 3835404010, "lat": 58.0073255, "lon": 56.2602355, "tags": {"amenity": "fast_food", "name": "\u0421\u043a\u043e\u0432\u043e\u0440\u043e\u0434\u043a\u0430", "operator": "\u0418\u041f \u0420\u0443\u0437\u0430\u0439\u043a\u0438\u043d\u0430 \u0410. \u041d."}}, {"type": "node", "id": 3835404011, "lat": 58.014306, "lon": 56.2291696, "tags": {"amenity": "fast_food", "contact:phone": "+7 902 8017345", "fast_food": "cafeteria"}}, {"type": "node", "id": 3835513357, "lat": 58.0067065, "lon": 56.2561859, "tags": {"amenity": "cafe", "contact:phone": "+7 902 8008777", "diet:vegetarian": "yes", "name": "Lemon Tree"}}, {"type": "node", "id": 3835513359, "lat": 58.0072215, "lon": 56.2518303, "tags": {"amenity": "restaurant", "contact:phone": "+7 342 2070222", "cuisine": "georgian;italian", "name": "One \u0413\u043e\u0433\u0438"}}, {"type": "node", "id": 3835513445, "lat": 58.0120549, "lon": 56.2405161, "tags": {"amenity": "fast_food", "cuisine": "levantin", "name": "\u0410\u043b\u0438 \u0424\u0430\u043b\u0430\u0444\u0435\u043b\u044c"}}, {"type": "node", "id": 3835513446, "lat": 58.007661, "lon": 56.2128333, "tags": {"amenity": "fast_food", "contact:phone": "+7 908 2407170", "name": "\u0412\u0438\u0432\u0430\u0442-\u0411\u0443\u0444\u0435\u0442", "operator": "\u041e\u041e\u041e \u00ab\u0412\u0438\u0432\u0430\u0442-\u0422\u0440\u0435\u0439\u0434\u00bb"}}, {"type": "node", "id": 3835513449, "lat": 58.0093384, "lon": 55.9790755, "tags": {"amenity": "restaurant", "contact:phone": "+7 342 2527899", "name": "\u041f\u0430\u0440\u043a \u041e\u0442\u0435\u043b\u044c", "operator": "\u041e\u041e\u041e \u00ab\u0413\u0440\u0430\u043d\u0434\u00bb"}}, {"type": "node", "id": 3865144064, "lat": 57.972936, "lon": 56.2352145, "tags": {"amenity": "fast_food", "contact:email": "info@alendvic.ru", "contact:phone": "+7 342 2065222;+7 342 2140612", "contact:website": "http://sfc-chicken.ru", "name": "Southern Fried Chicken", "opening_hours": "Mo-Su 10:00-21:00"}}, {"type": "node", "id": 3874261565, "lat": 57.9866585, "lon": 56.2590811, "tags": {"amenity": "cafe", "cuisine": "uzbeki", "name": "\u0420\u0438\u0444\u0435\u0439"}}, {"type": "node", "id": 3937128141, "lat": 57.9519536, "lon": 56.1036877, "tags": {"amenity": "fast_food", "contact:phone": "+7 342 2074827", "cuisine": "dumpling", "name": "\u041f\u0435\u043b\u044c\u043c\u0435\u0448\u043a\u0438 \u0434\u0430 \u0432\u0430\u0440\u0435\u043d\u0438\u043a\u0438", "opening_hours": "24/7", "operator": "\u0410\u043b\u0435\u043d\u0434\u0432\u0438\u043a", "takeaway": "yes"}}, {"type": "node", "id": 3937128142, "lat": 57.9519884, "lon": 56.1038429, "tags": {"amenity": "fast_food", "contact:email": "info@alendvic.ru", "contact:phone": "+7 342 2065222;+7 342 2074827", "contact:website": "http://sfc-chicken.ru", "name": "Southern Fried Chicken", "opening_hours": "24/7", "operator": "\u0410\u043b\u0435\u043d\u0434\u0432\u0438\u043a", "takeaway": "yes"}}, {"type": "node", "id": 3961806088, "lat": 58.0049974, "lon": 56.2204895, "tags": {"amenity": "fast_food", "name": "La Vache", "opening_hours": "24/7"}}, {"type": "node", "id": 3971351347, "lat": 58.0374026, "lon": 56.3179585, "tags": {"amenity": "fast_food", "cuisine": "regional", "name": "\u0431\u043b\u0438\u043d\u043d\u0430\u044f \u0421\u043a\u043e\u0432\u043e\u0440\u043e\u0434\u043a\u0430", "smoking": "no", "takeaway": "yes"}}, {"type": "node", "id": 3990690126, "lat": 58.0079089, "lon": 56.259891, "tags": {"amenity": "pub", "name": "Beer Store", "takeaway": "yes"}}, {"type": "node", "id": 3993029418, "lat": 57.9976457, "lon": 56.164599, "tags": {"amenity": "cafe", "name": "\u0413\u0432\u043e\u0437\u0434\u044c"}}, {"type": "node", "id": 3999392840, "lat": 57.9558914, "lon": 56.1285968, "tags": {"amenity": "cafe", "name": "\u0421\u0442\u043e\u043b\u043e\u0432\u0430\u044f"}}, {"type": "node", "id": 4016765268, "lat": 57.9995161, "lon": 55.9487482, "tags": {"amenity": "cafe", "name": "\u0412\u0441\u0442\u0440\u0435\u0447"}}, {"type": "node", "id": 4052971157, "lat": 58.0048609, "lon": 56.228987, "tags": {"amenity": "restaurant", "capacity": "80", "contact:phone": "+7 342 2150727", "cuisine": "eastern_european", "name": "\u0414\u0443\u043d\u0430\u0439", "operator": "\u0424\u043e\u0420\u0435\u0441\u0442", "website": "https://www.vkusnoest.ru/restorannyj-dom-dunaj"}}, {"type": "node", "id": 4072077812, "lat": 58.0091569, "lon": 56.1933114, "tags": {"amenity": "cafe", "name": "\u041a\u0430\u0444\u0435"}}, {"type": "node", "id": 4160816416, "lat": 57.9898077, "lon": 56.2068383, "tags": {"addr:housenumber": "111 \u043a3", "addr:street": "\u0448\u043e\u0441\u0441\u0435 \u041a\u043e\u0441\u043c\u043e\u043d\u0430\u0432\u0442\u043e\u0432", "amenity": "fast_food", "cuisine": "burger;kebab", "drive_through": "no", "name": "YOI \u043f\u0440\u0430\u0432\u0438\u043b\u044c\u043d\u044b\u0439 \u0444\u0430\u0441\u0442\u0444\u0443\u0434", "opening_hours": "08:00-20:00", "website": "http://www.yoiperm.ru/"}}, {"type": "node", "id": 4160816418, "lat": 57.9912337, "lon": 56.2034965, "tags": {"addr:housenumber": "111 \u043a43", "addr:street": "\u0448\u043e\u0441\u0441\u0435 \u041a\u043e\u0441\u043c\u043e\u043d\u0430\u0432\u0442\u043e\u0432", "amenity": "cafe", "check_date": "2022-06-09", "cuisine": "regional", "internet_access": "wlan", "internet_access:fee": "no", "level": "-1", "name": "Kombinat", "opening_hours": "Mo-Fr 08:00-17:00", "outdoor_seating": "no", "payment:mastercard": "yes", "payment:visa": "yes", "website": "http://kombinatperm.ru", "wheelchair": "no"}}, {"type": "node", "id": 4163406093, "lat": 58.0019798, "lon": 55.9536446, "tags": {"addr:housenumber": "10", "addr:street": "\u0443\u043b\u0438\u0446\u0430 \u0410\u0434\u043c\u0438\u0440\u0430\u043b\u0430 \u041d\u0430\u0445\u0438\u043c\u043e\u0432\u0430", "amenity": "cafe", "name": "\u0443\u043b\u044b\u0431\u043a\u0430", "opening_hours": "11:00-23:00", "phone": "+7 342 2833376"}}, {"type": "node", "id": 4193806517, "lat": 57.986755, "lon": 56.2162851, "tags": {"addr:city": "\u041f\u0435\u0440\u043c\u044c", "addr:housenumber": "40\u0410", "addr:street": "\u0421\u0442\u0430\u0445\u0430\u043d\u043e\u0432\u0441\u043a\u0430\u044f \u0443\u043b\u0438\u0446\u0430", "amenity": "fast_food", "contact:email": "info@alendvic.ru", "contact:phone": "+7 342 2065222;+7 342 2803847", "contact:website": "http://sfc-chicken.ru", "cuisine": "chicken", "drive_through": "no", "name": "Southern Fried Chicken", "opening_hours": "Mo-Su 10:00-22:00", "smoking": "outside", "takeaway": "yes"}}, {"type": "node", "id": 4269280289, "lat": 58.0146959, "lon": 56.2372673, "tags": {"amenity": "cafe", "cuisine": "oriental", "name": "\u0421\u0442\u043e\u043b\u043e\u0432\u0430\u044f"}}, {"type": "node", "id": 4289957885, "lat": 57.9940692, "lon": 56.2866596, "tags": {"amenity": "fast_food", "delivery": "no", "drive_through": "no", "fast_food": "cafeteria", "level": "1", "name": "\u0422\u0430\u0440\u0435\u043b\u043a\u0430", "wheelchair": "no"}}, {"type": "node", "id": 4289957887, "lat": 58.0539238, "lon": 56.2259024, "tags": {"amenity": "cafe", "delivery": "no", "drive_through": "no", "fast_food": "cafeteria", "internet_access": "no", "level": "0", "outdoor_seating": "no", "smoking": "no", "wheelchair": "no"}}, {"type": "node", "id": 4344549994, "lat": 57.9959998, "lon": 56.1652724, "tags": {"amenity": "cafe"}}, {"type": "node", "id": 4347535797, "lat": 57.9987433, "lon": 56.1541616, "tags": {"amenity": "fast_food", "name": "\u041a\u0435\u0431\u0430\u0431"}}, {"type": "node", "id": 4352861591, "lat": 58.0138847, "lon": 56.2377327, "tags": {"amenity": "cafe", "name": "\u0421\u0442\u043e\u043b\u043e\u0432\u0430\u044f", "opening_hours": "Mo-Fr 09:00-17:00"}}, {"type": "node", "id": 4353412390, "lat": 58.0138541, "lon": 56.2375872, "tags": {"amenity": "cafe", "contact:vk": "garagehealthybar", "diet:vegan": "yes", "diet:vegetarian": "yes", "name": "\u0413\u0430\u0440\u0430\u0436", "name:en": "Garage Healthy Bar", "opening_hours": "Mo-Fr 09:00-21:00; Sa-Su 11:00-21:00", "phone": "+79194579497", "website": "http://garagehealthybar.ru"}}, {"type": "node", "id": 4368018192, "lat": 58.0454222, "lon": 56.084, "tags": {"amenity": "cafe", "name": "\u0423\u043a\u0443\u0441\u043d\u043e\u0441\u0443\u0448\u0438", "name:ru": "\u0423\u043a\u0443\u0441\u043d\u043e\u0441\u0443\u0448\u0438", "opening_hours": "Mo-Su 10:00-23:00"}}, {"type": "node", "id": 4445254693, "lat": 57.9748065, "lon": 56.167781, "tags": {"amenity": "fast_food"}}, {"type": "node", "id": 4490972791, "lat": 58.0125391, "lon": 56.2511528, "tags": {"amenity": "cafe", "cuisine": "russian"}}, {"type": "node", "id": 4491177193, "lat": 58.1091856, "lon": 56.3030296, "tags": {"amenity": "cafe", "name": "\u041a\u043e\u0444\u0435 \u0441 \u0441\u043e\u0431\u043e\u0439 AMERICA.NO", "name:en": "Coffee AMERICA.NO", "name:ru": "\u041a\u043e\u0444\u0435 \u0441 \u0441\u043e\u0431\u043e\u0439 AMERICA.NO", "opening_hours": "Mo-Su 10:00-22:00", "website": "http://vk.com/coffeeamericano"}}, {"type": "node", "id": 4491855593, "lat": 58.0121309, "lon": 56.2432791, "tags": {"amenity": "cafe", "opening_hours": "Mo-Fr 10:00-15:00"}}, {"type": "node", "id": 4491895689, "lat": 58.0106886, "lon": 56.24635, "tags": {"amenity": "cafe", "name": "\u0418\u0437\u044e\u043c\u0438\u043d\u043a\u0430", "name:en": "Zest (Izuminka)", "name:ru": "\u0418\u0437\u044e\u043c\u0438\u043d\u043a\u0430"}}, {"type": "node", "id": 4492286089, "lat": 57.9930448, "lon": 56.2894676, "tags": {"amenity": "cafe", "contact:email": "vkusvremeni@mail.ru", "contact:phone": "+7 912 5803213;+7 919 7051395", "contact:vk": "https://vk.com/club86144139", "cuisine": "local;russian", "name": "\u0421\u0442\u043e\u043b\u043e\u0432\u0430\u044f \"\u0412\u0441\u0435 \u0432\u043a\u043b\u044e\u0447\u0435\u043d\u043e\"", "name:ru": "\u0421\u0442\u043e\u043b\u043e\u0432\u0430\u044f \"\u0412\u0441\u0435 \u0432\u043a\u043b\u044e\u0447\u0435\u043d\u043e\"", "opening_hours": "Mo-Fr 08:30-17:00;Sa 08:30-15:00", "operator": "\u0412\u0441\u0435 \u0432\u043a\u043b\u044e\u0447\u0435\u043d\u043e"}}, {"type": "node", "id": 4539999691, "lat": 58.0001861, "lon": 56.2686972, "tags": {"amenity": "restaurant", "name": "Grand Ve\u0440\u0430\u043d\u0434\u0430", "name:ru": "Grand Ve\u0440\u0430\u043d\u0434\u0430"}}, {"type": "node", "id": 4543399592, "lat": 58.0022754, "lon": 56.2679818, "tags": {"amenity": "fast_food", "name": "\u0422\u043e\u0447\u0438\u0442\u043e\u0441", "name:ru": "\u0422\u043e\u0447\u0438\u0442\u043e\u0441"}}, {"type": "node", "id": 4545219390, "lat": 58.0042947, "lon": 56.2584796, "tags": {"amenity": "restaurant", "cuisine": "fine_dining;jewish", "name": "\u0424\u043e\u0440\u0448\u043c\u0430\u043a", "website": "http://www.forshmak.com/"}}, {"type": "node", "id": 4589278089, "lat": 57.9713741, "lon": 56.1769918, "tags": {"amenity": "restaurant", "cuisine": "italian_pizza;italian", "name": "Pizza Pasta", "name:ru": "Pizza Pasta", "operator": "\u041e\u041e\u041e \u00ab\u0412\u043a\u0443\u0441 \u0438 \u0441\u0435\u0440\u0432\u0438\u0441\u00bb", "phone": "+7 952 6428429"}}, {"type": "node", "id": 4609881193, "lat": 58.0035853, "lon": 56.255102, "tags": {"amenity": "pub", "name": "\u0411\u0438\u0432\u043e", "name:en": "Bivo"}}, {"type": "node", "id": 4689552451, "lat": 58.0070865, "lon": 56.2598121, "tags": {"alt_name": "\u041c\u0430\u043a\u0434\u043e\u043d\u0430\u043b\u044c\u0434\u0441", "amenity": "fast_food", "brand": "\u0412\u043a\u0443\u0441\u043d\u043e \u2014 \u0438 \u0442\u043e\u0447\u043a\u0430", "brand:en": "Vkusno i tochka", "brand:ru": "\u0412\u043a\u0443\u0441\u043d\u043e \u2014 \u0438 \u0442\u043e\u0447\u043a\u0430", "brand:wikidata": "Q112406961", "brand:wikipedia": "en:McDonald\u2019s", "contact:facebook": "https://www.facebook.com/mcdonaldsrussia", "contact:phone": "+7 342 2553188", "contact:website": "https://mcdonalds.ru", "cuisine": "burger", "diet:vegetarian": "no", "name": "\u0412\u043a\u0443\u0441\u043d\u043e \u2014 \u0438 \u0442\u043e\u0447\u043a\u0430", "name:en": "Vkusno i tochka", "name:ru": "\u0412\u043a\u0443\u0441\u043d\u043e \u2014 \u0438 \u0442\u043e\u0447\u043a\u0430", "takeaway": "yes"}}, {"type": "node", "id": 4703784504, "lat": 58.0435571, "lon": 56.0869594, "tags": {"addr:street": "\u0425\u0430\u0431\u0430\u0440\u043e\u0432\u0441\u043a\u0430\u044f \u0443\u043b\u0438\u0446\u0430", "amenity": "cafe"}}, {"type": "node", "id": 4703784505, "lat": 58.0450899, "lon": 56.087213, "tags": {"amenity": "fast_food", "name": "\u0428\u0430\u0443\u0440\u043c\u0430 room", "name:ru": "\u0428\u0430\u0443\u0440\u043c\u0430 room"}}, {"type": "node", "id": 4704037490, "lat": 58.0473489, "lon": 56.0921486, "tags": {"amenity": "pub", "name": "\u041f\u0438\u0432\u043d\u0430\u044f", "name:ru": "\u041f\u0438\u0432\u043d\u0430\u044f"}}, {"type": "node", "id": 4742408823, "lat": 58.0295676, "lon": 56.3044284, "tags": {"addr:housenumber": "53", "addr:street": "\u0443\u043b\u0438\u0446\u0430 \u0410\u043d\u0440\u0438 \u0411\u0430\u0440\u0431\u044e\u0441\u0430", "amenity": "fast_food", "check_date": "2023-08-10", "drive_through": "no", "internet_access": "no", "payment:cash": "yes", "payment:credit_cards": "yes", "payment:mastercard": "yes", "payment:visa": "yes", "wheelchair": "no"}}, {"type": "node", "id": 4747119827, "lat": 58.0132725, "lon": 56.2362034, "tags": {"addr:city": "\u041f\u0435\u0440\u043c\u044c", "addr:housenumber": "11", "addr:postcode": "614000", "addr:street": "\u041a\u043e\u043c\u0441\u043e\u043c\u043e\u043b\u044c\u0441\u043a\u0438\u0439 \u043f\u0440\u043e\u0441\u043f\u0435\u043a\u0442", "amenity": "fast_food", "contact:email": "info@alendvic.ru", "contact:phone": "+7 342 2065222;+7 342 2233340", "contact:website": "http://sfc-chicken.ru", "name": "Southern Fried Chicken", "name:ru": "Chicken", "opening_hours": "Mo-Su 08:00-02:00", "wheelchair": "yes"}}, {"type": "node", "id": 4747121473, "lat": 57.9940236, "lon": 56.2131037, "tags": {"amenity": "fast_food", "cuisine": "russian;oriental", "name": "\u0412\u043a\u0443\u0441 \u0432\u043e\u0441\u0442\u043e\u043a\u0430", "name:ru": "\u0412\u043a\u0443\u0441 \u0432\u043e\u0441\u0442\u043e\u043a\u0430", "opening_hours": "Mo-Fr 09:00-22:00; Sa-Su 10:00-22:00", "phone": "+7 342 2043779"}}, {"type": "node", "id": 4771438880, "lat": 58.0062454, "lon": 56.1977052, "tags": {"addr:city": "\u041f\u0435\u0440\u043c\u044c", "addr:housenumber": "113", "addr:postcode": "614068", "addr:street": "\u041f\u0435\u0442\u0440\u043e\u043f\u0430\u0432\u043b\u043e\u0432\u0441\u043a\u0430\u044f \u0443\u043b\u0438\u0446\u0430", "amenity": "fast_food", "cuisine": "coffee_shop", "delivery": "no", "name": "Sova", "opening_hours": "08:00-20:00", "takeaway": "only"}}, {"type": "node", "id": 4873447321, "lat": 57.9983852, "lon": 56.165644, "tags": {"amenity": "fast_food", "brand": "\u0414\u043e\u0434\u043e \u041f\u0438\u0446\u0446\u0430", "brand:en": "Dodo Pizza", "brand:ru": "\u0414\u043e\u0434\u043e \u041f\u0438\u0446\u0446\u0430", "brand:wikidata": "Q61949318", "cuisine": "pizza", "name": "\u0414\u043e\u0434\u043e \u041f\u0438\u0446\u0446\u0430", "name:en": "Dodo Pizza", "name:ru": "\u0414\u043e\u0434\u043e \u041f\u0438\u0446\u0446\u0430", "takeaway": "yes"}}, {"type": "node", "id": 4898029364, "lat": 58.0170532, "lon": 56.2428547, "tags": {"addr:postcode": "61400", "amenity": "cafe", "cuisine": "coffee_shop", "email": "Forrest.coffee.happens@yandex.ru", "name:en": "FORREST", "opening_hours": "Mo-Fr 08:00-24:00; Sa-Su 10:00-24:00", "phone": "+7 965 5562877"}}, {"type": "node", "id": 4913050521, "lat": 58.0165306, "lon": 56.2327624, "tags": {"amenity": "restaurant", "check_date": "2023-07-19", "cuisine": "steak_house", "internet_access": "wlan", "name": "Rob Roy", "name:en": "Rob Roy", "name:ru": "Rob Roy", "opening_hours": "Mo-Th,Su 14:00-00:00; Fr-Sa 14:00-01:00", "phone": "+7 919 7073325"}}, {"type": "node", "id": 4916098322, "lat": 58.0167902, "lon": 56.2507363, "tags": {"amenity": "cafe", "cuisine": "coffee_shop", "internet_access": "wlan", "name": "\u041a\u043b\u0430\u0441\u0441\u0438\u043a\u0430 \u0416\u0430\u043d\u0440\u0430", "name:en": "Classica Janra", "name:ru": "\u041a\u043b\u0430\u0441\u0441\u0438\u043a\u0430 \u0416\u0430\u043d\u0440\u0430", "phone": "+7 342 2124473", "website": "http://www.classicajanra.ru/"}}, {"type": "node", "id": 4940178922, "lat": 58.0140205, "lon": 56.2345145, "tags": {"amenity": "restaurant", "name": "La Bottega", "name:ru": "La Bottega"}}, {"type": "node", "id": 4959715522, "lat": 58.0133719, "lon": 56.2325925, "tags": {"amenity": "restaurant", "cuisine": "regional", "internet_access": "wlan", "name": "\u0423\u043b\u0438\u0442\u043a\u0430", "name:ru": "\u0423\u043b\u0438\u0442\u043a\u0430", "operator": "\u041e\u041e\u041e \u00ab\u0421\u043b\u043e\u0443\u0444\u0443\u0434\u00bb", "phone": "+7 909 1121875"}}, {"type": "node", "id": 4960108521, "lat": 58.0014011, "lon": 56.2474846, "tags": {"amenity": "restaurant", "cuisine": "grill", "name": "Saltus Caf\u00e9", "name:ru": "Saltus Caf\u00e9", "phone": "+7 342 2872397"}}, {"type": "node", "id": 4961571021, "lat": 58.0153516, "lon": 56.2322477, "tags": {"amenity": "restaurant", "check_date": "2023-07-19", "name": "\u0417\u0438\u0440\u0430", "name:ru": "\u0417\u0438\u0440\u0430", "opening_hours": "Mo-Fr 11:00-24:00; Sa-Su 12:00-24:00", "phone": "+7 342 2060565"}}, {"type": "node", "id": 4961734583, "lat": 57.9869469, "lon": 56.2521668, "tags": {"addr:city": "\u041f\u0435\u0440\u043c\u044c", "addr:housenumber": "87", "addr:street": "\u041a\u043e\u043c\u0441\u043e\u043c\u043e\u043b\u044c\u0441\u043a\u0438\u0439 \u043f\u0440\u043e\u0441\u043f\u0435\u043a\u0442", "amenity": "cafe", "internet_access": "yes", "name": "\u0414\u043b\u0438\u043d\u043d\u044b\u0439 \u043d\u043e\u0441"}}, {"type": "node", "id": 4991494021, "lat": 58.0892653, "lon": 56.3913118, "tags": {"amenity": "fast_food", "cuisine": "coffee_shop;lebanese", "name": "\u041b\u0438\u043e\u043d", "name:en": "Lion", "name:ru": "\u041b\u0438\u043e\u043d", "opening_hours": "Mo-Su 08:00-23:00", "phone": "+7 342 2757202", "shop": "alcohol", "website": "https://lion-perm.ru/"}}, {"type": "node", "id": 5094981433, "lat": 58.0118038, "lon": 56.2457127, "tags": {"amenity": "cafe", "name": "Fresh Market"}}, {"type": "node", "id": 5094981435, "lat": 58.011847, "lon": 56.2456387, "tags": {"amenity": "pub", "name": "\u0420\u043e\u043c\u0430\u041d\u0430\u043b\u044c\u0435\u0442"}}, {"type": "node", "id": 5212357821, "lat": 58.0084204, "lon": 56.2542853, "tags": {"amenity": "fast_food", "fast_food": "cafeteria", "name": "100\u043b\u043e\u0432\u0430\u044f"}}, {"type": "node", "id": 5253434522, "lat": 57.9716046, "lon": 56.1833113, "tags": {"amenity": "restaurant", "cuisine": "regional", "name": "\u0421\u043e\u0432\u0435\u0442\u0441\u043a\u0430\u044f \u0441\u0442\u043e\u043b\u043e\u0432\u0430\u044f"}}, {"type": "node", "id": 5264374236, "lat": 58.0517706, "lon": 56.3519791, "tags": {"amenity": "cafe", "name": "\u041c\u0430\u0444\u0438\u044f"}}, {"type": "node", "id": 5314785272, "lat": 57.9085271, "lon": 56.0461628, "tags": {"amenity": "fast_food", "name": "\u0421\u0442\u043e\u043b\u043e\u0432\u0430\u044f"}}, {"type": "node", "id": 5363246520, "lat": 58.0213256, "lon": 56.2540287, "tags": {"amenity": "cafe", "cuisine": "italian;pizza", "name": "Portofino", "opening_hours": "Mo-Su 12:00-24:00", "phone": "+7 342 2055588", "website": "https://www.instagram.com/portofinoperm/"}}, {"type": "node", "id": 5591937397, "lat": 58.005728, "lon": 56.2417417, "tags": {"addr:city": "\u041f\u0435\u0440\u043c\u044c", "addr:housenumber": "80", "addr:street": "\u0443\u043b\u0438\u0446\u0430 \u041f\u0443\u0448\u043a\u0438\u043d\u0430", "amenity": "fast_food", "brand": "Subway", "brand:wikidata": "Q244457", "brand:wikipedia": "en:Subway (restaurant)", "cuisine": "sandwich", "level": "1", "name": "Subway", "phone": "+7 342 2070407", "takeaway": "yes", "website": "https://subway.ru/"}}, {"type": "node", "id": 5643723659, "lat": 58.0074839, "lon": 56.2135621, "tags": {"amenity": "restaurant", "brand": "\u041f\u043b\u0430\u043d\u0435\u0442\u0430 \u0421\u0443\u0448\u0438", "brand:wikidata": "Q62739250", "cuisine": "sushi", "name": "\u041f\u043b\u0430\u043d\u0435\u0442\u0430 \u0421\u0443\u0448\u0438", "name:en": "Planet Sushi", "phone": "+7 342 2331619", "website": "https://planetsushi.ru/"}}, {"type": "node", "id": 5643723660, "lat": 58.0077269, "lon": 56.2136427, "tags": {"amenity": "restaurant", "brand": "IL \u041f\u0430\u0442\u0438\u043e", "brand:wikidata": "Q4397763", "cuisine": "italian", "name": "IL \u041f\u0430\u0442\u0438\u043e", "phone": "+7 342 2331619", "website": "https://ilpatio.ru/"}}, {"type": "node", "id": 5711163737, "lat": 58.0063987, "lon": 56.308806, "tags": {"addr:city": "\u041f\u0435\u0440\u043c\u044c", "addr:housenumber": "15\u0410", "addr:postcode": "614051", "addr:street": "\u0423\u0438\u043d\u0441\u043a\u0430\u044f \u0443\u043b\u0438\u0446\u0430", "amenity": "fast_food", "contact:email": "info@alendvic.ru", "contact:phone": "+7 342 2065222;+7 342 2142041", "contact:website": "http://sfc-chicken.ru", "cuisine": "chicken;sandwich", "level": "1", "name": "Southern Fried Chicken", "name:en": "Southern Fried Chicken", "opening_hours": "Mo-Su 10:00-22:00", "outdoor_seating": "no", "smoking": "no"}}, {"type": "node", "id": 5773172974, "lat": 58.00728, "lon": 56.2130606, "tags": {"amenity": "restaurant", "cuisine": "thai", "name": "\u0422\u043e\u043c \u042f\u043c \u0422\u0430\u0439"}}, {"type": "node", "id": 5773172976, "lat": 58.007146, "lon": 56.2131505, "tags": {"amenity": "fast_food", "cuisine": "pizza", "name": "Pizza Mia"}}, {"type": "node", "id": 5794138389, "lat": 57.9912532, "lon": 56.1961811, "tags": {"amenity": "fast_food", "check_date:opening_hours": "2020-11-11", "name": "\u0425\u043b\u0435\u0431\u043d\u0438\u0446\u0430", "opening_hours": "Mo-Su 08:00-21:00"}}, {"type": "node", "id": 5830141927, "lat": 58.0062234, "lon": 56.21214, "tags": {"addr:housenumber": "84", "addr:street": "\u0443\u043b\u0438\u0446\u0430 \u041b\u0435\u043d\u0438\u043d\u0430", "amenity": "cafe", "diet:vegetarian": "yes", "name": "GOODVEGS", "opening_hours": "Mo-Su 10:00-21:00", "website": "http://perm.goodvegs.com/"}}, {"type": "node", "id": 5894584086, "lat": 58.0129702, "lon": 56.2385897, "tags": {"amenity": "cafe", "check_date": "2023-07-18", "name": "\u0428\u043c\u0435\u043b\u044c", "name:en": "Shmel", "opening_hours": "Mo-Fr 07:30-20:00; Sa-Su 10:00-20:00", "payment:mastercard": "yes", "payment:visa": "yes", "wheelchair": "no"}}, {"type": "node", "id": 5894584203, "lat": 58.0065369, "lon": 56.2192591, "tags": {"addr:housenumber": "161", "addr:street": "\u041f\u0435\u0440\u043c\u0441\u043a\u0430\u044f \u0443\u043b\u0438\u0446\u0430", "amenity": "cafe", "contact:email": "kdm_perm@mail.ru", "contact:facebook": "freicoffee", "contact:instagram": "freicoffee", "contact:phone": "+7 963 8753577", "contact:vk": "freicoffee", "contact:website": "http://freicoffee.ru", "cuisine": "coffee_shop", "name": "\u0424\u0440\u0430\u0439", "name:en": "Frai", "opening_hours": "Mo-Fr 08:00-22:00;Sa-Su 10:00-22:00", "operator": "\u0424\u0440\u0430\u0439"}}, {"type": "node", "id": 5894857742, "lat": 58.0079671, "lon": 56.1851603, "tags": {"amenity": "cafe", "description": "\u0441\u0442\u043e\u043b\u043e\u0432\u0430\u044f", "level": "1", "wheelchair": "yes"}}, {"type": "node", "id": 5895870410, "lat": 57.9694378, "lon": 56.1472376, "tags": {"amenity": "cafe", "cuisine": "sandwich", "internet_access": "no", "internet_access:fee": "no"}}, {"type": "node", "id": 5908071585, "lat": 58.0099998, "lon": 56.2459855, "tags": {"amenity": "cafe", "cuisine": "indian", "name": "Garam Masala", "opening_hours": "Mo-Su 12:00-23:00", "phone": "+7 342 2114502", "website": "https://vk.com/garam_masala_perm"}}, {"type": "node", "id": 5960967086, "lat": 58.01309, "lon": 56.2338607, "tags": {"amenity": "cafe", "name": "\u041b\u0430\u043a\u0448\u043c\u0438 \u043a\u0430\u0444\u0435", "name:en": "Lakshmi Cafe"}}, {"type": "node", "id": 6007811223, "lat": 58.0518219, "lon": 56.0938577, "tags": {"addr:city": "\u041f\u0435\u0440\u043c\u044c", "addr:housenumber": "135\u0411", "addr:postcode": "614067", "addr:street": "\u0425\u0430\u0431\u0430\u0440\u043e\u0432\u0441\u043a\u0430\u044f \u0443\u043b\u0438\u0446\u0430", "amenity": "cafe", "cuisine": "kebab", "name": "Kebab Life", "phone": "+7 342 2469277"}}, {"type": "node", "id": 6009708285, "lat": 57.9759754, "lon": 56.1090977, "tags": {"addr:housenumber": "1\u0411", "addr:postcode": "614506", "addr:street": "\u0443\u043b\u0438\u0446\u0430 \u041a\u0443\u043b\u044c\u0442\u0443\u0440\u044b", "amenity": "cafe", "cuisine": "coffee_shop", "name": "\u041a\u043e\u0444\u0435\u0439\u043d\u044f \u041a\u0443\u0411\u0430", "name:en": "Coffeeshop KuBa", "opening_hours": "Mo-Fr 08:00-20:00; Sa-Su 09:00-20:00", "phone": "+7 902 8362836", "website": "http://vk.com/kubacoffee"}}, {"type": "node", "id": 6018656885, "lat": 58.0106227, "lon": 56.2401311, "tags": {"addr:housenumber": "28", "addr:postcode": "614000", "addr:street": "\u041a\u043e\u043c\u0441\u043e\u043c\u043e\u043b\u044c\u0441\u043a\u0438\u0439 \u043f\u0440\u043e\u0441\u043f\u0435\u043a\u0442", "amenity": "cafe", "cuisine": "asian;friture;burger;vietnamese;deli;breakfast;italian_pizza;chinese", "email": "damisergey@gmail.com", "internet_access": "wlan", "name": "\u0420\u042b\u041d\u041e\u041a \u0415\u0414\u042b", "name:en": "Foodmarket.prm", "opening_hours": "Mo-Su 12:00-23:00", "phone": "+7 912 7888468", "website": "https://www.instagram.com/foodmarket.prm/"}}, {"type": "node", "id": 6060805317, "lat": 58.0057695, "lon": 56.24031, "tags": {"addr:city": "\u041f\u0435\u0440\u043c\u044c", "addr:housenumber": "73", "addr:street": "\u0443\u043b\u0438\u0446\u0430 \u041f\u0443\u0448\u043a\u0438\u043d\u0430", "amenity": "cafe", "check_date": "2023-09-12", "name": "\u0414\u0443\u0431\u0430\u0439", "opening_hours": "24/7"}}, {"type": "node", "id": 6293706910, "lat": 58.0081415, "lon": 56.2061611, "tags": {"addr:city": "\u041f\u0435\u0440\u043c\u044c", "addr:housenumber": "103", "addr:postcode": "614068", "addr:street": "\u041f\u0435\u0442\u0440\u043e\u043f\u0430\u0432\u043b\u043e\u0432\u0441\u043a\u0430\u044f \u0443\u043b\u0438\u0446\u0430", "amenity": "pub", "cuisine": "\u0444\u0438\u0442\u043e\u043f\u0440\u043e\u0434\u0443\u043a\u0446\u0438\u044f", "diet:macrobiotic": "yes", "name": "\u0410\u0440\u0442\u041b\u0430\u0439\u0444", "outdoor_seating": "no"}}, {"type": "node", "id": 6390117086, "lat": 57.9759521, "lon": 56.1090965, "tags": {"addr:housenumber": "1\u0411", "addr:postcode": "614506", "addr:street": "\u0443\u043b\u0438\u0446\u0430 \u041a\u0443\u043b\u044c\u0442\u0443\u0440\u044b", "amenity": "cafe", "cuisine": "coffee_shop", "name": "\u041a\u0443\u0411\u0430, \u043a\u043e\u0444\u0435\u0439\u043d\u044f", "name:en": "KuBa, coffee to go", "opening_hours": "Mo-Fr 08:00-20:00; Sa-Su 09:00-20:00", "phone": "+79028362836", "website": "http://vk.com/kubacoffee"}}, {"type": "node", "id": 6536736763, "lat": 57.9991015, "lon": 56.1568466, "tags": {"amenity": "cafe", "brand": "Coffee Like", "brand:wikidata": "Q55662627", "brand:wikipedia": "ru:Coffee Like", "contact:email": "hotline@coffee-like.com", "contact:phone": "+7 341 2908292;+7 800 3334130", "contact:website": "https://coffee-like.com/", "cuisine": "coffee_shop", "name": "Coffee Like", "opening_hours": "Mo-Su 08:00-21:00", "operator": "\u0421\u0438\u0432\u0435\u043d\u0446\u0435\u0432 \u0413\u0440\u0438\u0433\u043e\u0440\u0438\u0439 \u0412\u0430\u043b\u0435\u0440\u044c\u0435\u0432\u0438\u0447", "takeaway": "yes"}}, {"type": "node", "id": 6536736764, "lat": 58.011218, "lon": 55.970082, "tags": {"amenity": "cafe", "brand": "Coffee Like", "brand:wikidata": "Q55662627", "contact:email": "hotline@coffee-like.com", "contact:phone": "+7 341 2908292;+7 800 3334130", "contact:website": "https://coffee-like.com/", "cuisine": "coffee_shop", "name": "Coffee Like", "opening_hours": "Mo-Su 07:00-23:00", "operator": "\u041e\u0449\u0435\u043f\u043a\u043e\u0432\u0430 \u041e\u043b\u044c\u0433\u0430 \u0410\u043b\u0435\u043a\u0441\u0430\u043d\u0434\u0440\u043e\u0432\u043d\u0430", "takeaway": "yes"}}, {"type": "node", "id": 6536736765, "lat": 58.007613, "lon": 56.236378, "tags": {"amenity": "cafe", "brand": "Coffee Like", "brand:wikidata": "Q55662627", "contact:email": "hotline@coffee-like.com", "contact:phone": "+7 341 2908292;+7 800 3334130", "contact:website": "https://coffee-like.com/", "cuisine": "coffee_shop", "name": "Coffee Like", "opening_hours": "Mo-Su 07:00-23:00", "operator": "\u041a\u043e\u0432\u0430\u043b\u0435\u0432 \u0410.\u042e.", "takeaway": "yes"}}, {"type": "node", "id": 6536736766, "lat": 57.980309, "lon": 56.182938, "tags": {"amenity": "cafe", "brand": "Coffee Like", "brand:wikidata": "Q55662627", "contact:email": "hotline@coffee-like.com", "contact:phone": "+7 341 2908292;+7 800 3334130", "contact:website": "https://coffee-like.com/", "cuisine": "coffee_shop", "indoor_seating": "yes", "name": "Coffee Like", "opening_hours": "Mo-Fr 08:00-22:00;Sa-Su 09:00-22:00", "operator": "\u00ab\u0420\u0443\u0431\u0438\u043a\u043e\u043d\u00bb", "outdoor_seating": "no", "takeaway": "yes"}}, {"type": "node", "id": 6536736768, "lat": 58.0043971, "lon": 56.2419909, "tags": {"amenity": "fast_food", "contact:email": "hotline@coffee-like.com", "contact:phone": "+7 341 2908292;+7 800 3334130", "contact:website": "https://coffee-like.com/", "cuisine": "coffee_shop", "name": "Coffee Like", "opening_hours": "Mo-Su 09:00-21:00", "operator": "\u041a\u043e\u0432\u0430\u043b\u0435\u0432 \u0410.\u042e."}}, {"type": "node", "id": 6536736769, "lat": 58.006421, "lon": 55.952106, "tags": {"amenity": "cafe", "brand": "Coffee Like", "brand:wikidata": "Q55662627", "contact:email": "hotline@coffee-like.com", "contact:phone": "+7 341 2908292;+7 800 3334130", "contact:website": "https://coffee-like.com/", "cuisine": "coffee_shop", "name": "Coffee Like", "opening_hours": "Mo 07:00-24:00; Sa 08:00-22:00; Su 09:00-22:00; Tu-Fr 07:00-22:00", "operator": "\u041e\u0449\u0435\u043f\u043a\u043e\u0432\u0430 \u041e\u043b\u044c\u0433\u0430 \u0410\u043b\u0435\u043a\u0441\u0430\u043d\u0434\u0440\u043e\u0432\u043d\u0430", "takeaway": "yes"}}, {"type": "node", "id": 6536736770, "lat": 58.0076186, "lon": 56.2591329, "tags": {"amenity": "cafe", "brand": "Coffee Like", "brand:wikidata": "Q55662627", "contact:email": "hotline@coffee-like.com", "contact:phone": "+7 341 2908292;+7 800 3334130", "contact:website": "https://coffee-like.com/", "cuisine": "coffee_shop", "name": "Coffee Like", "opening_hours": "Mo-Fr 08:30-21:00;Sa-Su 09:00-21:00", "operator": "\u041e\u043b\u043e\u043c\u043f\u0438\u0435\u0432\u0430 \u0415\u043b\u0435\u043d\u0430 \u042e\u0440\u044c\u0435\u0432\u043d\u0430", "takeaway": "yes"}}, {"type": "node", "id": 6536736771, "lat": 58.009059, "lon": 56.193191, "tags": {"amenity": "cafe", "brand": "Coffee Like", "brand:wikidata": "Q55662627", "contact:email": "hotline@coffee-like.com", "contact:phone": "+7 341 2908292;+7 800 3334130", "contact:website": "https://coffee-like.com/", "cuisine": "coffee_shop", "name": "Coffee Like", "opening_hours": "Mo-Sa 07:30-19:00", "operator": "\u041d\u0430\u0440\u044b\u0433\u0438\u043d \u041f\u0430\u0432\u0435\u043b \u0412\u0438\u043a\u0442\u043e\u0440\u043e\u0432\u0438\u0447", "takeaway": "yes"}}, {"type": "node", "id": 6536736772, "lat": 58.0094677, "lon": 56.2424361, "tags": {"amenity": "cafe", "brand": "Coffee Like", "brand:wikidata": "Q55662627", "contact:email": "hotline@coffee-like.com", "contact:phone": "+7 341 2908292;+7 800 3334130", "contact:website": "https://coffee-like.com/", "cuisine": "coffee_shop", "name": "Coffee Like", "opening_hours": "Mo-Fr 08:00-22:00;Sa 10:00-22:00", "operator": "\u041e\u0449\u0435\u043f\u043a\u043e\u0432\u0430 \u041e\u043b\u044c\u0433\u0430 \u0410\u043b\u0435\u043a\u0441\u0430\u043d\u0434\u0440\u043e\u0432\u043d\u0430", "takeaway": "yes"}}, {"type": "node", "id": 6536736773, "lat": 57.991645, "lon": 56.249116, "tags": {"amenity": "cafe", "brand": "Coffee Like", "brand:wikidata": "Q55662627", "brand:wikipedia": "ru:Coffee Like", "contact:email": "hotline@coffee-like.com", "contact:phone": "+7 341 2908292;+7 800 3334130", "contact:website": "https://coffee-like.com/", "cuisine": "coffee_shop", "name": "Coffee Like", "opening_hours": "Mo-Su 08:00-21:00", "operator": "\u041a\u043e\u0432\u0430\u043b\u0435\u0432 \u0410.\u042e.", "takeaway": "yes"}}, {"type": "node", "id": 6559313031, "lat": 58.0087774, "lon": 55.9316439, "tags": {"amenity": "fast_food", "name": "\u0428\u0430\u0432\u0435\u0440\u043c\u0430 \u043e\u0442 \u0434\u0443\u0448\u0438"}}, {"type": "node", "id": 6559313034, "lat": 58.0089358, "lon": 55.9334401, "tags": {"amenity": "cafe", "name": "\u041f\u0435\u043a\u0430\u0440\u043d\u044f \"\u0428\u0430\u0440\u043b\u043e\u0442\u043a\u0430\""}}, {"type": "node", "id": 6600874907, "lat": 58.0112707, "lon": 56.2393871, "tags": {"amenity": "pub", "name": "\u041f\u0430\u043d \u041a\u0440\u0443\u0436\u0435\u0447\u043a\u0430", "name:en": "pan Krughechka", "phone": "+7 912 4850020"}}, {"type": "node", "id": 6644555130, "lat": 58.0087694, "lon": 56.234826, "tags": {"alt_name": "Kentucky Fried Chicken", "amenity": "fast_food", "brand": "KFC", "brand:wikidata": "Q524757", "brand:wikipedia": "en:KFC", "cuisine": "chicken", "name": "KFC", "opening_hours": "Mo-Su 09:00-23:00", "takeaway": "yes"}}, {"type": "node", "id": 6644566265, "lat": 58.0132138, "lon": 56.2364238, "tags": {"alt_name": "Kentucky Fried Chicken", "amenity": "fast_food", "brand": "KFC", "brand:wikidata": "Q524757", "brand:wikipedia": "en:KFC", "cuisine": "chicken", "name": "KFC", "opening_hours": "Mo-Su 09:00-00:00", "takeaway": "yes"}}, {"type": "node", "id": 6676207788, "lat": 57.991244, "lon": 56.199961, "tags": {"amenity": "cafe", "brand": "Coffee Like", "brand:wikidata": "Q55662627", "contact:email": "hotline@coffee-like.com", "contact:phone": "+7 341 2908292;+7 800 3334130", "contact:website": "https://coffee-like.com/", "cuisine": "coffee_shop", "name": "Coffee Like", "opening_hours": "Mo-Su 08:00-21:00", "operator": "\u0421\u0438\u0432\u0435\u043d\u0446\u0435\u0432 \u0413\u0440\u0438\u0433\u043e\u0440\u0438\u0439 \u0412\u0430\u043b\u0435\u0440\u044c\u0435\u0432\u0438\u0447", "takeaway": "yes"}}, {"type": "node", "id": 6787692088, "lat": 57.9873358, "lon": 56.2168873, "tags": {"amenity": "fast_food", "name": "\u0410\u043a\u0430\u0434\u0435\u043c\u0438\u044f \u0432\u043a\u0443\u0441\u0430", "opening_hours": "Su-Th 09:00-18:00"}}, {"type": "node", "id": 6787697785, "lat": 57.9897881, "lon": 56.2142643, "tags": {"amenity": "fast_food", "name": "\u041d\u0430\u0432\u0440\u0443\u0437", "opening_hours": "Su-Th 09:00-02:00"}}, {"type": "node", "id": 6791732892, "lat": 58.0509838, "lon": 56.219385, "tags": {"amenity": "cafe", "name": "Kampus"}}, {"type": "node", "id": 6799255928, "lat": 57.9979971, "lon": 56.2604231, "tags": {"amenity": "cafe", "contact:instagram": "https://instagram.com/ivanpizza", "contact:phone": "+7 342 2033399", "contact:vk": "https://vk.com/club94613155", "contact:website": "https://ivan-pizza.ru/", "name": "\u0418\u0432\u0430\u043d Pizza", "opening_hours": "Mo-Su 10:00-23:00", "operator": "\u0418\u0432\u0430\u043d Pizza"}}, {"type": "node", "id": 6799255929, "lat": 58.0041044, "lon": 55.9405238, "tags": {"amenity": "fast_food", "contact:phone": "+7 342 2251224", "contact:website": "https://ivan-pizza.ru/", "name": "\u0418\u0432\u0430\u043d Pizza", "opening_hours": "Fr-Sa 10:00-24:00;Mo,Tu,We,Th,Su 10:00-23:00", "operator": "\u041c\u043e\u0447\u0430\u043b\u043e\u0432 \u041d.\u0412."}}, {"type": "node", "id": 6799255930, "lat": 58.10464, "lon": 56.300204, "tags": {"amenity": "fast_food", "contact:phone": "+7 342 2251224", "contact:website": "https://ivan-pizza.ru/", "name": "\u0418\u0432\u0430\u043d Pizza", "opening_hours": "Fr-Sa 10:00-24:00;Mo,Tu,We,Th,Su 10:00-23:00", "operator": "\u041c\u043e\u0447\u0430\u043b\u043e\u0432 \u041d.\u0412."}}, {"type": "node", "id": 6804772261, "lat": 57.9903117, "lon": 56.2483758, "tags": {"amenity": "fast_food", "check_date:opening_hours": "2021-04-30", "name": "\u0425\u043b\u0435\u0431\u043d\u0438\u0446\u0430", "opening_hours": "Mo-Su 08:00-21:00"}}, {"type": "node", "id": 6804772262, "lat": 57.9974678, "lon": 56.2514171, "tags": {"amenity": "fast_food", "name": "\u0428\u0430\u0443\u0440\u043c\u0430\u043d\u0438\u044f"}}, {"type": "node", "id": 6806974838, "lat": 57.9813931, "lon": 56.1975853, "tags": {"amenity": "fast_food", "check_date:opening_hours": "2021-07-08", "name": "Shaurma #1", "opening_hours": "Mo-Su 00:00-24:00"}}, {"type": "node", "id": 6812226939, "lat": 57.988985, "lon": 56.20209, "tags": {"amenity": "cafe", "brand": "Coffee Like", "brand:wikidata": "Q55662627", "contact:email": "hotline@coffee-like.com", "contact:phone": "+7 341 2908292;+7 800 3334130", "contact:website": "https://coffee-like.com/", "cuisine": "coffee_shop", "name": "Coffee Like", "opening_hours": "Mo-Su 08:00-21:00", "operator": "\u0421\u0438\u0432\u0435\u043d\u0446\u0435\u0432 \u0413\u0440\u0438\u0433\u043e\u0440\u0438\u0439 \u0412\u0430\u043b\u0435\u0440\u044c\u0435\u0432\u0438\u0447", "takeaway": "yes"}}, {"type": "node", "id": 6812226960, "lat": 58.0071826, "lon": 56.2120306, "tags": {"amenity": "cafe", "brand": "Coffee Like", "brand:wikidata": "Q55662627", "contact:email": "hotline@coffee-like.com", "contact:phone": "+7 341 2908292;+7 800 3334130", "contact:website": "https://coffee-like.com/", "cuisine": "coffee_shop", "name": "Coffee Like", "opening_hours": "Mo-Fr 09:00-21:00;Sa-Su 10:00-21:00", "operator": "\u041e\u043b\u043e\u043c\u043f\u0438\u0435\u0432\u0430 \u0415\u043b\u0435\u043d\u0430 \u042e\u0440\u044c\u0435\u0432\u043d\u0430", "takeaway": "yes"}}, {"type": "node", "id": 6817779786, "lat": 57.9836154, "lon": 56.1977226, "tags": {"amenity": "fast_food", "name": "\u0425\u043b\u0435\u0431\u043d\u0438\u0446\u0430", "opening_hours": "Mo-Su 08:00-21:00"}}, {"type": "node", "id": 6817949397, "lat": 58.0142429, "lon": 56.2367529, "tags": {"amenity": "pub", "contact:vk": "https://vk.com/oldmoosebeershop", "name": "Old Moose Pub", "opening_hours": "14:00-01:00"}}, {"type": "node", "id": 6856526652, "lat": 57.9965743, "lon": 56.2264971, "tags": {"addr:housenumber": "5", "addr:street": "\u0443\u043b\u0438\u0446\u0430 \u041c\u0438\u043b\u044c\u0447\u0430\u043a\u043e\u0432\u0430", "amenity": "fast_food", "brand": "\u0421\u0443\u0448\u0438 Wok", "brand:en": "Sushi Wok", "brand:ru": "\u0421\u0443\u0448\u0438 Wok", "brand:wikidata": "Q25444754", "cuisine": "asian", "name": "\u0421\u0443\u0448\u0438 Wok", "name:en": "Sushi Wok", "name:ru": "\u0421\u0443\u0448\u0438 Wok", "opening_hours": "Mo-Su 10:00-23:00", "takeaway": "yes"}}, {"type": "node", "id": 6920689142, "lat": 57.9839574, "lon": 56.1973228, "tags": {"amenity": "cafe", "name": "Mia", "opening_hours": "Mo-Th 12:00-00:00; Fr 12:00-04:00; Sa 14:00-04:00; Su 14:00-00:00"}}, {"type": "node", "id": 6923965158, "lat": 57.9682881, "lon": 56.319921, "tags": {"amenity": "public_bookcase", "name": "\u041b\u0435\u0441\u043d\u0430\u044f \u0431\u0438\u0431\u043b\u0438\u043e\u0442\u0435\u043a\u0430"}}, {"type": "node", "id": 6965599111, "lat": 58.0059938, "lon": 56.3215605, "tags": {"amenity": "cafe", "description": "\u043a\u0430\u0444\u0435, \u0434\u0435\u0442\u0441\u043a\u0438\u0439 \u043c\u0430\u0433\u0430\u0437\u0438\u043d, \u0438\u0433\u0440\u043e\u0432\u0430\u044f \u043a\u043e\u043c\u043d\u0430\u0442\u0430", "name": "Bim Bom"}}, {"type": "node", "id": 6965599124, "lat": 58.0051074, "lon": 56.3209309, "tags": {"amenity": "pub", "name": "One More Beer"}}, {"type": "node", "id": 6966443925, "lat": 58.003112, "lon": 56.235884, "tags": {"amenity": "cafe", "contact:instagram": "https://www.instagram.com/coffee_moose_perm/", "contact:phone": "+7 964 1894641", "contact:vk": "https://vk.com/coffee_moose_perm", "name": "\u041a\u043e\u0444\u0435 \u043c\u0443\u0437", "opening_hours": "Mo-Su 10:00-21:00", "operator": "\u0421\u0435\u043c\u0435\u0439\u043a\u0438\u043d \u0414. \u0410."}}, {"type": "node", "id": 6966446739, "lat": 58.1062345, "lon": 56.3041914, "tags": {"amenity": "cafe", "brand": "Coffee Like", "brand:wikidata": "Q55662627", "contact:email": "hotline@coffee-like.com", "contact:phone": "+7 341 2908292;+7 800 3334130", "contact:website": "https://coffee-like.com/", "cuisine": "coffee_shop", "name": "Coffee Like", "opening_hours": "Mo-Fr 08:00-22:00; Sa 09:00-22:00; Su 10:00-22:00", "operator": "\u041e\u0449\u0435\u043f\u043a\u043e\u0432\u0430 \u041e\u043b\u044c\u0433\u0430 \u0410\u043b\u0435\u043a\u0441\u0430\u043d\u0434\u0440\u043e\u0432\u043d\u0430", "takeaway": "yes"}}, {"type": "node", "id": 6966446767, "lat": 57.990018, "lon": 56.205719, "tags": {"amenity": "cafe", "brand": "Coffee Like", "brand:wikidata": "Q55662627", "contact:email": "hotline@coffee-like.com", "contact:phone": "+7 341 2908292;+7 800 3334130", "contact:website": "https://coffee-like.com/", "cuisine": "coffee_shop", "name": "Coffee Like", "opening_hours": "Mo-Fr 08:00-18:00", "operator": "\u041a\u043e\u0432\u0430\u043b\u0435\u0432 \u0410.\u042e.", "takeaway": "yes"}}, {"type": "node", "id": 7049785073, "lat": 57.9893668, "lon": 56.2489643, "tags": {"amenity": "restaurant", "name": "\u041d\u0430\u043c\u0438"}}, {"type": "node", "id": 7049785652, "lat": 57.9856668, "lon": 56.2474815, "tags": {"amenity": "fast_food", "check_date": "2023-11-06", "name": "\u0428\u0430\u0443\u0440\u043c\u0430", "opening_hours": "24/7"}}, {"type": "node", "id": 7049789448, "lat": 57.99074, "lon": 56.2475544, "tags": {"alt_name": "Kentucky Fried Chicken", "amenity": "fast_food", "brand": "KFC", "brand:wikidata": "Q524757", "brand:wikipedia": "en:KFC", "cuisine": "chicken", "name": "KFC", "takeaway": "yes"}}, {"type": "node", "id": 7138176985, "lat": 58.0097184, "lon": 56.2331434, "tags": {"amenity": "cafe", "name": "\u0420\u0430\u043d\u043d\u0438\u0435 \u043f\u0442\u0430\u0448\u043a\u0438", "opening_hours": "Mo-Su 08:00-22:00"}}, {"type": "node", "id": 7208585688, "lat": 58.006426, "lon": 56.293152, "tags": {"amenity": "cafe", "brand": "Coffee Like", "brand:wikidata": "Q55662627", "contact:email": "hotline@coffee-like.com", "contact:phone": "+7 341 2908292;+7 800 3334130", "contact:website": "https://coffee-like.com/", "cuisine": "coffee_shop", "name": "Coffee Like", "opening_hours": "Mo-Su 09:00-21:00", "operator": "\u00ab\u0420\u0443\u0431\u0438\u043a\u043e\u043d\u00bb", "takeaway": "yes"}}, {"type": "node", "id": 7245633146, "lat": 58.0098223, "lon": 56.2822801, "tags": {"addr:city": "\u041f\u0435\u0440\u043c\u044c", "addr:housenumber": "53", "addr:postcode": "614070", "addr:street": "\u0431\u0443\u043b\u044c\u0432\u0430\u0440 \u0413\u0430\u0433\u0430\u0440\u0438\u043d\u0430", "amenity": "cafe", "cuisine": "pizza;\u0440\u043e\u043b\u043b\u044b;\u043a\u043e\u0444\u0435;\u043b\u0430\u043f\u0448\u0430;\u0438\u0442\u0430\u043b\u044c\u044f\u043d\u0441\u043a\u0430\u044f;\u044f\u043f\u043e\u043d\u0441\u043a\u0430\u044f;european;\u0430\u0437\u0438\u0430\u0442\u0441\u043a\u0430\u044f", "delivery": "yes", "email": "pinkyfood@mail.ru", "internet_access": "wlan", "internet_access:fee": "no", "name": "Pinky Food", "payment:cash": "yes", "payment:credit_cards": "yes", "payment:debit_cards": "yes", "payment:maestro": "yes", "payment:mastercard": "yes", "payment:visa": "yes", "phone": "+73422760066", "takeaway": "yes", "website": "https://vk.com/pinky_food"}}, {"type": "node", "id": 7309478722, "lat": 58.058447, "lon": 56.346844, "tags": {"amenity": "cafe", "contact:email": "kupec-hotel@mail.ru", "contact:phone": "+7 342 2679715", "contact:vk": "https://vk.com/hotelkupec", "contact:website": "https://www.xn----itbbtdqltn6a1d.xn--p1ai/", "name": "\u041a\u0443\u043f\u0435\u0446", "opening_hours": "24/7", "operator": "\u041a\u0443\u043f\u0435\u0446", "tourism": "hotel"}}, {"type": "node", "id": 7414566543, "lat": 58.002981, "lon": 56.25187, "tags": {"amenity": "cafe", "contact:email": "kracota_vostoka@mail.ru", "contact:instagram": "https://instagram.com/kracotavostoka", "contact:phone": "+7 342 2868899;+7 908 2477626", "contact:vk": "https://vk.com/kracota_vostoka", "contact:website": "https://krasota-vostoka.ru/", "name": "\u041a\u0440\u0430\u0441\u043e\u0442\u0430 \u0412\u043e\u0441\u0442\u043e\u043a\u0430", "opening_hours": "11:00-20:00", "operator": "\u0411\u0443\u0440\u043d\u044b\u0448\u0435\u0432\u0430 \u041e\u043b\u044c\u0433\u0430 \u0421\u0435\u0440\u0433\u0435\u0435\u0432\u043d\u0430"}}, {"type": "node", "id": 7444732085, "lat": 58.0091913, "lon": 56.234085, "tags": {"addr:city": "\u041f\u0435\u0440\u043c\u044c", "addr:housenumber": "60", "addr:postcode": "614037", "addr:street": "\u0443\u043b\u0438\u0446\u0430 \u041b\u0435\u043d\u0438\u043d\u0430", "air_conditioning": "yes", "amenity": "cafe", "brand": "Malefice", "brewery": "no", "capacity": "60", "cuisine": "pizza;burger;chicken;kebab", "delivery": "yes", "email": "maleficehookah@yandex.ru", "internet_access": "wlan", "internet_access:fee": "no", "internet_access:ssid": "Malefice_FREE", "level": "0", "min_age": "18", "name": "Malefice Hookah | \u041a\u0430\u043b\u044c\u044f\u043d\u043d\u0430\u044f", "opening_hours": "Mo,Tu 14:00-02:00", "outdoor_seating": "no", "payment:cash": "yes", "payment:coins": "yes", "payment:credit_cards": "yes", "payment:maestro": "yes", "payment:mastercard": "yes", "payment:visa": "yes", "phone": "+7 908 2478482", "reservation": "recommended", "smoking": "isolated", "start_date": "27.12.2019", "website": "http://maleficehookah.ru/"}}, {"type": "node", "id": 7505840274, "lat": 58.1090757, "lon": 56.3033277, "tags": {"amenity": "fast_food", "brand": "\u0411\u0443\u0440\u0433\u0435\u0440 \u041a\u0438\u043d\u0433", "brand:en": "Burger King", "brand:ru": "\u0411\u0443\u0440\u0433\u0435\u0440 \u041a\u0438\u043d\u0433", "brand:wikidata": "Q177054", "contact:email": "FeedBack@burgerking.ru", "contact:phone": "+7 495 5445000", "contact:vk": "https://vk.com/burgerking", "contact:website": "https://burgerking.ru/", "cuisine": "burger", "name": "\u0411\u0443\u0440\u0433\u0435\u0440 \u041a\u0438\u043d\u0433", "name:en": "Burger King", "name:ru": "\u0411\u0443\u0440\u0433\u0435\u0440 \u041a\u0438\u043d\u0433", "opening_hours": "10:00-22:00", "operator": "\u0411\u0423\u0420\u0413\u0415\u0420 \u0420\u0423\u0421", "takeaway": "yes"}}, {"type": "node", "id": 7505868631, "lat": 58.0072279, "lon": 56.2288749, "tags": {"amenity": "fast_food", "brand": "\u0411\u0443\u0440\u0433\u0435\u0440 \u041a\u0438\u043d\u0433", "brand:en": "Burger King", "brand:ru": "\u0411\u0443\u0440\u0433\u0435\u0440 \u041a\u0438\u043d\u0433", "brand:wikidata": "Q177054", "brand:wikipedia": "en:Burger King", "contact:email": "info@burgerkingrus.ru", "contact:phone": "+7 495 5445000", "contact:vk": "https://vk.com/burgerking", "contact:website": "https://burgerkingrus.ru/", "cuisine": "burger", "name": "\u0411\u0443\u0440\u0433\u0435\u0440 \u041a\u0438\u043d\u0433", "name:en": "Burger King", "name:ru": "\u0411\u0443\u0440\u0433\u0435\u0440 \u041a\u0438\u043d\u0433", "opening_hours": "Mo-Tu,Su 08:00-03:55; Th 09:00-03:55, Fr-Sa 08:00-05:55; We 08:00-23:55", "operator": "\u0411\u0423\u0420\u0413\u0415\u0420 \u0420\u0423\u0421", "takeaway": "yes"}}, {"type": "node", "id": 7569241676, "lat": 57.9991895, "lon": 56.1574193, "tags": {"addr:city": "\u041f\u0435\u0440\u043c\u044c", "addr:housenumber": "23", "addr:street": "\u041f\u0430\u0440\u043a\u043e\u0432\u044b\u0439 \u043f\u0440\u043e\u0441\u043f\u0435\u043a\u0442", "amenity": "cafe", "brand": "Coffee Like", "brand:wikidata": "Q55662627", "brand:wikipedia": "ru:Coffee Like", "cuisine": "coffee_shop", "name": "Coffee Like", "opening_hours": "Mo-Su 08:00-21:30", "phone": "+7 341 2908292;+7 800 3334130", "takeaway": "yes", "website": "https://coffee-like.com"}}, {"type": "node", "id": 7727094137, "lat": 58.0441894, "lon": 55.8707943, "tags": {"amenity": "cafe"}}, {"type": "node", "id": 7760351727, "lat": 58.0015691, "lon": 56.2684965, "tags": {"amenity": "restaurant", "contact:email": "pastanadom@gmail.com", "contact:instagram": "https://instagram.com/pastanadom", "contact:phone": "+7 902 4713898", "delivery": "yes", "name": "Pasta na Dom", "opening_hours": "Mo-Su 09:00-22:00", "operator": "Pasta na Dom"}}, {"type": "node", "id": 7760351729, "lat": 57.9802348, "lon": 56.1913937, "tags": {"amenity": "fast_food", "contact:phone": "+7 950 4552205;+7 992 2180585", "contact:vk": "https://vk.com/clubedahabibi", "name": "EDA Habibi", "opening_hours": "Mo-Su 09:00-22:00", "operator": "\u0422\u0430\u0434\u0436\u0438\u0435\u0432\u0430 \u0422.\u0421."}}, {"type": "node", "id": 7832364829, "lat": 58.0072906, "lon": 56.2289178, "tags": {"amenity": "fast_food", "contact:email": "lavka76@yandex.ru", "contact:facebook": "https://facebook.com/kulinarnayalavka1", "contact:instagram": "https://instagram.com/lavkaperm", "contact:phone": "+7 342 2765859", "contact:vk": "https://vk.com/kulinarnayalavka1", "contact:website": "https://lavkanomer1.ru/", "name": "\u041b\u0430\u0432\u043a\u0430 \u21161", "opening_hours": "Mo-Fr 08:00-21:00;Sa-Su 10:00-21:00", "operator": "\u041b\u0430\u0432\u043a\u0430 \u21161"}}, {"type": "node", "id": 7832364839, "lat": 58.0139435, "lon": 56.2368599, "tags": {"amenity": "cafe", "contact:email": "businesscoffeehouse@gmail.com", "contact:facebook": "https://facebook.com/PhilterKoffee", "contact:instagram": "https://instagram.com/philter_coffee", "contact:phone": "+7 952 3351732", "contact:vk": "https://vk.com/philter_coffee", "name": "Philter", "opening_hours": "Fr-Sa 10:00-23:00;Mo-Th,Su 10:00-22:00", "operator": "Philter"}}, {"type": "node", "id": 7832364842, "lat": 58.008431, "lon": 56.148956, "tags": {"amenity": "restaurant", "contact:email": "exa912008@yandex.ru", "contact:instagram": "https://instagram.com/holidaytimeperm", "contact:phone": "+7 982 4754683", "contact:vk": "https://vk.com/holidaytimeperm", "contact:website": "https://vk.link/", "name": "Holiday time", "opening_hours": "Mo-Su 08:00-19:00", "operator": "\u0418\u041f \u041f\u0435\u0442\u0440\u0435\u0447\u0435\u043d\u043a\u043e \u0415.\u0418."}}, {"type": "node", "id": 7832364849, "lat": 58.0018731, "lon": 56.2955064, "tags": {"amenity": "restaurant", "contact:email": "moyaedaperm@mail.ru", "contact:instagram": "https://instagram.com/moyaeda_perm", "contact:phone": "+7 342 2020982;+7 919 4778596", "contact:vk": "https://vk.com/club124467952", "name": "\u041c\u043e\u044f \u0415\u0434\u0430", "opening_hours": "Mo-Fr 09:00-18:00", "operator": "\u041e\u041e\u041e \u041c\u043e\u044f \u0415\u0434\u0430"}}, {"type": "node", "id": 7941153685, "lat": 57.9727057, "lon": 56.2347002, "tags": {"addr:housenumber": "28", "addr:street": "\u0443\u043b\u0438\u0446\u0430 \u0421\u043e\u043b\u0434\u0430\u0442\u043e\u0432\u0430", "amenity": "cafe", "name": "\u0421\u0443\u0448\u0438 \u041c\u0430\u0441\u0442\u0435\u0440"}}, {"type": "node", "id": 7942486861, "lat": 58.011198, "lon": 55.982925, "tags": {"amenity": "restaurant", "contact:email": "admin@almedperm.ru", "contact:ok": "https://ok.ru/group54280908505295", "contact:phone": "+7 342 2009006;+7 342 2527042;+7 342 2528014;+7 919 4609006", "contact:vk": "https://vk.com/almed.perm", "contact:website": "https://almedperm.ru/", "name": "\u0410\u043b\u043c\u0435\u0434", "opening_hours": "24/7", "operator": "\u0410\u043b\u043c\u0435\u0434"}}, {"type": "node", "id": 7986889852, "lat": 57.9898394, "lon": 56.1944207, "tags": {"amenity": "cafe", "name": "\u0427\u0438\u043a\u0430\u0433\u0430", "opening_hours": "Mo-Fr 13:00-23:00"}}, {"type": "node", "id": 8006917004, "lat": 58.0106533, "lon": 56.2399154, "tags": {"amenity": "fast_food", "brand": "\u0411\u0443\u0440\u0433\u0435\u0440 \u041a\u0438\u043d\u0433", "brand:en": "Burger King", "brand:ru": "\u0411\u0443\u0440\u0433\u0435\u0440 \u041a\u0438\u043d\u0433", "brand:wikidata": "Q177054", "brand:wikipedia": "en:Burger King", "contact:email": "info@burgerkingrus.ru", "contact:phone": "+7 495 5445000", "contact:vk": "https://vk.com/burgerking", "contact:website": "https://burgerkingrus.ru/", "cuisine": "burger", "name": "\u0411\u0443\u0440\u0433\u0435\u0440 \u041a\u0438\u043d\u0433", "name:en": "Burger King", "name:ru": "\u0411\u0443\u0440\u0433\u0435\u0440 \u041a\u0438\u043d\u0433", "opening_hours": "Mo-Su 08:00-03:00", "takeaway": "yes"}}, {"type": "node", "id": 8065706602, "lat": 58.0127286, "lon": 56.2474385, "tags": {"amenity": "cafe", "contact:email": "kult.zavtrakov@gmail.com", "contact:facebook": "https://facebook.com/kult.zavtrakov", "contact:instagram": "https://instagram.com/kult.zavtrakov", "contact:phone": "+7 342 2042777", "contact:website": "https://taplink.cc/", "name": "\u041a\u0443\u043b\u044c\u0442 \u0437\u0430\u0432\u0442\u0440\u0430\u043a\u043e\u0432", "opening_hours": "Mo-Fr 09:00-21:00;Sa 11:00-20:00;Su 11:00-19:00", "operator": "\u041a\u0443\u043b\u044c\u0442 \u0437\u0430\u0432\u0442\u0440\u0430\u043a\u043e\u0432"}}, {"type": "node", "id": 8154400340, "lat": 58.005746, "lon": 56.259694, "tags": {"amenity": "fast_food", "contact:email": "shaurmacitygroup@mail.ru", "contact:instagram": "https://instagram.com/shaurmacitygroup.ru", "contact:phone": "+7 342 2583177", "name": "Shaurma City", "opening_hours": "24/7", "operator": "Shaurma City"}}, {"type": "node", "id": 8154400342, "lat": 57.999744, "lon": 56.2075943, "tags": {"amenity": "cafe", "contact:email": "PanStepanPerm@GMail.com", "contact:facebook": "https://facebook.com/PanStepanPerm", "contact:instagram": "https://instagram.com/PanStepanPerm", "contact:phone": "+7 342 2430009;+7 912 8810009;+7 999 1235577", "contact:twitter": "https://twitter.com/@panstepanperm", "contact:vk": "https://vk.com/panstepanperm", "contact:website": "https://www.panstepanperm.ru/", "name": "Pan Stepan", "opening_hours": "Mo-Su 11:00-23:00", "operator": "Pan Stepan"}}, {"type": "node", "id": 8154442181, "lat": 57.9668101, "lon": 56.1898112, "tags": {"amenity": "fast_food", "contact:email": "expressnewshaurma@mail.ru", "contact:phone": "+7 967 9029745", "contact:vk": "https://vk.com/nagorshaur", "contact:website": "https://taplink.cc/", "name": "\u042d\u043a\u0441\u043f\u0440\u0435\u0441\u0441 New \u0428\u0430\u0443\u0440\u043c\u0430", "opening_hours": "24/7", "operator": "\u042d\u043a\u0441\u043f\u0440\u0435\u0441\u0441 New \u0428\u0430\u0443\u0440\u043c\u0430"}}, {"type": "node", "id": 8154442182, "lat": 57.9764317, "lon": 56.1056435, "tags": {"amenity": "fast_food", "contact:email": "expressnewshaurma@mail.ru", "contact:instagram": "https://instagram.com/shaurma.59", "contact:phone": "+7 932 3323335", "contact:vk": "https://vk.com/newshawarma59", "contact:website": "https://taplink.cc/", "name": "\u042d\u043a\u0441\u043f\u0440\u0435\u0441\u0441 New \u0428\u0430\u0443\u0440\u043c\u0430", "opening_hours": "Mo-Su 10:00-23:00", "operator": "\u041e\u0448\u0435\u0432 \u042e\u0440\u0438\u0439 \u0412\u043b\u0430\u0434\u0438\u043c\u0438\u0440\u043e\u0432\u0438\u0447"}}, {"type": "node", "id": 8154442201, "lat": 57.987976, "lon": 56.207428, "tags": {"amenity": "fast_food", "contact:email": "expressnewshaurma@mail.ru", "contact:phone": "+7 919 4966753", "contact:vk": "https://vk.com/newshawarma", "contact:website": "https://taplink.cc/", "name": "\u042d\u043a\u0441\u043f\u0440\u0435\u0441\u0441 New \u0428\u0430\u0443\u0440\u043c\u0430", "opening_hours": "Mo-Su 10:00-22:00", "operator": "\u042d\u043a\u0441\u043f\u0440\u0435\u0441\u0441 New \u0428\u0430\u0443\u0440\u043c\u0430"}}, {"type": "node", "id": 8237592884, "lat": 58.0128239, "lon": 56.2464716, "tags": {"amenity": "cafe", "contact:instagram": "https://instagram.com/bogema_prm", "contact:phone": "+7 908 2756107", "contact:vk": "https://vk.com/bogemaprm", "name": "\u0411\u043e\u0433\u0435\u043c\u0430", "opening_hours": "Mo-Fr 12:00-01:00;Sa-Su 16:00-01:00", "operator": "\u0411\u043e\u0433\u0435\u043c\u0430"}}, {"type": "node", "id": 8237609640, "lat": 58.0344766, "lon": 56.1975092, "tags": {"amenity": "cafe", "contact:email": "kamuzh09@gmail.com", "contact:phone": "+7 964 1877789", "name": "#\u043a\u0430\u0444\u0435", "opening_hours": "Fr 08:30-07:00;Tu-Th,Sa 08:30-17:00", "operator": "#\u043a\u0430\u0444\u0435"}}, {"type": "node", "id": 8237631905, "lat": 57.9793558, "lon": 56.1952829, "tags": {"amenity": "cafe", "contact:phone": "+7 342 2278579", "name": "\u0421\u043a\u0430\u0437\u043a\u0430", "opening_hours": "Mo-Fr 08:00-20:00", "operator": "\u0421\u043a\u0430\u0437\u043a\u0430"}}, {"type": "node", "id": 8318080017, "lat": 58.0132314, "lon": 56.2336016, "tags": {"addr:postcode": "614000", "amenity": "cafe", "cuisine": "breakfast;cake;coffee_shop;diner;italian;mediterranean;pasta", "email": "perm.sisters@gmail.com", "internet_access": "wlan", "name:en": "Sisters.Coffe&Wine", "opening_hours": "Mo-Th 08:00-23:00; Fr 09:00-00:00; Sa 09:00-00:00; Su 09:00-23:00", "phone": "8342031443", "website": "https://instagram.com/sisters.perm"}}, {"type": "node", "id": 8370776286, "lat": 58.0046, "lon": 56.198447, "tags": {"amenity": "restaurant", "contact:email": "diana.busharo@bk.ru", "contact:facebook": "https://facebook.com/101788028433927", "contact:instagram": "https://instagram.com/moor4353", "contact:phone": "+7 342 2010118", "name": "\u0411\u0443\u0428\u0430\u0420\u043e", "opening_hours": "Mo-Su 07:30-21:00", "operator": "\u0411\u0443\u0428\u0430\u0420\u043e"}}, {"type": "node", "id": 8502542190, "lat": 58.014158, "lon": 56.2496728, "tags": {"amenity": "cafe", "name": "\u041f\u0438\u0440\u043e\u0433\u043e\u0432\u044a"}}, {"type": "node", "id": 8521164973, "lat": 57.9839804, "lon": 56.1974072, "tags": {"amenity": "fast_food", "contact:email": "lavka76@yandex.ru", "contact:facebook": "https://facebook.com/kulinarnayalavka1", "contact:instagram": "https://instagram.com/lavkaperm", "contact:phone": "+7 342 2765859", "contact:vk": "https://vk.com/kulinarnayalavka1", "contact:website": "https://lavkanomer1.ru/", "name": "\u041b\u0430\u0432\u043a\u0430 \u21161", "opening_hours": "Mo-Fr 08:00-21:00;Sa-Su 10:00-21:00", "operator": "\u041b\u0430\u0432\u043a\u0430 \u21161"}}, {"type": "node", "id": 8521164990, "lat": 58.003022, "lon": 56.223532, "tags": {"amenity": "cafe", "contact:email": "avtobento@mail.ru", "contact:facebook": "https://facebook.com/avtobento", "contact:instagram": "https://instagram.com/bento_sushi_perm", "contact:ok": "https://ok.ru/avtobento", "contact:phone": "+7 342 2553388;+7 342 2584488;+7 342 2700747", "contact:twitter": "https://twitter.com/@avtobento", "contact:vk": "https://vk.com/sushi_bento_sushi", "contact:website": "https://avtobento.ru/", "contact:youtube": "https://youtube.com/channel/UC_OAw2wUYxVRuPkyM-ZmcSw", "name": "\u0410\u0432\u0442\u043e Bento", "opening_hours": "Fr-Sa 10:00-00:30;Mo-Th,Su 10:00-00:00", "operator": "\u0410\u0432\u0442\u043e Bento"}}, {"type": "node", "id": 8521165004, "lat": 58.0156551, "lon": 56.2337134, "tags": {"amenity": "cafe", "check_date": "2023-07-19", "contact:email": "kompros1@mail.ru", "contact:instagram": "https://instagram.com/burundi_cafe", "contact:phone": "+7 902 4712111", "cuisine": "coffee_shop", "name": "Burundi", "opening_hours": "Mo-Fr 08:00-22:00;Sa-Su 10:00-22:00", "operator": "\u0418\u041f \u0412\u043e\u043b\u043e\u0434\u044c\u043a\u043e \u0415\u0444\u0438\u043c \u0412\u043b\u0430\u0434\u0438\u043c\u0438\u0440\u043e\u0432\u0438\u0447. \u041a\u043e\u0444\u0435\u0439\u043d\u044f Burundi", "outdoor_seating": "yes", "payment:mastercard": "yes", "payment:visa": "yes", "telegram": "https://t.me/bar_bur", "wheelchair": "yes"}}, {"type": "node", "id": 8694220036, "lat": 58.0182012, "lon": 56.245235, "tags": {"addr:city": "\u041f\u0435\u0440\u043c\u044c", "addr:housenumber": "1", "addr:postcode": "614000", "addr:street": "\u0443\u043b\u0438\u0446\u0430 25 \u041e\u043a\u0442\u044f\u0431\u0440\u044f", "amenity": "cafe", "cuisine": "smoothie;pasta;russian;international", "name": "Lemon Tree", "opening_hours": "Mo-Fr 08:00-23:00; Sa-Su 09:00-23:00", "phone": "+7 342 204 36 44", "website": "http://lemontreecafe.ru"}}, {"type": "node", "id": 8707807144, "lat": 58.0073642, "lon": 56.3082521, "tags": {"amenity": "fast_food", "name": "\u0428\u0430\u0432\u0435\u0440\u043c\u0430\u0425\u0430\u0443\u0441", "opening_hours": "24/7"}}, {"type": "node", "id": 8752464291, "lat": 57.9812957, "lon": 56.1946982, "tags": {"amenity": "fast_food", "brand": "\u0421\u0442\u0430\u0440\u0434\u043e\u0433s", "brand:en": "Stardogs", "brand:ru": "\u0421\u0442\u0430\u0440\u0434\u043e\u0433s", "brand:wikidata": "Q4439856", "contact:phone": "+7 908 2588889;+7 982 4703509", "cuisine": "sausage", "name": "\u0421\u0442\u0430\u0440\u0434\u043e\u0433s", "name:en": "Stardogs", "name:ru": "\u0421\u0442\u0430\u0440\u0434\u043e\u0433s", "opening_hours": "Mo-Fr 09:00-21:00;Sa-Su 10:00-21:00", "takeaway": "yes"}}, {"type": "node", "id": 8752464298, "lat": 57.9652417, "lon": 56.268416, "tags": {"amenity": "cafe", "contact:phone": "+7 952 6611311", "name": "\u041c\u0430\u043d\u0433\u0430\u043b \u0425\u0430\u0443\u0441", "opening_hours": "Mo-Sa 10:00-21:00"}}, {"type": "node", "id": 8752464303, "lat": 58.0120693, "lon": 56.2516201, "tags": {"amenity": "cafe", "contact:email": "chaikasushi@gmail.com", "contact:phone": "+7 342 2034050", "contact:website": "https://chaikasushi.ru/", "cuisine": "sushi", "name": "\u0427\u0430\u0439\u043a\u0430 \u0421\u0443\u0448\u0438", "opening_hours": "Mo-Su 12:00-23:00"}}, {"type": "node", "id": 8839176158, "lat": 58.0184541, "lon": 56.252092, "tags": {"amenity": "internet_cafe", "contact:email": "fps59club@yandex.ru", "contact:phone": "+7 996 0822322", "name": "\u041a\u0438\u0431\u0435\u0440\u0441\u043f\u043e\u0440\u0442\u0438\u0432\u043d\u044b\u0439 \u043a\u043e\u043c\u043f\u044c\u044e\u0442\u0435\u0440\u043d\u044b\u0439 \u043a\u043b\u0443\u0431 59 FPS", "opening_hours": "Mo-Su 10:00-09:00"}}, {"type": "node", "id": 8918535659, "lat": 58.1136782, "lon": 56.3178795, "tags": {"amenity": "cafe", "name": "\u0411\u0443\u0440\u0433\u0435\u0440`S"}}, {"type": "node", "id": 8928748617, "lat": 57.9823332, "lon": 56.2918476, "tags": {"amenity": "fast_food", "name": "\u0424\u0440\u0438\u0442\u044e\u0440\u043d\u0438\u0446\u0430"}}, {"type": "node", "id": 8938707264, "lat": 57.9856292, "lon": 56.2929764, "tags": {"amenity": "cafe", "name": "\u041f\u0430\u0445\u043b\u0430\u0432\u0430"}}, {"type": "node", "id": 8938885833, "lat": 57.969493, "lon": 56.1469012, "tags": {"amenity": "fast_food", "brand": "\u0411\u0443\u0440\u0433\u0435\u0440 \u041a\u0438\u043d\u0433", "brand:en": "Burger King", "brand:ru": "\u0411\u0443\u0440\u0433\u0435\u0440 \u041a\u0438\u043d\u0433", "brand:wikidata": "Q177054", "contact:email": "FeedBack@burgerking.ru", "contact:phone": "+7 495 5445000", "contact:website": "https://burgerkingrus.ru/", "cuisine": "burger", "indoor_seating": "yes", "name": "\u0411\u0443\u0440\u0433\u0435\u0440 \u041a\u0438\u043d\u0433", "name:en": "Burger King", "name:ru": "\u0411\u0443\u0440\u0433\u0435\u0440 \u041a\u0438\u043d\u0433", "opening_hours": "Mo-Su 10:00-21:55", "outdoor_seating": "yes", "takeaway": "yes"}}, {"type": "node", "id": 9124434321, "lat": 58.0175057, "lon": 56.2312191, "tags": {"air_conditioning": "yes", "amenity": "cafe", "indoor_seating": "yes", "name": "\u042f\u043a\u043e\u0440\u044c", "outdoor_seating": "yes"}}, {"type": "node", "id": 9163601018, "lat": 58.0360064, "lon": 56.1450832, "tags": {"amenity": "cafe", "name": "\u041f\u0440\u043e\u043b\u0435\u0442\u0430\u0440\u0441\u043a\u0438\u0439 \u043a\u043e\u0444\u0435 - \u043a\u043e\u0444\u0435 \u043d\u0430 \u0432\u044b\u043d\u043e\u0441", "name:en": "Coffee to go - Proletarskiy coffee"}}, {"type": "node", "id": 9163601217, "lat": 58.0322836, "lon": 56.1399068, "tags": {"amenity": "cafe", "name": "\u041a\u043e\u0444\u0435 \u043d\u0430 \u0432\u044b\u043d\u043e\u0441", "name:en": "Coffie to go"}}, {"type": "node", "id": 9165848017, "lat": 57.9713983, "lon": 56.1503405, "tags": {"amenity": "cafe", "check_date:opening_hours": "2024-03-06", "cuisine": "coffee_shop;donut;hotdog;sandwich", "indoor_seating": "yes", "name": "Coffee Way", "opening_hours": "Mo-Su 09:00-22:00", "outdoor_seating": "no"}}, {"type": "node", "id": 9229875731, "lat": 58.0125554, "lon": 56.2442631, "tags": {"amenity": "cafe", "cuisine": "pizza", "name": "Toropomodoro", "opening_hours": "Mo-Su 12:00-23:00"}}, {"type": "node", "id": 9265533740, "lat": 57.9858745, "lon": 56.2540109, "tags": {"amenity": "fast_food", "name": "\u0428\u0430\u0443\u0440\u041c\u0430\u043d\u0438\u044f"}}, {"type": "node", "id": 9279780712, "lat": 57.9573324, "lon": 56.1285201, "tags": {"amenity": "fast_food", "contact:email": "info@burgerkingrus.ru", "contact:phone": "+7 495 5445000", "contact:website": "https://burgerkingrus.ru/", "cuisine": "burger", "name": "\u0411\u0443\u0440\u0433\u0435\u0440 \u041a\u0438\u043d\u0433", "name:en": "Burger King", "name:ru": "\u0411\u0443\u0440\u0433\u0435\u0440 \u041a\u0438\u043d\u0433", "opening_hours": "Mo-Su 08:00-24:00"}}, {"type": "node", "id": 9504212815, "lat": 57.971897, "lon": 56.150442, "tags": {"amenity": "fast_food", "check_date:opening_hours": "2024-03-06", "contact:email": "support@vitajuice.ru", "contact:phone": "+7 951 9329023", "contact:website": "https://farshburger.ru/", "cuisine": "burger", "indoor_seating": "yes", "name": "Farsh", "opening_hours": "Mo-Su 10:00-22:00", "outdoor_seating": "no"}}, {"type": "node", "id": 9516895206, "lat": 57.9982002, "lon": 56.2424383, "tags": {"addr:city": "\u041f\u0435\u0440\u043c\u044c", "addr:housenumber": "67", "addr:street": "\u0443\u043b\u0438\u0446\u0430 \u041a\u0443\u0439\u0431\u044b\u0448\u0435\u0432\u0430", "amenity": "cafe", "cuisine": "pizza;japanese", "internet_access": "yes", "internet_access:fee": "customers", "internet_access:ssid": "pizza", "name": "\u0426\u0430\u0440\u044c \u043f\u0438\u0446\u0446\u0430", "opening_hours": "Mo-Su 09:00-23:00", "outdoor_seating": "no", "phone": "+73422121707", "website": "https://2121707.ru/"}}, {"type": "node", "id": 9516935409, "lat": 57.9982313, "lon": 56.2424898, "tags": {"addr:city": "\u041f\u0435\u0440\u043c\u044c", "addr:housenumber": "67", "addr:street": "\u0443\u043b\u0438\u0446\u0430 \u041a\u0443\u0439\u0431\u044b\u0448\u0435\u0432\u0430", "amenity": "cafe", "cuisine": "japanese", "internet_access": "yes", "internet_access:fee": "customers", "name": "\u0419\u043e\u0448\u0438 \u0442\u043e\u0448\u0438", "opening_hours": "Mo-Su 09:00-23:00", "outdoor_seating": "no", "phone": "+73422400400", "website": "https://zvonisushi.ru/"}}, {"type": "node", "id": 9549839836, "lat": 57.9994881, "lon": 56.170266, "tags": {"amenity": "fast_food", "contact:email": "franch.chicken@gmail.com", "contact:phone": "+7 342 2484228", "contact:website": "https://perm.kannam.ru", "cuisine": "chicken", "name": "Kannam Chicken", "opening_hours": "Fr 00:00-01:00,11:00-01:00; Mo-Th,Su 11:00-23:00; Sa 11:00-24:00"}}, {"type": "node", "id": 9584929541, "lat": 58.0073887, "lon": 56.2627834, "tags": {"amenity": "restaurant", "contact:email": "discount@restunion.ru", "contact:phone": "+7 342 2387083", "contact:website": "http://www.restunion.ru/tsuru/restaurants/8/", "name": "\u0422\u0441\u0443\u0440\u0443", "opening_hours": "Mo-Su 10:00-22:00"}}, {"type": "node", "id": 9584929542, "lat": 57.977836, "lon": 56.189271, "tags": {"amenity": "restaurant", "contact:email": "discount@restunion.ru", "contact:phone": "+7 342 2069402", "contact:website": "http://www.restunion.ru/casamia/restaurants/46/", "indoor_seating": "yes", "name": "Casa Mia", "opening_hours": "Mo-Su 10:00-22:00", "outdoor_seating": "no"}}, {"type": "node", "id": 9584929543, "lat": 57.9776435, "lon": 56.1886552, "tags": {"amenity": "restaurant", "contact:email": "discount@restunion.ru", "contact:phone": "+7 342 2069402", "contact:website": "http://www.restunion.ru/tsuru/restaurants/45/", "indoor_seating": "yes", "name": "\u0422\u0441\u0443\u0440\u0443", "opening_hours": "Mo-Su 10:00-22:00", "outdoor_seating": "no"}}, {"type": "node", "id": 9584929544, "lat": 57.9776335, "lon": 56.1890227, "tags": {"amenity": "restaurant", "contact:email": "discount@restunion.ru", "contact:phone": "+7 342 2069402", "contact:website": "http://www.restunion.ru/halva/restaurants/15/", "indoor_seating": "yes", "name": "\u0425\u0430\u043b\u0432\u0430", "opening_hours": "Mo-Su 10:00-22:00", "outdoor_seating": "no"}}, {"type": "node", "id": 9584929545, "lat": 58.0047099, "lon": 56.2562254, "tags": {"amenity": "restaurant", "contact:email": "discount@restunion.ru", "contact:phone": "+7 342 2067076", "contact:website": "https://casamia.rest/", "name": "Casa Mia", "opening_hours": "Mo-Su 12:00-23:00"}}, {"type": "node", "id": 9584929546, "lat": 58.0127357, "lon": 56.247645, "tags": {"amenity": "restaurant", "contact:email": "discount@restunion.ru", "contact:phone": "+7 342 2124094", "contact:website": "http://www.restunion.ru/tsuru/", "name": "\u0422\u0441\u0443\u0440\u0443", "opening_hours": "Mo-Su 10:00-22:00"}}, {"type": "node", "id": 9584929547, "lat": 58.0076885, "lon": 56.2629658, "tags": {"amenity": "restaurant", "contact:email": "discount@restunion.ru", "contact:phone": "+7 342 2386880", "contact:website": "http://www.restunion.ru/halva/restaurants/15/", "name": "\u0425\u0430\u043b\u0432\u0430", "opening_hours": "Fr-Sa 12:00-01:00;Mo-Th,Su 12:00-24:00"}}, {"type": "node", "id": 9584929548, "lat": 58.007481, "lon": 56.262917, "tags": {"amenity": "restaurant", "contact:email": "discount@restunion.ru", "contact:phone": "+7 342 2386880", "contact:website": "http://www.restunion.ru/casamia/restaurants/18/", "name": "Casa Mia", "opening_hours": "Mo-Su 10:00-22:00"}}, {"type": "node", "id": 9719151517, "lat": 57.9997089, "lon": 56.2543443, "tags": {"addr:postcode": "614039", "amenity": "cafe", "email": "rus.sadyckov2017@yandex.ru", "internet_access": "wlan", "name": "Coffee King", "opening_hours": "Mo-Th 07:30-21:00; Fr 07:30-22:00; Sa-Su 08:00-22:00", "website": "https://vk.link/coffee_king_centre"}}, {"type": "node", "id": 9719925525, "lat": 58.0126648, "lon": 56.2436752, "tags": {"addr:housenumber": "46\u0410", "addr:street": "\u0443\u043b\u0438\u0446\u0430 \u041b\u0435\u043d\u0438\u043d\u0430", "amenity": "cafe", "name": "\u0414\u043e\u043c \u0414\u0435\u043c\u0438\u0434\u043e\u0432\u044b\u0445"}}, {"type": "node", "id": 9805721981, "lat": 57.9955621, "lon": 56.2516388, "tags": {"amenity": "fast_food", "contact:email": "nfyzzy@gmail.com", "contact:phone": "+7 912 9850891", "contact:website": "https://dobro-coffee.ru", "cuisine": "coffee_shop", "name": "Do.Bro Coffee", "opening_hours": "Mo-Su 08:00-21:00"}}, {"type": "node", "id": 9885152588, "lat": 58.0021019, "lon": 56.3047094, "tags": {"alt_name": "Kentucky Fried Chicken", "amenity": "fast_food", "brand": "KFC", "brand:wikidata": "Q524757", "brand:wikipedia": "en:KFC", "cuisine": "chicken", "name": "KFC", "takeaway": "yes"}}, {"type": "node", "id": 9886531993, "lat": 57.9815326, "lon": 56.2927186, "tags": {"amenity": "fast_food", "name": "Shaurma \u21161"}}, {"type": "node", "id": 9919212217, "lat": 57.9883116, "lon": 56.2054834, "tags": {"amenity": "cafe", "brand": "Coffee Like", "brand:wikidata": "Q55662627", "contact:phone": "+7 341 2908292;+7 800 3334130", "contact:website": "https://coffee-like.com/", "cuisine": "coffee_shop", "name": "Coffee Like", "opening_hours": "Mo-Fr 08:00-21:00;Sa-Su 09:00-21:00", "takeaway": "yes"}}, {"type": "node", "id": 9919212219, "lat": 58.0131208, "lon": 56.236487, "tags": {"amenity": "fast_food", "contact:phone": "+7 341 2908292;+7 800 3334130", "contact:website": "https://coffee-like.com/", "cuisine": "coffee_shop", "name": "Coffee Like", "opening_hours": "Mo-Su 08:00-21:00"}}, {"type": "node", "id": 9919212220, "lat": 58.0103714, "lon": 56.2932345, "tags": {"amenity": "cafe", "brand": "Coffee Like", "brand:wikidata": "Q55662627", "contact:phone": "+7 341 2908292;+7 800 3334130", "contact:website": "https://coffee-like.com/", "cuisine": "coffee_shop", "name": "Coffee Like", "opening_hours": "Mo-Fr 08:00-21:00;Sa-Su 09:00-21:00", "takeaway": "yes"}}, {"type": "node", "id": 9919212221, "lat": 57.996668, "lon": 56.2635478, "tags": {"amenity": "cafe", "brand": "Coffee Like", "brand:wikidata": "Q55662627", "contact:phone": "+7 341 2908292;+7 800 3334130", "contact:website": "https://coffee-like.com/", "cuisine": "coffee_shop", "name": "Coffee Like", "opening_hours": "Mo-Su 10:00-21:00", "takeaway": "yes"}}, {"type": "node", "id": 9919212223, "lat": 58.0178504, "lon": 56.2428653, "tags": {"amenity": "fast_food", "contact:phone": "+7 341 2908292;+7 800 3334130", "contact:website": "https://coffee-like.com/", "cuisine": "coffee_shop", "name": "Coffee Like", "opening_hours": "Mo-Su 08:00-21:00"}}, {"type": "node", "id": 9919212224, "lat": 58.00427, "lon": 56.199844, "tags": {"amenity": "cafe", "brand": "Coffee Like", "brand:wikidata": "Q55662627", "contact:phone": "+7 341 2908292;+7 800 3334130", "contact:website": "https://coffee-like.com/", "cuisine": "coffee_shop", "name": "Coffee Like", "opening_hours": "Mo-Fr 08:00-21:00; Sa-Su 09:00-21:00", "takeaway": "yes"}}, {"type": "node", "id": 9992576039, "lat": 58.0072153, "lon": 56.2422162, "tags": {"amenity": "cafe", "brand": "Coffee Like", "brand:wikidata": "Q55662627", "contact:phone": "+7 341 2908292;+7 800 3334130", "contact:website": "https://coffee-like.com/", "cuisine": "coffee_shop", "name": "Coffee Like", "opening_hours": "Mo-Fr 08:00-21:00;Sa-Su 09:00-21:00", "takeaway": "yes"}}, {"type": "node", "id": 9992576041, "lat": 57.9848209, "lon": 56.249463, "tags": {"amenity": "cafe", "brand": "Coffee Like", "brand:wikidata": "Q55662627", "contact:phone": "+7 341 2908292;+7 800 3334130", "contact:website": "https://coffee-like.com/", "cuisine": "coffee_shop", "name": "Coffee Like", "opening_hours": "Mo-Sa 07:00-20:00;Su 10:00-18:00", "takeaway": "yes"}}, {"type": "node", "id": 10060213296, "lat": 58.0162524, "lon": 56.2333078, "tags": {"addr:city": "\u041f\u0435\u0440\u043c\u044c", "addr:housenumber": "1", "addr:postcode": "614000", "addr:street": "\u041a\u043e\u043c\u0441\u043e\u043c\u043e\u043b\u044c\u0441\u043a\u0438\u0439 \u043f\u0440\u043e\u0441\u043f\u0435\u043a\u0442", "amenity": "cafe", "check_date": "2023-07-19", "name": "Happy", "opening_hours": "Mo-Su 08:00-23:00", "outdoor_seating": "yes", "payment:mastercard": "yes", "payment:visa": "yes", "phone": "+7 (342) 240-45-73", "website": "https://happydomoi.ru/"}}, {"type": "node", "id": 10081130101, "lat": 58.0210563, "lon": 56.2539956, "tags": {"amenity": "restaurant", "name": "\u042d\u043a\u0441\u043f\u0435\u0434\u0438\u0446\u0438\u044f"}}, {"type": "node", "id": 10101227970, "lat": 58.0403134, "lon": 56.1677205, "tags": {"amenity": "fast_food", "drive_through": "no", "name": "\u0421\u0442\u043e\u043b\u043e\u0432\u0430\u044f \u0410\u041e \u00ab\u0426\u0435\u043d\u0442\u0440\u0430\u043b\u044c\u043d\u044b\u0439 \u0430\u0433\u0440\u043e\u0441\u043d\u0430\u0431\u00bb", "operator": "\u0410\u041e \u00ab\u0426\u0435\u043d\u0442\u0440\u0430\u043b\u044c\u043d\u044b\u0439 \u0430\u0433\u0440\u043e\u0441\u043d\u0430\u0431\u00bb"}}, {"type": "node", "id": 10105903912, "lat": 57.9530682, "lon": 56.1143554, "tags": {"amenity": "cafe", "name": "\u0423\u0437\u0431\u0435\u043a\u0441\u043a\u0430\u044f \u043a\u0443\u0445\u043d\u044f"}}, {"type": "node", "id": 10113778902, "lat": 58.0214905, "lon": 56.2541148, "tags": {"amenity": "restaurant", "cuisine": "georgian;asian", "name": "\u0427\u0430\u0439\u043a\u0430 Zaza", "website": "https://chaikazaza.vsite.biz/"}}, {"type": "node", "id": 10165979460, "lat": 58.0062324, "lon": 56.2857963, "tags": {"amenity": "restaurant", "name": "\u041a\u0430\u0440\u0438\u043d"}}, {"type": "node", "id": 10177274506, "lat": 58.0120908, "lon": 56.2275649, "tags": {"amenity": "cafe", "name": "TomYumBar", "name:ru": "\u0422\u043e\u043c-\u044f\u043c \u0431\u0430\u0440"}}, {"type": "node", "id": 10230924685, "lat": 57.991057, "lon": 56.2488198, "tags": {"amenity": "fast_food", "contact:phone": "+7 341 2908292;+7 800 3334130", "contact:website": "https://coffee-like.com/", "cuisine": "coffee_shop", "name": "Coffee Like", "opening_hours": "Mo-Su 08:00-21:00"}}, {"type": "node", "id": 10286366952, "lat": 58.0361749, "lon": 56.1988209, "tags": {"alt_name": "Kentucky Fried Chicken", "amenity": "fast_food", "brand": "KFC", "brand:wikidata": "Q524757", "cuisine": "chicken", "name": "KFC", "takeaway": "yes"}}, {"type": "node", "id": 10307913765, "lat": 57.997974, "lon": 56.2183197, "tags": {"addr:city": "\u041f\u0435\u0440\u043c\u044c", "addr:housenumber": "16", "addr:postcode": "614081", "addr:street": "\u0414\u0430\u043d\u0438\u043b\u0438\u0445\u0438\u043d\u0441\u043a\u0430\u044f \u0443\u043b\u0438\u0446\u0430", "amenity": "fast_food", "cuisine": "shawarma", "name": "\u0428\u0430\u0443\u0440\u043c\u0430 \u043d\u0435 \u0437\u0430 \u0433\u043e\u0440\u0430\u043c\u0438", "website": "https://www.xn--80aaaaokol3agfqsi9a8e.xn--p1ai/"}}, {"type": "node", "id": 10315970960, "lat": 58.044019, "lon": 56.0269827, "tags": {"addr:city": "\u041f\u0435\u0440\u043c\u044c", "addr:housenumber": "116", "addr:postcode": "614023", "addr:street": "\u0443\u043b\u0438\u0446\u0430 \u041a\u0430\u043b\u0438\u043d\u0438\u043d\u0430", "amenity": "fast_food", "description": "https://perm.zoon.ru/restaurants/zakusochnaya_povorot/", "name": "\u041f\u043e\u0432\u043e\u0440\u043e\u0442", "opening_hours": "24/7", "outdoor_seating": "yes"}}, {"type": "node", "id": 10576784274, "lat": 57.9975323, "lon": 56.2655729, "tags": {"amenity": "cafe", "contact:email": "atlantida-cafe@yandex.ru", "contact:phone": "+7 342 2412717;+7 342 2809893;+7 342 2810174;+7 902 8360704", "name": "\u0410\u0442\u043b\u0430\u043d\u0442\u0438\u0434\u0430", "opening_hours": "Mo-Fr 11:00-15:00"}}, {"type": "node", "id": 10576784333, "lat": 58.0067677, "lon": 56.1664547, "tags": {"amenity": "cafe", "contact:email": "vkusno.vdvigenii@mail.ru", "contact:phone": "+7 902 6343249;+7 929 2306844", "name": "\u0412 \u0414\u0432\u0438\u0436\u0435\u043d\u0438\u0438", "opening_hours": "Mo-Fr 08:30-17:00"}}, {"type": "node", "id": 10844166295, "lat": 57.9744405, "lon": 56.170671, "tags": {"amenity": "fast_food", "contact:email": "do.bro_perm_mira@mail.ru", "contact:phone": "+7 993 9051109", "contact:website": "https://dobro-coffee.ru/", "cuisine": "coffee_shop", "name": "Do.Bro Coffee", "opening_hours": "Mo-Fr 08:00-20:00; Sa-Su 10:00-21:00"}}, {"type": "node", "id": 10845576581, "lat": 57.9814236, "lon": 56.1956477, "tags": {"amenity": "internet_cafe", "contact:email": "psbase.perm@gmail.com", "contact:phone": "+7 909 1005756", "name": "Ps base", "opening_hours": "Mo-Th 12:00-02:00, Fr-Su 14:00-04:00"}}, {"type": "node", "id": 10845591218, "lat": 57.9222756, "lon": 56.2667477, "tags": {"amenity": "fast_food", "contact:email": "cafekubba19@mail.ru", "contact:phone": "+7 902 6307334;+7 958 8828999", "name": "\u041a\u0443\u0431\u0431\u0430-food", "opening_hours": "Mo-Su 09:00-23:00"}}, {"type": "node", "id": 10877169286, "lat": 57.9904438, "lon": 55.9356091, "tags": {"amenity": "fast_food", "cuisine": "\u043a\u043b\u0430\u0441\u0441\u0438\u0447\u0435\u0441\u043a\u0438\u0439_\u0441\u043e\u0432\u043e\u043a", "description": "https://2gis.ru/perm/firm/2252328095289077/tab/reviews", "drive_through": "no", "fast_food": "cafeteria", "name": "\u041a\u043e\u043c\u0431\u0438\u043d\u0430\u0442 \u043f\u0438\u0442\u0430\u043d\u0438\u044f \u0410\u041e \u00ab\u0421\u043e\u0440\u0431\u0435\u043d\u0442\u00bb"}}, {"type": "node", "id": 10892446003, "lat": 58.0166703, "lon": 55.9073858, "tags": {"addr:city": "\u041f\u0435\u0440\u043c\u044c", "addr:housenumber": "98 \u043a16", "addr:postcode": "614042", "addr:street": "\u041b\u0430\u0441\u044c\u0432\u0438\u043d\u0441\u043a\u0430\u044f \u0443\u043b\u0438\u0446\u0430", "amenity": "fast_food", "cuisine": "russian", "drive_through": "no", "name": "\u0413\u0443\u0440\u043c\u0430\u043d\u0438\u043a\u0430"}}, {"type": "node", "id": 10892473505, "lat": 58.0166372, "lon": 55.9074522, "tags": {"amenity": "restaurant", "name": "\u0411\u0430\u043d\u043a\u0435\u0442\u043d\u044b\u0439 \u0437\u0430\u043b"}}, {"type": "node", "id": 10895550164, "lat": 58.0089756, "lon": 55.9142433, "tags": {"amenity": "cafe"}}, {"type": "node", "id": 10969563452, "lat": 57.9856867, "lon": 56.2927063, "tags": {"amenity": "fast_food", "name": "\u0428\u0430\u0432\u0435\u0440\u043c\u0430-\u0425\u0430\u0443\u0441"}}, {"type": "node", "id": 10976061205, "lat": 57.9859776, "lon": 56.2557548, "tags": {"addr:housenumber": "30 \u043a2", "addr:postcode": "614010", "addr:street": "\u0443\u043b\u0438\u0446\u0430 \u0427\u043a\u0430\u043b\u043e\u0432\u0430", "alt_name": "Kentucky Fried Chicken", "amenity": "fast_food", "brand": "KFC", "brand:wikidata": "Q524757", "cuisine": "chicken", "name": "KFC", "name:en": "KFC", "opening_hours": "Mo-Su 9:00-24:00", "phone": "+73422009987", "takeaway": "yes", "website": "http://www.kfc.ru"}}, {"type": "node", "id": 11007217733, "lat": 57.9723011, "lon": 56.1506885, "tags": {"amenity": "fast_food", "contact:phone": "+7 951 9355934", "contact:website": "https://www.vitajuice.ru/", "cuisine": "juice", "name": "Vita Juice", "opening_hours": "Mo-Su 10:00-22:00"}}, {"type": "node", "id": 11033389811, "lat": 58.0433657, "lon": 56.2734501, "tags": {"addr:city": "\u041f\u0435\u0440\u043c\u044c", "addr:housenumber": "2\u0410/1", "addr:postcode": "614018", "addr:street": "\u041b\u0435\u0441\u043e\u043f\u0430\u0440\u043a\u043e\u0432\u044b\u0439 \u043f\u0435\u0440\u0435\u0443\u043b\u043e\u043a", "amenity": "cafe", "cuisine": "regional;kebab;burger", "name": "Jermuk", "outdoor_seating": "yes"}}, {"type": "node", "id": 11044629906, "lat": 58.0182647, "lon": 56.2450858, "tags": {"amenity": "cafe", "cuisine": "coffee_shop", "email": "dom@cupbycup.coffee", "internet_access": "wlan", "name": "\u0414\u043e\u043c", "opening_hours": "Mo-Fr 09:00-23:00; Sa-Su 10:00-23:00", "phone": "+79222458151"}}, {"type": "node", "id": 11044630005, "lat": 58.0047297, "lon": 56.2561946, "tags": {"amenity": "cafe", "cuisine": "coffee_shop", "internet_access": "wlan", "name:en": "RoastBerry", "opening_hours": "Mo-Fr 08:00-23:00; Sa-Su 09:00-23:00", "phone": "+79120691000", "website": "https://roastberry.coffee/"}}, {"type": "node", "id": 11044630105, "lat": 58.0062289, "lon": 56.2481898, "tags": {"amenity": "cafe", "cuisine": "coffee_shop", "name": "\u0424\u043e\u0440\u0440\u0435\u0441\u0442", "opening_hours": "Mo-Fr 08:00-22:00; Sa-Su 10:00-22:00", "phone": "+79091097011"}}, {"type": "node", "id": 11044630106, "lat": 58.0148429, "lon": 56.2390762, "tags": {"amenity": "cafe", "cuisine": "coffee_shop", "name": "\u0413\u043d\u0435\u0437\u0434\u043e", "opening_hours": "Mo-Su 08:00-20:00", "phone": "+79124889907"}}, {"type": "node", "id": 11044630205, "lat": 58.0066571, "lon": 56.2593232, "tags": {"amenity": "cafe", "cuisine": "coffee_shop", "name:en": "Tomonero", "opening_hours": "Mo-Su 10:00-22:00", "phone": "+79824438573"}}, {"type": "node", "id": 11050651299, "lat": 58.011293, "lon": 56.2517426, "tags": {"amenity": "cafe", "check_date": "2023-07-17", "cuisine": "coffee_shop", "name": "drugoe testo", "opening_hours": "Mo-Fr 08:00-22:00; Sa-Su 09:00-22:00", "outdoor_seating": "no", "payment:mastercard": "yes", "payment:visa": "yes", "website": "https://vk.com/drugoetesto", "wheelchair": "no"}}, {"type": "node", "id": 11051217941, "lat": 57.9980369, "lon": 56.2435068, "tags": {"addr:housenumber": "10", "addr:street": "\u0443\u043b\u0438\u0446\u0430 \u0413\u043b\u0435\u0431\u0430 \u0423\u0441\u043f\u0435\u043d\u0441\u043a\u043e\u0433\u043e", "amenity": "cafe", "check_date": "2023-07-17", "internet_access": "wlan", "internet_access:fee": "customers", "name": "The \u0414\u044b\u043c", "opening_hours": "18:00-06:00", "outdoor_seating": "yes", "payment:mastercard": "yes", "payment:visa": "yes", "phone": "+7 932 333-99-93", "wheelchair": "no"}}, {"type": "node", "id": 11052480758, "lat": 58.0190492, "lon": 56.2769396, "tags": {"amenity": "cafe", "check_date": "2023-07-18", "name": "\u0412\u043a\u0443\u0441\u043d\u043e\u0435 \u043c\u0435\u0441\u0442\u043e", "opening_hours": "Mo-Fr 08:00-17:00", "payment:mastercard": "yes", "payment:visa": "yes", "phone": "247-44-64", "wheelchair": "no"}}, {"type": "node", "id": 11053160207, "lat": 58.0097558, "lon": 56.2362858, "tags": {"addr:housenumber": "58", "addr:street": "\u0443\u043b\u0438\u0446\u0430 \u041b\u0435\u043d\u0438\u043d\u0430", "amenity": "cafe", "check_date": "2023-07-18", "name": "Chill Out", "opening_hours": "Mo-Th,Su 12:00-02:00; Fr-Sa 12:00-04:00", "outdoor_seating": "no", "payment:mastercard": "yes", "payment:visa": "yes", "phone": "+7 342 204-01-04", "website": "https://chillout.rest"}}, {"type": "node", "id": 11055188105, "lat": 58.1111347, "lon": 56.3045967, "tags": {"amenity": "fast_food", "name": "\u0414\u043e\u043d\u043d\u0435\u0440 \u041a\u0435\u0431\u0430\u0431"}}, {"type": "node", "id": 11060570230, "lat": 58.0146568, "lon": 56.237113, "tags": {"amenity": "pub", "check_date": "2023-07-21", "name": "Brugge"}}, {"type": "node", "id": 11061390185, "lat": 58.0034621, "lon": 56.2076365, "tags": {"amenity": "cafe", "check_date": "2023-07-22", "cuisine": "coffee_shop", "name": "\u041a\u043e\u0444\u0435 \u0441 \u0441\u043e\u0431\u043e\u0439"}}, {"type": "node", "id": 11061390186, "lat": 58.0033186, "lon": 56.2077534, "tags": {"amenity": "cafe", "check_date": "2023-07-22", "cuisine": "coffee_shop", "name": "Gudmen Coffee", "opening_hours": "Mo-Fr 08:00-21:00; Sa-Su 10:00-21:00", "outdoor_seating": "yes"}}, {"type": "node", "id": 11062677298, "lat": 58.0076204, "lon": 56.2361785, "tags": {"amenity": "cafe", "check_date": "2023-07-23", "name": "\u0414\u043e\u0431\u0440\u0430\u044f \u043a\u043e\u043c\u043f\u0430\u043d\u0438\u044f"}}, {"type": "node", "id": 11062677303, "lat": 58.0091226, "lon": 56.239401, "tags": {"amenity": "cafe", "check_date": "2023-07-23", "name": "\u041b\u0430\u043d\u0447\u0438-\u0431\u0440\u0430\u043d\u0447\u0438"}}, {"type": "node", "id": 11085281606, "lat": 58.0197668, "lon": 56.2871468, "tags": {"amenity": "cafe", "cuisine": "coffee_shop", "name": "\u041a\u043e\u0444\u0435in", "opening_hours": "Mo-Sa 08:00-21:00; Su 10:00-21:00", "phone": "+79581442282"}}, {"type": "node", "id": 11085284606, "lat": 57.9946917, "lon": 56.2499922, "tags": {"amenity": "cafe", "cuisine": "coffee_shop", "name": "John", "opening_hours": "Mo-Su 08:00-21:00", "phone": "+79223213311"}}, {"type": "node", "id": 11095231811, "lat": 58.0147689, "lon": 56.2374766, "tags": {"amenity": "restaurant", "name:en": "Brugge", "opening_hours": "Mo-Th 12:00-00:00; Fr 12:00-02:00; Sa 14:00-02:00; Su 14:00-00:00", "phone": "+73422040833"}}, {"type": "node", "id": 11109074305, "lat": 57.9998475, "lon": 56.2503035, "tags": {"amenity": "cafe", "cuisine": "coffee_shop;noodles;pizza", "name:en": "Burundi", "opening_hours": "Mo-Fr 09:00-21:00; Sa-Su 10:00-21:00", "phone": "+79024711222", "website": "http://burundicafe.ru"}}, {"type": "node", "id": 11109077405, "lat": 58.0091651, "lon": 56.2395742, "tags": {"addr:housenumber": "96", "addr:street": "\u0415\u043a\u0430\u0442\u0435\u0440\u0438\u043d\u0438\u043d\u0441\u043a\u0430\u044f \u0443\u043b\u0438\u0446\u0430", "amenity": "cafe", "cuisine": "breakfast", "name": "\u041b\u0430\u043d\u0447\u0438 \u0438 \u0431\u0440\u0430\u043d\u0447\u0438", "name:ru": "\u041b\u0430\u043d\u0447\u0438 \u0431\u0440\u0430\u043d\u0447\u0438", "opening_hours": "Mo-Sa 09:00-21:00; Su 10:00-21:00", "phone": "+79223100770"}}, {"type": "node", "id": 11109081905, "lat": 58.007153, "lon": 56.2469188, "tags": {"amenity": "cafe", "cuisine": "cake;coffee_shop", "name": "\u0412\u0434\u043e\u0445", "opening_hours": "Mo-Fr 08:30-21:00; Sa-Su 10:00-21:00", "phone": "+79526612976", "website": "https://t.me/vdoh_prm"}}, {"type": "node", "id": 11109085705, "lat": 58.0120453, "lon": 56.2600379, "tags": {"amenity": "cafe", "contact:vk": "teplo.perm", "cuisine": "cake;coffee_shop", "name": "\u0422\u0435\u043f\u043b\u043e", "opening_hours": "Mo-Fr 07:30-20:00; Sa-Su 10:00-20:00", "phone": "+79097320883"}}, {"type": "node", "id": 11109088805, "lat": 58.004951, "lon": 56.2570646, "tags": {"amenity": "cafe", "brand": "Surf Coffee", "brand:wikidata": "Q110278756", "contact:email": "newcenter@surfcoffee.ru", "contact:phone": "+7 996 0832324", "contact:website": "https://www.surfcoffee.ru/", "cuisine": "coffee_shop", "name": "Surf Coffee", "name:en": "Surf coffee x new center", "opening_hours": "Mo-Fr 08:00-23:00; Sa-Su 09:00-23:00", "takeaway": "yes"}}, {"type": "node", "id": 11109089905, "lat": 58.0016105, "lon": 56.2560951, "tags": {"amenity": "cafe", "cuisine": "cake;coffee_shop", "name:en": "Reason to stay", "opening_hours": "Mo-Su 09:00-21:00", "phone": "+79944277282"}}, {"type": "node", "id": 11109112506, "lat": 58.0047507, "lon": 56.2248428, "tags": {"amenity": "cafe", "cuisine": "coffee_shop", "name:en": "Chat", "opening_hours": "Mo-Fr 09:30-21:00; Sa-Su 10:30-21:00", "phone": "+79120610488"}}, {"type": "node", "id": 11109116305, "lat": 58.0039251, "lon": 56.2231505, "tags": {"amenity": "cafe", "contact:vk": "cehperm", "cuisine": "coffee_shop;russian", "name": "\u0426\u0435\u0445 babka", "opening_hours": "Mo-Su 08:00-22:00", "phone": "+79194766033"}}, {"type": "node", "id": 11109118407, "lat": 58.0092118, "lon": 56.2307505, "tags": {"amenity": "restaurant", "contact:vk": "meduza_seafood", "cuisine": "seafood", "name": "MEDUZA", "opening_hours": "Su-Th 12:00-00:00; Fr-Sa 12:00-02:00", "phone": "+73422035464"}}, {"type": "node", "id": 11109118606, "lat": 58.0138197, "lon": 56.2511289, "tags": {"amenity": "cafe", "cuisine": "breakfast;coffee_shop", "name:en": "Silence", "opening_hours": "Mo-Fr 08:00-22:00; Sa-Su 10:00-22:00"}}, {"type": "node", "id": 11109123105, "lat": 58.0074529, "lon": 56.2409855, "tags": {"amenity": "cafe", "contact:vk": "magiccoffee59", "cuisine": "coffee_shop", "name:en": "Magic coffee", "opening_hours": "Mo-Fr 08:00-20:00; Sa 10:00-20:00", "phone": "+79048467773"}}, {"type": "node", "id": 11109131405, "lat": 58.0116869, "lon": 56.2448966, "tags": {"amenity": "cafe", "contact:vk": "svet70perm", "cuisine": "coffee_shop;sandwich", "name": "\u0421\u0432\u0435\u0442", "opening_hours": "Mo-Fr 08:00-23:00; Sa-Su 10:00-20:00", "phone": "+73422034070"}}, {"type": "node", "id": 11109133605, "lat": 58.0107193, "lon": 56.2446378, "tags": {"addr:housenumber": "23", "addr:street": "\u0443\u043b\u0438\u0446\u0430 \u0413\u0430\u0437\u0435\u0442\u044b \u0417\u0432\u0435\u0437\u0434\u0430", "amenity": "cafe", "cuisine": "coffee_shop;tea", "email": "go.mood2020@gmail.com", "name": "\u041f\u043e\u0442\u043e\u043a", "opening_hours": "Mo-Su 12:00-22:00", "phone": "+79194827782"}}, {"type": "node", "id": 11109137105, "lat": 58.0105941, "lon": 56.2399842, "tags": {"amenity": "cafe", "cuisine": "coffee_shop", "name:en": "Farmers coffee", "opening_hours": "Mo-Fr 08:30-21:00; Sa-Su 10:00-21:00", "website": "https://t.me/farmers_coffee"}}, {"type": "node", "id": 11109139005, "lat": 58.0086105, "lon": 56.2453986, "tags": {"amenity": "cafe", "contact:vk": "summercoffeeprm", "cuisine": "breakfast;coffee_shop", "name:en": "Summer cafe", "opening_hours": "Mo-Fr 08:00-21:00; Sa-Su 10:00-21:00", "phone": "+79824717025"}}, {"type": "node", "id": 11155848024, "lat": 57.995754, "lon": 56.2540743, "tags": {"addr:city": "\u041f\u0435\u0440\u043c\u044c", "addr:housenumber": "72", "addr:postcode": "614039", "addr:street": "\u041a\u043e\u043c\u0441\u043e\u043c\u043e\u043b\u044c\u0441\u043a\u0438\u0439 \u043f\u0440\u043e\u0441\u043f\u0435\u043a\u0442", "amenity": "fast_food", "contact:email": "info@alendvic.ru", "contact:phone": "+7 342 223-33-40 ext. 770", "contact:website": "http://sfc-chicken.ru", "name": "Southern Fried Chicken", "opening_hours": "Mo-Su 08:00-22:00", "operator": "Southern Fried Chicken"}}, {"type": "node", "id": 11155848027, "lat": 58.0084516, "lon": 56.2247712, "tags": {"amenity": "fast_food", "contact:email": "info@alendvic.ru", "contact:phone": "+7 342 2140241", "contact:website": "http://sfc-chicken.ru", "name": "Southern Fried Chicken", "opening_hours": "24/7"}}, {"type": "node", "id": 11155848029, "lat": 58.1089453, "lon": 56.303333, "tags": {"amenity": "fast_food", "contact:email": "info@alendvic.ru", "contact:phone": "+7 342 2065222;+7 342 2077504", "contact:website": "http://sfc-chicken.ru", "name": "Southern Fried Chicken", "opening_hours": "Mo-Su 10:00-21:00"}}, {"type": "node", "id": 11155848030, "lat": 58.039666, "lon": 56.026198, "tags": {"amenity": "fast_food", "contact:email": "info@alendvic.ru", "contact:phone": "+7 342 2065222;+7 342 2077504", "contact:website": "http://sfc-chicken.ru", "name": "Southern Fried Chicken", "opening_hours": "24/7"}}, {"type": "node", "id": 11155848031, "lat": 57.9779194, "lon": 56.1895214, "tags": {"amenity": "fast_food", "contact:email": "info@alendvic.ru", "contact:phone": "+7 342 2065222;+7 342 2233340-753", "contact:website": "http://sfc-chicken.ru", "name": "Southern Fried Chicken", "opening_hours": "Mo-Su 10:00-22:00"}}, {"type": "node", "id": 11155848032, "lat": 58.0069581, "lon": 56.2598678, "tags": {"amenity": "fast_food", "contact:email": "info@alendvic.ru", "contact:phone": "+7 342 2065222;+7 342 2386871", "contact:website": "http://sfc-chicken.ru", "name": "Southern Fried Chicken", "opening_hours": "Mo-Su 10:00-22:00"}}, {"type": "node", "id": 11155848033, "lat": 57.9652792, "lon": 56.2440025, "tags": {"amenity": "fast_food", "contact:email": "info@alendvic.ru", "contact:phone": "+7 342 2065222;+7 342 2233340-740", "contact:website": "http://sfc-chicken.ru", "name": "Southern Fried Chicken", "opening_hours": "Mo-Sa 10:00-21:00; Su 10:00-20:00"}}, {"type": "node", "id": 11155848034, "lat": 58.0060742, "lon": 55.9511054, "tags": {"amenity": "fast_food", "contact:email": "info@alendvic.ru", "contact:phone": "+7 342 2065222;+7 342 2153645", "contact:website": "http://sfc-chicken.ru", "name": "Southern Fried Chicken", "opening_hours": "Mo-Su 10:00-21:00"}}, {"type": "node", "id": 11155848035, "lat": 58.0390842, "lon": 56.1901921, "tags": {"amenity": "fast_food", "contact:email": "info@alendvic.ru", "contact:phone": "+7 342 2065222;+7 342 2590094", "contact:website": "http://sfc-chicken.ru", "name": "Southern Fried Chicken", "opening_hours": "Mo-Su 10:00-22:00"}}, {"type": "node", "id": 11155848036, "lat": 58.0121617, "lon": 56.2274909, "tags": {"amenity": "fast_food", "contact:email": "info@alendvic.ru", "contact:phone": "+7 342 2065222;+7 342 2233340-790", "contact:website": "http://sfc-chicken.ru", "name": "Southern Fried Chicken", "opening_hours": "Mo-Su 10:00-22:00"}}, {"type": "node", "id": 11155848037, "lat": 57.9992195, "lon": 56.1549855, "tags": {"amenity": "fast_food", "contact:email": "info@alendvic.ru", "contact:phone": "+7 342 2065222;+7 342 2075382", "contact:website": "http://sfc-chicken.ru", "name": "Southern Fried Chicken", "opening_hours": "Mo-Su 10:00-21:00"}}, {"type": "node", "id": 11155848038, "lat": 57.9977825, "lon": 56.2943503, "tags": {"amenity": "fast_food", "contact:email": "info@alendvic.ru", "contact:phone": "+7 342 2065222;+7 342 2621617", "contact:website": "http://sfc-chicken.ru", "name": "Southern Fried Chicken", "opening_hours": "Mo-Su 10:00-22:00"}}, {"type": "node", "id": 11155848039, "lat": 57.9652522, "lon": 56.2637571, "tags": {"amenity": "fast_food", "contact:email": "info@alendvic.ru", "contact:phone": "+7 342 2065222;+7 342 2233340-760", "contact:website": "http://sfc-chicken.ru", "name": "Southern Fried Chicken", "opening_hours": "Mo-Su 10:00-22:00"}}, {"type": "node", "id": 11155848040, "lat": 57.9723552, "lon": 56.1504738, "tags": {"amenity": "fast_food", "contact:email": "info@alendvic.ru", "contact:phone": "+7 342 2065222;+7 342 2233340-710", "contact:website": "http://sfc-chicken.ru", "name": "Southern Fried Chicken", "opening_hours": "Mo-Su 10:00-22:00"}}, {"type": "node", "id": 11155848041, "lat": 57.9932833, "lon": 56.2495359, "tags": {"amenity": "fast_food", "contact:email": "info@alendvic.ru", "contact:phone": "+7 342 2065222;+7 342 2156723", "contact:website": "http://sfc-chicken.ru", "name": "Southern Fried Chicken", "opening_hours": "Mo-Su 10:00-21:00"}}, {"type": "node", "id": 11155848042, "lat": 58.0509532, "lon": 56.3515753, "tags": {"amenity": "fast_food", "contact:email": "info@alendvic.ru", "contact:phone": "+7 342 2060200;+7 342 2065222", "contact:website": "http://sfc-chicken.ru", "name": "Southern Fried Chicken", "opening_hours": "Mo-Su 10:00-23:00"}}, {"type": "node", "id": 11155848043, "lat": 57.9992479, "lon": 56.1574074, "tags": {"amenity": "fast_food", "contact:email": "info@alendvic.ru", "contact:phone": "+7 342 2065222;+7 342 2292535", "contact:website": "http://sfc-chicken.ru", "name": "Southern Fried Chicken", "opening_hours": "Mo-Su 08:00-23:00"}}, {"type": "node", "id": 11155848045, "lat": 57.9907328, "lon": 56.192649, "tags": {"amenity": "fast_food", "contact:email": "info@alendvic.ru", "contact:phone": "+7 342 2065222;+7 342 2140619", "contact:website": "http://sfc-chicken.ru", "name": "Southern Fried Chicken", "opening_hours": "Mo-Su 10:00-22:00"}}, {"type": "node", "id": 11183839925, "lat": 57.9487631, "lon": 56.1208298, "tags": {"amenity": "fast_food", "contact:email": "info@alendvic.ru", "contact:phone": "+7 342 2233340-735", "contact:website": "https://dostavka-alendvic.ru", "cuisine": "dumpling", "name": "\u041f\u0435\u043b\u044c\u043c\u0435\u0448\u043a\u0438 \u0434\u0430 \u0432\u0430\u0440\u0435\u043d\u0438\u043a\u0438", "opening_hours": "Mo-Su 10:00-21:00"}}, {"type": "node", "id": 11183929973, "lat": 58.0392727, "lon": 56.1901397, "tags": {"addr:city": "\u041f\u0435\u0440\u043c\u044c", "addr:housenumber": "114", "addr:postcode": "614013", "addr:street": "\u0443\u043b\u0438\u0446\u0430 \u0421\u043f\u0435\u0448\u0438\u043b\u043e\u0432\u0430", "amenity": "fast_food", "contact:phone": "+7 342 259-00-94", "cuisine": "dumpling", "name": "\u041f\u0435\u043b\u044c\u043c\u0435\u0448\u043a\u0438 \u0434\u0430 \u0412\u0430\u0440\u0435\u043d\u0438\u043a\u0438 \u042d\u043a\u0441\u043f\u0440\u0435\u0441\u0441", "opening_hours": "Mo-Su 10:00-22:00", "website": "https://dostavka-alendvic.ru/"}}, {"type": "node", "id": 11183935189, "lat": 57.9780091, "lon": 56.1894694, "tags": {"addr:city": "\u041f\u0435\u0440\u043c\u044c", "addr:housenumber": "41/1", "addr:postcode": "614095", "addr:street": "\u0443\u043b\u0438\u0446\u0430 \u041c\u0438\u0440\u0430", "amenity": "fast_food", "contact:phone": "+7 342 221-89-51", "cuisine": "dumpling", "name": "\u041f\u0435\u043b\u044c\u043c\u0435\u0448\u043a\u0438 \u0434\u0430 \u0412\u0430\u0440\u0435\u043d\u0438\u043a\u0438 \u042d\u043a\u0441\u043f\u0440\u0435\u0441\u0441", "opening_hours": "Mo-Su 10:00-22:00", "website": "https://dostavka-alendvic.ru/"}}, {"type": "node", "id": 11183952589, "lat": 57.9989669, "lon": 56.1558056, "tags": {"amenity": "fast_food", "contact:phone": "+7 342 2075382", "cuisine": "dumpling", "name": "\u041f\u0435\u043b\u044c\u043c\u0435\u0448\u043a\u0438 \u0434\u0430 \u0432\u0430\u0440\u0435\u043d\u0438\u043a\u0438", "opening_hours": "Mo-Su 10:00-21:00"}}, {"type": "node", "id": 11269114314, "lat": 58.0124334, "lon": 56.3052959, "tags": {"addr:city": "\u041f\u0435\u0440\u043c\u044c", "addr:housenumber": "1\u0432", "addr:postcode": "614051", "addr:street": "\u0443\u043b\u0438\u0446\u0430 \u042e\u0440\u0448\u0430", "amenity": "cafe", "name": "Southern Fried Chicken", "opening_hours": "Mo-Su 10:00-21:00", "phone": "+7 342 223-33-40 ext. 725", "website": "https://dostavka-alendvic.ru/"}}, {"type": "node", "id": 11304186376, "lat": 58.0071315, "lon": 56.2597524, "tags": {"amenity": "fast_food", "contact:email": "info@alendvic.ru", "contact:phone": "+7 342 238-68-71", "contact:website": "https://alendvic.ru", "name": "\u041f\u043e\u043a\u0435-maN", "opening_hours": "Mo-Su 10:00-22:00"}}, {"type": "node", "id": 11304186377, "lat": 57.9780431, "lon": 56.1894168, "tags": {"amenity": "fast_food", "contact:email": "info@alendvic.ru", "contact:phone": "+7 342 2077504;+7 342 2218508;+7 342 2218951", "contact:website": "https://alendvic.ru", "name": "\u041f\u043e\u043a\u0435-maN", "opening_hours": "Mo-Su 10:00-22:00"}}, {"type": "node", "id": 11304186378, "lat": 58.0397061, "lon": 56.0261858, "tags": {"amenity": "fast_food", "contact:email": "info@alendvic.ru", "contact:phone": "+7 342 2077504", "contact:website": "https://alendvic.ru", "name": "\u041f\u043e\u043a\u0435-maN", "opening_hours": "Mo-Su 10:00-22:00"}}, {"type": "node", "id": 11304186379, "lat": 58.0144294, "lon": 56.2351996, "tags": {"amenity": "fast_food", "contact:email": "info@alendvic.ru", "contact:phone": "+7 342 2233340-700", "contact:website": "https://alendvic.ru", "name": "\u041f\u043e\u043a\u0435-maN", "opening_hours": "Mo-Su 11:00-22:00"}}, {"type": "node", "id": 11304186380, "lat": 57.9653504, "lon": 56.2440132, "tags": {"amenity": "fast_food", "contact:email": "info@alendvic.ru", "contact:phone": "+7 342 2233340-740", "contact:website": "https://alendvic.ru", "name": "\u041f\u043e\u043a\u0435-maN", "opening_hours": "Mo-Sa 10:00-21:00; Su 10:00-20:00"}}, {"type": "node", "id": 11368542808, "lat": 58.0055398, "lon": 56.2074012, "tags": {"amenity": "fast_food", "contact:phone": "+7 342 2553344", "contact:website": "https://\u043f\u0435\u0440\u043c\u044c.\u0441\u0443\u0448\u0438-\u043c\u0430\u043a\u0435.\u0440\u0444", "cuisine": "sushi", "name": "\u0421\u0443\u0448\u0438 make", "opening_hours": "Mo-Su 11:00-22:00"}}, {"type": "node", "id": 11368542809, "lat": 58.0026634, "lon": 56.2974695, "tags": {"amenity": "fast_food", "contact:phone": "+7 342 2553344", "contact:website": "https://\u043f\u0435\u0440\u043c\u044c.\u0441\u0443\u0448\u0438-\u043c\u0430\u043a\u0435.\u0440\u0444", "cuisine": "sushi", "name": "\u0421\u0443\u0448\u0438 make", "opening_hours": "Mo-Su 11:00-22:00"}}, {"type": "node", "id": 11368542810, "lat": 58.0122114, "lon": 56.2274533, "tags": {"amenity": "fast_food", "contact:phone": "+7 342 2553344", "contact:website": "https://\u043f\u0435\u0440\u043c\u044c.\u0441\u0443\u0448\u0438-\u043c\u0430\u043a\u0435.\u0440\u0444", "cuisine": "sushi", "name": "\u0421\u0443\u0448\u0438 make", "opening_hours": "Mo-Su 10:00-22:00"}}, {"type": "node", "id": 11368542811, "lat": 57.9712542, "lon": 56.1505331, "tags": {"amenity": "fast_food", "contact:email": "help@\u0441\u0443\u0448\u0438-\u043c\u0430\u043a\u0435.\u0440\u0444", "contact:phone": "+7 342 2553344", "contact:website": "https://\u0441\u0443\u0448\u0438-\u043c\u0430\u043a\u0435.\u0440\u0444", "cuisine": "sushi", "name": "\u0421\u0443\u0448\u0438 \u043c\u0430\u043a\u0435", "opening_hours": "Mo-Su 10:00-22:00"}}, {"type": "node", "id": 11377221570, "lat": 58.0071212, "lon": 56.2435815, "tags": {"amenity": "cafe", "cuisine": "african", "name": "\u041b\u0430\u0440\u0435\u043d\u0430", "name:en": "Larena", "opening_hours": "Sa 12:00-23:00; Su-Fr 10:00-23:00"}}, {"type": "node", "id": 11414511405, "lat": 58.0122413, "lon": 56.2274641, "tags": {"amenity": "fast_food", "contact:email": "help@\u0441\u0443\u0448\u0438-\u043c\u0430\u043a\u0435.\u0440\u0444", "contact:phone": "+7 342 2553344", "contact:website": "https://\u0441\u0443\u0448\u0438-\u043c\u0430\u043a\u0435.\u0440\u0444", "cuisine": "sushi", "name": "\u0421\u0443\u0448\u0438 \u043c\u0430\u043a\u0435", "opening_hours": "Mo-Su 10:00-22:00"}}, {"type": "node", "id": 11414511406, "lat": 57.9717009, "lon": 56.1505008, "tags": {"amenity": "fast_food", "contact:phone": "+7 342 2553344", "contact:website": "https://\u0441\u0443\u0448\u0438-\u043c\u0430\u043a\u0435.\u0440\u0444", "cuisine": "sushi", "name": "\u0421\u0443\u0448\u0438 \u043c\u0430\u043a\u0435", "opening_hours": "Mo-Su 10:00-22:00"}}, {"type": "node", "id": 11414511407, "lat": 58.0055342, "lon": 56.2077713, "tags": {"amenity": "fast_food", "contact:email": "help@\u0441\u0443\u0448\u0438-\u043c\u0430\u043a\u0435.\u0440\u0444", "contact:phone": "+7 342 2553344", "contact:website": "https://\u0441\u0443\u0448\u0438-\u043c\u0430\u043a\u0435.\u0440\u0444", "cuisine": "sushi", "name": "\u0421\u0443\u0448\u0438 \u043c\u0430\u043a\u0435", "opening_hours": "Mo-Su 11:00-22:00"}}, {"type": "node", "id": 11414511408, "lat": 58.0022114, "lon": 56.2955118, "tags": {"amenity": "fast_food", "contact:email": "help@\u0441\u0443\u0448\u0438-\u043c\u0430\u043a\u0435.\u0440\u0444", "contact:phone": "+7 342 2553344", "contact:website": "https://\u0441\u0443\u0448\u0438-\u043c\u0430\u043a\u0435.\u0440\u0444", "cuisine": "sushi", "name": "\u0421\u0443\u0448\u0438 \u043c\u0430\u043a\u0435", "opening_hours": "Mo-Su 11:00-22:00"}}, {"type": "node", "id": 11545647821, "lat": 57.9883286, "lon": 56.2494152, "tags": {"amenity": "fast_food", "contact:phone": "+7 342 2222777", "contact:website": "https://baoeda.ru/", "name": "\u0427\u0438\u0431\u0430\u043e", "opening_hours": "Mo-Su 10:00-23:00"}}, {"type": "node", "id": 11553452350, "lat": 58.007466, "lon": 56.2419338, "tags": {"amenity": "cafe", "contact:email": "info@alendvic.ru", "contact:phone": "+7 342 2233340-731", "contact:website": "https://alendvic.ru/", "cuisine": "coffee_shop", "name": "Good news", "opening_hours": "Mo-Su 10:00-22:00"}}, {"type": "node", "id": 11553470898, "lat": 57.9779664, "lon": 56.1894978, "tags": {"amenity": "cafe", "contact:email": "info@alendvic.ru", "contact:phone": "+7 342 223-33-40 ext. 756", "contact:website": "https://alendvic.ru/", "cuisine": "coffee_shop", "name": "Good news", "opening_hours": "Mo-Su 10:00-22:00"}}, {"type": "node", "id": 11553472388, "lat": 58.0137651, "lon": 56.2402549, "tags": {"amenity": "cafe", "contact:email": "info@alendvic.ru", "contact:phone": "+7 342 233-33-40 ext. 765", "contact:website": "https://alendvic.ru/", "cuisine": "coffee_shop", "name": "Good news", "opening_hours": "Mo-Fr 08:00-20:00; Sa-Su 10:00-18:00"}}, {"type": "node", "id": 11553493336, "lat": 58.0141999, "lon": 56.2354605, "tags": {"amenity": "cafe", "contact:email": "info@alendvic.ru", "contact:phone": "+7 342 2233340-700", "contact:website": "https://alendvic.ru/", "cuisine": "coffee_shop", "name": "Good news", "opening_hours": "Mo-Su 11:00-22:00"}}, {"type": "node", "id": 11563870152, "lat": 57.9652244, "lon": 56.2439985, "tags": {"amenity": "fast_food", "contact:email": "info@alendvic.ru", "contact:phone": "+7 342 2233340-740", "contact:website": "https://alendvic.ru", "name": "\u041a\u0440\u0435\u043f & \u0421\u0443\u043f", "opening_hours": "Mo-Sa 10:00-21:00; Su 10:00-20:00"}}, {"type": "node", "id": 11563939279, "lat": 58.0123068, "lon": 56.2274378, "tags": {"amenity": "fast_food", "contact:email": "info@alendvic.ru", "contact:phone": "+7 342 2233340", "contact:website": "https://alendvic.ru", "name": "\u041a\u0440\u0435\u043f & \u0421\u0443\u043f", "opening_hours": "Mo-Su 10:00-22:00"}}, {"type": "node", "id": 11563984182, "lat": 57.9776928, "lon": 56.1889946, "tags": {"amenity": "fast_food", "contact:email": "info@alendvic.ru", "contact:phone": "+7 342 2233340", "contact:website": "https://alendvic.ru", "name": "\u041a\u0440\u0435\u043f & \u0421\u0443\u043f", "opening_hours": "Mo-Su 10:00-22:00"}}, {"type": "node", "id": 11792801609, "lat": 58.0070257, "lon": 56.2598529, "tags": {"amenity": "fast_food", "contact:email": "info@alendvic.ru", "contact:phone": "+7 342 2065222;+7 342 2386871", "contact:website": "https://alendvic.ru", "name": "Viva la Pizza", "opening_hours": "Mo-Su 10:00-22:00"}}, {"type": "node", "id": 11792817461, "lat": 57.9775728, "lon": 56.1898987, "tags": {"amenity": "fast_food", "contact:email": "info@alendvic.ru", "contact:phone": "+7 342 2218508", "contact:website": "https://alendvic.ru", "name": "Viva la Pizza", "opening_hours": "Mo-Su 10:00-22:00"}}, {"type": "node", "id": 11811213170, "lat": 58.0078045, "lon": 56.2331223, "tags": {"amenity": "cafe", "cuisine": "asian;oriental;russian", "name": "\u0421\u0442\u043e\u043b\u043e\u0432\u0430\u044f \u043d\u0430 \u0415\u043a\u0430\u0442\u0435\u0440\u0438\u043d\u0438\u043d\u0441\u043a\u043e\u0439", "opening_hours": "Su-Sa 08:00-22:00"}}, {"type": "node", "id": 11811246001, "lat": 58.0078435, "lon": 56.2330728, "tags": {"amenity": "cafe", "name": "\u0421\u0442\u043e\u043b\u043e\u0432\u043a\u0430"}}, {"type": "node", "id": 11871342127, "lat": 58.0091572, "lon": 56.2517732, "tags": {"addr:housenumber": "15", "addr:street": "\u0443\u043b\u0438\u0446\u0430 \u041f\u0443\u0448\u043a\u0438\u043d\u0430", "amenity": "cafe", "check_date": "2024-05-01", "name": "Caramella", "opening_hours": "09:00-21:00", "wheelchair": "no"}}, {"type": "node", "id": 11871342130, "lat": 58.0090895, "lon": 56.2518013, "tags": {"amenity": "public_bookcase"}}, {"type": "node", "id": 11882796226, "lat": 57.9757151, "lon": 56.3229772, "tags": {"amenity": "fast_food", "name": "306"}}]