[{"type": "node", "id": 614588926, "lat": 58.0080539, "lon": 56.1881908, "tags": {"amenity": "library", "name": "\u041d\u0430\u0443\u0447\u043d\u0430\u044f \u0431\u0438\u0431\u043b\u0438\u043e\u0442\u0435\u043a\u0430 \u041f\u0413\u041d\u0418\u0423"}}, {"type": "node", "id": 701727649, "lat": 58.0191709, "lon": 56.2875905, "tags": {"amenity": "college", "name": "\u0443\u0447\u0438\u043b\u0438\u0449\u0435 \"\u0423\u0440\u0430\u043b\u044c\u0441\u043a\u043e\u0435 \u041f\u043e\u0434\u0432\u043e\u0440\u044c\u0435\""}}, {"type": "node", "id": 701729734, "lat": 58.0197959, "lon": 56.2898007, "tags": {"amenity": "college", "name": "\u0443\u0447\u0438\u043b\u0438\u0449\u0435 \"\u0423\u0440\u0430\u043b\u044c\u0441\u043a\u043e\u0435 \u041f\u043e\u0434\u0432\u043e\u0440\u044c\u0435\""}}, {"type": "node", "id": 701730716, "lat": 58.0201654, "lon": 56.2876227, "tags": {"amenity": "university", "contact:vk": "hsestudents", "description": "\u041d\u0418\u0423 \u0412\u044b\u0441\u0448\u0430\u044f \u0448\u043a\u043e\u043b\u0430 \u044d\u043a\u043e\u043d\u043e\u043c\u0438\u043a\u0438, \u043a\u043e\u0440\u043f\u0443\u0441 4", "name": "\u0412\u044b\u0441\u0448\u0430\u044f \u0448\u043a\u043e\u043b\u0430 \u044d\u043a\u043e\u043d\u043e\u043c\u0438\u043a\u0438", "name:en": "Higher School of Economics", "website": "https://perm.hse.ru"}}, {"type": "node", "id": 702359640, "lat": 58.0279097, "lon": 56.294123, "tags": {"amenity": "college", "name": "\u041f\u0440\u043e\u0444\u0435\u0441\u0441\u0438\u043e\u043d\u0430\u043b\u044c\u043d\u044b\u0439 \u043b\u0438\u0446\u0435\u0439 \u211643"}}, {"type": "node", "id": 702717376, "lat": 58.0041808, "lon": 56.2598277, "tags": {"amenity": "library", "name": "\u0411\u0438\u0431\u043b\u0438\u043e\u0442\u0435\u043a\u0430 \u0438\u043c.\u00a0\u041b.\u00a0\u041d.\u00a0\u0422\u043e\u043b\u0441\u0442\u043e\u0433\u043e"}}, {"type": "node", "id": 738189511, "lat": 57.9991213, "lon": 56.2980276, "tags": {"addr:city": "\u041f\u0435\u0440\u043c\u044c", "addr:housenumber": "11", "addr:street": "\u0443\u043b\u0438\u0446\u0430 \u0410\u0440\u043a\u0430\u0434\u0438\u044f \u0413\u0430\u0439\u0434\u0430\u0440\u0430", "amenity": "kindergarten", "name": "\u0414\u0435\u0442\u0441\u043a\u0438\u0439 \u0441\u0430\u0434 \u2116355 \"\u0427\u0443\u043b\u043f\u0430\u043d\""}}, {"type": "node", "id": 738189525, "lat": 57.9956131, "lon": 56.3001197, "tags": {"addr:city": "\u041f\u0435\u0440\u043c\u044c", "addr:housenumber": "91\u0410", "addr:street": "\u0443\u043b\u0438\u0446\u0430 \u041a\u0440\u0443\u043f\u0441\u043a\u043e\u0439", "amenity": "kindergarten", "name": "\u0414\u0435\u0442\u0441\u043a\u0438\u0439 \u0441\u0430\u0434 \u2116 227"}}, {"type": "node", "id": 738189526, "lat": 57.9953743, "lon": 56.3008708, "tags": {"addr:city": "\u041f\u0435\u0440\u043c\u044c", "addr:housenumber": "35\u0412", "addr:street": "\u0443\u043b\u0438\u0446\u0430 \u0421\u0442\u0430\u0440\u0446\u0435\u0432\u0430", "amenity": "kindergarten", "name": "\u0414\u0435\u0442\u0441\u043a\u0438\u0439 \u0441\u0430\u0434 \u2116 227 \u043a\u043e\u0440\u043f\u0443\u0441 3"}}, {"type": "node", "id": 923990873, "lat": 58.0960769, "lon": 56.392831, "tags": {"addr:city": "\u041f\u0435\u0440\u043c\u044c", "addr:housenumber": "100", "addr:street": "\u0443\u043b\u0438\u0446\u0430 \u0410\u043a\u0430\u0434\u0435\u043c\u0438\u043a\u0430 \u0412\u0435\u0434\u0435\u043d\u0435\u0435\u0432\u0430", "amenity": "university", "name": "\u0426\u0435\u043d\u0442\u0440 \u043f\u0440\u043e\u0444\u0435\u0441\u0441\u0438\u043e\u043d\u0430\u043b\u044c\u043d\u043e\u0439 \u043f\u043e\u0434\u0433\u043e\u0442\u043e\u0432\u043a\u0438 \u041c\u0412\u0414"}}, {"type": "node", "id": 948219686, "lat": 58.0061058, "lon": 56.1233992, "tags": {"amenity": "library", "name": "\u2116 11"}}, {"type": "node", "id": 955959515, "lat": 58.1135777, "lon": 56.2811051, "tags": {"addr:city": "\u041f\u0435\u0440\u043c\u044c", "addr:housenumber": "76", "addr:postcode": "614112", "addr:street": "\u0443\u043b\u0438\u0446\u0430 \u0420\u0435\u043f\u0438\u043d\u0430", "amenity": "college", "email": "pmk@pmkedu.pro", "name": "\u041f\u0435\u0440\u043c\u0441\u043a\u0438\u0439 \u043c\u0430\u0448\u0438\u043d\u043e\u0441\u0442\u0440\u043e\u0438\u0442\u0435\u043b\u044c\u043d\u044b\u0439 \u043a\u043e\u043b\u043b\u0435\u0434\u0436", "website": "https://pmkedu.pro", "wheelchair": "yes"}}, {"type": "node", "id": 966566001, "lat": 57.9938419, "lon": 56.2937346, "tags": {"amenity": "kindergarten", "name": "\u0414\u0435\u0442\u0441\u043a\u0438\u0439 \u0441\u0430\u0434 \u2116317"}}, {"type": "node", "id": 991240917, "lat": 58.0100841, "lon": 56.1911857, "tags": {"amenity": "college", "name": "\u0424\u0438\u043d\u0430\u043d\u0441\u043e\u0432\u043e-\u044d\u043a\u043e\u043d\u043e\u043c\u0438\u0447\u0435\u0441\u043a\u0438\u0439 \u043a\u043e\u043b\u043b\u0435\u0434\u0436"}}, {"type": "node", "id": 1017876926, "lat": 58.0604755, "lon": 55.9116481, "tags": {"amenity": "school", "name": "\u041c\u044b\u0441\u043e\u0432\u0441\u043a\u0430\u044f \u0421\u041e\u0428"}}, {"type": "node", "id": 1017901531, "lat": 58.0586699, "lon": 55.8818584, "tags": {"amenity": "kindergarten", "name": "\u0414\u0435\u0442\u0441\u043a\u0438\u0439 \u0441\u0430\u0434"}}, {"type": "node", "id": 1059534779, "lat": 58.0503097, "lon": 56.0932247, "tags": {"amenity": "school", "name": "\u0428\u043a\u043e\u043b\u0430 \u211655", "official_name": "\u0421\u0440\u0435\u0434\u043d\u044f\u044f \u043e\u0431\u0449\u0435\u043e\u0431\u0440\u0430\u0437\u043e\u0432\u0430\u0442\u0435\u043b\u044c\u043d\u0430\u044f \u0448\u043a\u043e\u043b\u0430 \u211655"}}, {"type": "node", "id": 1094815818, "lat": 57.9732909, "lon": 56.2709605, "tags": {"amenity": "library", "name": "\u0414\u0435\u0442\u0441\u043a\u0430\u044f \u0431\u0438\u0431\u043b\u0438\u043e\u0442\u0435\u043a\u0430"}}, {"type": "node", "id": 1182920874, "lat": 58.0384086, "lon": 56.1209937, "tags": {"amenity": "school", "description": "\u041f\u043e\u0434\u0433\u043e\u0442\u043e\u0432\u0438\u0442\u0435\u043b\u044c\u043d\u044b\u0435 \u043a\u043b\u0430\u0441\u0441\u044b", "name": "\u0428\u043a\u043e\u043b\u0430 \u211640", "official_name": "\u0421\u0440\u0435\u0434\u043d\u044f\u044f \u043e\u0431\u0449\u0435\u043e\u0431\u0440\u0430\u0437\u043e\u0432\u0430\u0442\u0435\u043b\u044c\u043d\u0430\u044f \u0448\u043a\u043e\u043b\u0430 \u211640"}}, {"type": "node", "id": 1241102419, "lat": 57.9762539, "lon": 56.2162465, "tags": {"amenity": "college", "name": "\u041f\u0435\u0440\u043c\u0441\u043a\u0438\u0439 \u0430\u0433\u0440\u043e\u043f\u0440\u043e\u043c\u044b\u0448\u043b\u0435\u043d\u043d\u044b\u0439 \u043a\u043e\u043b\u043b\u0435\u0434\u0436"}}, {"type": "node", "id": 1431634402, "lat": 58.0640318, "lon": 56.3480594, "tags": {"amenity": "library", "name": "\u0411\u0438\u0431\u043b\u0438\u043e\u0442\u0435\u043a\u0430 \u211621"}}, {"type": "node", "id": 1432564637, "lat": 58.0169307, "lon": 56.2575629, "tags": {"amenity": "college", "name": "\u041f\u0435\u0440\u043c\u0441\u043a\u0438\u0439 \u043c\u0443\u0437\u044b\u043a\u0430\u043b\u044c\u043d\u044b\u0439 \u043a\u043e\u043b\u043b\u0435\u0434\u0436"}}, {"type": "node", "id": 1485522090, "lat": 58.0123387, "lon": 56.287733, "tags": {"amenity": "kindergarten", "name": "\u0420\u0430\u0434\u0443\u0433\u0430"}}, {"type": "node", "id": 1486774484, "lat": 58.0199855, "lon": 56.2712161, "tags": {"amenity": "university", "name": "\u0423\u0440\u0430\u043b\u044c\u0441\u043a\u0430\u044f \u0430\u043a\u0430\u0434\u0435\u043c\u0438\u044f \u0433\u043e\u0441\u0443\u0434\u0430\u0440\u0441\u0442\u0432\u0435\u043d\u043d\u043e\u0439 \u0441\u043b\u0443\u0436\u0431\u044b"}}, {"type": "node", "id": 1486774486, "lat": 58.0201458, "lon": 56.2710752, "tags": {"amenity": "university", "name": "\u0412\u044b\u0441\u0448\u0430\u044f \u0448\u043a\u043e\u043b\u0430 \u043f\u0440\u0438\u0432\u0430\u0442\u0438\u0437\u0430\u0446\u0438\u0438 \u0438 \u043f\u0440\u0435\u0434\u043f\u0440\u0438\u043d\u0438\u043c\u0430\u0442\u0435\u043b\u044c\u0441\u0442\u0432\u0430"}}, {"type": "node", "id": 1486774487, "lat": 58.0201869, "lon": 56.2748917, "tags": {"amenity": "driving_school", "name": "\u0418\u0441\u043a\u0440\u0430"}}, {"type": "node", "id": 1486774490, "lat": 58.0197729, "lon": 56.2743706, "tags": {"amenity": "driving_school", "name": "\u041f\u0440\u0435\u0441\u0442\u0438\u0436"}}, {"type": "node", "id": 1487347724, "lat": 58.0661345, "lon": 56.3573481, "tags": {"amenity": "school", "name": "\u041f\u0435\u0440\u043c\u0441\u043a\u0438\u0439 \u043a\u0430\u0434\u0435\u0442\u0441\u043a\u0438\u0439 \u043a\u043e\u0440\u043f\u0443\u0441 \u0438\u043c. \u0433\u0435\u043d\u0435\u0440\u0430\u043b\u0438\u0441\u0441\u0438\u043c\u0443\u0441\u0430 \u0421\u0443\u0432\u043e\u0440\u043e\u0432\u0430"}}, {"type": "node", "id": 1499656508, "lat": 58.0154495, "lon": 56.2443092, "tags": {"amenity": "library", "name": "\u041f\u0435\u0440\u043c\u0441\u043a\u0430\u044f \u043a\u0440\u0430\u0435\u0432\u0430\u044f \u0434\u0435\u0442\u0441\u043a\u0430\u044f \u0431\u0438\u0431\u043b\u0438\u043e\u0442\u0435\u043a\u0430 \u0438\u043c.\u00a0\u041b.\u00a0\u0418.\u00a0\u041a\u0443\u0437\u044c\u043c\u0438\u043d\u0430", "opening_hours": "Mo-Fr 09:00-18:00; Su 10:00-17:00", "website": "https://www.pkdb.ru/"}}, {"type": "node", "id": 1500286217, "lat": 58.013044, "lon": 56.2430983, "tags": {"amenity": "university", "name": "\u041f\u0435\u0440\u043c\u0441\u043a\u0438\u0439 \u0433\u043e\u0441\u0443\u0434\u0430\u0440\u0441\u0442\u0432\u0435\u043d\u043d\u044b\u0439 \u0438\u043d\u0441\u0442\u0438\u0442\u0443\u0442 \u0438\u0441\u043a\u0443\u0441\u0441\u0442\u0432\u0430 \u0438 \u043a\u0443\u043b\u044c\u0442\u0443\u0440\u044b"}}, {"type": "node", "id": 1500950509, "lat": 58.0059606, "lon": 56.2475494, "tags": {"amenity": "university", "name": "\u0417\u0430\u043f\u0430\u0434\u043d\u043e-\u0443\u0440\u0430\u043b\u044c\u0441\u043a\u0438\u0439 \u0438\u043d\u0441\u0442\u0438\u0442\u0443\u0442 \u044d\u043a\u043e\u043d\u043e\u043c\u0438\u043a\u0438 \u0438 \u043f\u0440\u0430\u0432\u0430"}}, {"type": "node", "id": 1504956183, "lat": 58.0164468, "lon": 56.2508378, "tags": {"amenity": "college", "name": "\u041f\u0435\u0440\u043c\u0441\u043a\u043e\u0435 \u0433\u043e\u0441\u0443\u0434\u0430\u0440\u0441\u0442\u0432\u0435\u043d\u043d\u043e\u0435 \u0445\u043e\u0440\u0435\u043e\u0433\u0440\u0430\u0444\u0438\u0447\u0435\u0441\u043a\u043e\u0435 \u0443\u0447\u0438\u043b\u0438\u0449\u0435", "official_name": "\u0424\u0435\u0434\u0435\u0440\u0430\u043b\u044c\u043d\u043e\u0435 \u0433\u043e\u0441\u0443\u0434\u0430\u0440\u0441\u0442\u0432\u0435\u043d\u043d\u043e\u0435 \u0431\u044e\u0434\u0436\u0435\u0442\u043d\u043e\u0435 \u043f\u0440\u043e\u0444\u0435\u0441\u0441\u0438\u043e\u043d\u0430\u043b\u044c\u043d\u043e\u0435 \u043e\u0431\u0440\u0430\u0437\u043e\u0432\u0430\u0442\u0435\u043b\u044c\u043d\u043e\u0435 \u0443\u0447\u0440\u0435\u0436\u0434\u0435\u043d\u0438\u0435 \u00ab\u041f\u0435\u0440\u043c\u0441\u043a\u043e\u0435 \u0433\u043e\u0441\u0443\u0434\u0430\u0440\u0441\u0442\u0432\u0435\u043d\u043d\u043e\u0435 \u0445\u043e\u0440\u0435\u043e\u0433\u0440\u0430\u0444\u0438\u0447\u0435\u0441\u043a\u043e\u0435 \u0443\u0447\u0438\u043b\u0438\u0449\u0435\u00bb", "website": "https://balletperm.ru"}}, {"type": "node", "id": 1506296480, "lat": 58.0177464, "lon": 56.2558744, "tags": {"amenity": "college", "name": "\u0414\u043e\u0440\u043e\u0436\u043d\u0430\u044f \u0442\u0435\u0445\u043d\u0438\u0447\u0435\u0441\u043a\u0430\u044f \u0448\u043a\u043e\u043b\u0430"}}, {"type": "node", "id": 1539011665, "lat": 58.065955, "lon": 56.351574, "tags": {"amenity": "college", "name": "\u0410\u0432\u0442\u043e\u0442\u0440\u0430\u043d\u0441\u043f\u043e\u0440\u0442\u043d\u044b\u0439 \u043a\u043e\u043b\u043b\u0435\u0434\u0436"}}, {"type": "node", "id": 1543868054, "lat": 58.1113164, "lon": 56.3110248, "tags": {"amenity": "driving_school", "name": "\u0414\u041e\u0421\u0410\u0410\u0424", "operator": "\u0420\u041e\u0421\u0422\u041e"}}, {"type": "node", "id": 1543868058, "lat": 58.1108697, "lon": 56.3127905, "tags": {"amenity": "driving_school", "name": "\u0415\u0432\u0430"}}, {"type": "node", "id": 1720433960, "lat": 57.997051, "lon": 56.2949221, "tags": {"amenity": "library", "name": "\u0414\u0435\u0442\u0441\u043a\u0430\u044f \u0431\u0438\u0431\u043b\u0438\u043e\u0442\u0435\u043a\u0430 \u211613"}}, {"type": "node", "id": 1971765456, "lat": 57.9720275, "lon": 56.2445885, "tags": {"addr:postcode": "614045", "amenity": "driving_school", "email": "ro@dosaaf.perm.ru", "name": "\u0414\u041e\u0421\u0410\u0410\u0424 \u0420\u043e\u0441\u0441\u0438\u0438 \u041f\u0435\u0440\u043c\u0441\u043a\u043e\u0433\u043e \u043a\u0440\u0430\u044f", "office": "government", "opening_hours": "Mo-Fr 09:00-13:00,14:00-18:00", "phone": "+7 342 2375692", "website": "http://www.dosaaf59region.ru"}}, {"type": "node", "id": 1988039569, "lat": 58.1075649, "lon": 56.3075131, "tags": {"amenity": "driving_school", "name": "\u0414\u0440\u0430\u0439\u0432-59"}}, {"type": "node", "id": 2292111023, "lat": 57.9780148, "lon": 56.2309394, "tags": {"amenity": "library", "name": "\u0411\u0438\u0431\u043b\u0438\u043e\u0442\u0435\u043a\u0430 \u21169 \u0438\u043c. \u041d.\u0413. \u0427\u0435\u0440\u043d\u044b\u0448\u0435\u0432\u0441\u043a\u043e\u0433\u043e"}}, {"type": "node", "id": 2469072357, "lat": 58.0075278, "lon": 56.2554041, "tags": {"amenity": "school", "name": "\u041e\u0440 \u0410\u0432\u043d\u0435\u0440 \u0425\u0430\u0411\u0430\u0434"}}, {"type": "node", "id": 2619782824, "lat": 57.9838396, "lon": 56.1874229, "tags": {"amenity": "college", "name": "\u041f\u0435\u0440\u043c\u0441\u043a\u0438\u0439 \u043a\u0440\u0430\u0435\u0432\u043e\u0439 \u0446\u0435\u043d\u0442\u0440 \u043f\u043e\u0432\u044b\u0448\u0435\u043d\u0438\u044f \u043a\u0432\u0430\u043b\u0438\u0444\u0438\u043a\u0430\u0446\u0438\u0438 \u0440\u0430\u0431\u043e\u0442\u043d\u0438\u043a\u043e\u0432 \u0437\u0434\u0440\u0430\u0432\u043e\u043e\u0445\u0440\u0430\u043d\u0435\u043d\u0438\u044f"}}, {"type": "node", "id": 2623243553, "lat": 58.0081257, "lon": 56.2397481, "tags": {"amenity": "library", "email": "lib@pstu.ru", "name": "\u041d\u0430\u0443\u0447\u043d\u0430\u044f \u0431\u0438\u0431\u043b\u0438\u043e\u0442\u0435\u043a\u0430 \u041f\u041d\u0418\u041f\u0423", "phone": "+7 342 2198158;+7 342 2198462", "website": "http://lib.pstu.ru"}}, {"type": "node", "id": 2637068313, "lat": 58.0064684, "lon": 56.2329126, "tags": {"amenity": "university", "name": "\u041f\u0435\u0440\u043c\u0441\u043a\u0438\u0439 \u0433\u043e\u0441\u0443\u0434\u0430\u0440\u0441\u0442\u0432\u0435\u043d\u043d\u044b\u0439 \u043c\u0435\u0434\u0438\u0446\u0438\u043d\u0441\u043a\u0438\u0439 \u0443\u043d\u0438\u0432\u0435\u0440\u0441\u0438\u0442\u0435\u0442"}}, {"type": "node", "id": 2673296784, "lat": 57.9825091, "lon": 56.2124557, "tags": {"amenity": "college", "name": "\u041f\u0435\u0440\u043c\u0441\u043a\u0438\u0439 \u0440\u0430\u0434\u0438\u043e\u0442\u0435\u0445\u043d\u0438\u0447\u0435\u0441\u043a\u0438\u0439 \u043a\u043e\u043b\u043b\u0435\u0434\u0436 \u0438\u043c.\u00a0\u0410.\u00a0\u0421.\u00a0\u041f\u043e\u043f\u043e\u0432\u0430"}}, {"type": "node", "id": 2683742264, "lat": 57.9980685, "lon": 56.2390087, "tags": {"amenity": "university", "name": "\u041c\u0418\u0420\u0411\u0418\u0421"}}, {"type": "node", "id": 2690705167, "lat": 57.9656296, "lon": 56.228296, "tags": {"amenity": "library", "name": "\u0414\u0435\u0442\u0441\u043a\u0430\u044f \u0431\u0438\u0431\u043b\u0438\u043e\u0442\u0435\u043a\u0430 \u21168 \u0438\u043c.\u00a0\u041f.\u00a0\u041f.\u00a0\u0411\u0430\u0436\u043e\u0432\u0430"}}, {"type": "node", "id": 2706616220, "lat": 58.0110768, "lon": 56.2408084, "tags": {"amenity": "university", "description": "\u041f\u044f\u0442\u044b\u0439 \u043a\u043e\u0440\u043f\u0443\u0441", "name": "\u041f\u0435\u0440\u043c\u0441\u043a\u0438\u0439 \u0433\u043e\u0441\u0443\u0434\u0430\u0440\u0441\u0442\u0432\u0435\u043d\u043d\u044b\u0439 \u0433\u0443\u043c\u0430\u043d\u0438\u0442\u0430\u0440\u043d\u043e-\u043f\u0435\u0434\u0430\u0433\u043e\u0433\u0438\u0447\u0435\u0441\u043a\u0438\u0439 \u0443\u043d\u0438\u0432\u0435\u0440\u0441\u0438\u0442\u0435\u0442", "website": "https://pspu.ru/"}}, {"type": "node", "id": 2893545191, "lat": 58.0133179, "lon": 56.2623243, "tags": {"amenity": "university", "name": "\u041f\u0413\u0421\u0425\u0410"}}, {"type": "node", "id": 3039360680, "lat": 58.0098432, "lon": 56.2432251, "tags": {"amenity": "college", "name": "\u041f\u0435\u0440\u043c\u0441\u043a\u0438\u0439 \u043c\u0443\u0437\u044b\u043a\u0430\u043b\u044c\u043d\u044b\u0439 \u043a\u043e\u043b\u043b\u0435\u0434\u0436"}}, {"type": "node", "id": 3039360706, "lat": 58.0088996, "lon": 56.2422048, "tags": {"amenity": "university", "name": "\u0423\u0440\u0430\u043b\u044c\u0441\u043a\u0438\u0439 \u0433\u0443\u043c\u0430\u043d\u0438\u0442\u0430\u0440\u043d\u044b\u0439 \u0438\u043d\u0441\u0442\u0438\u0442\u0443\u0442"}}, {"type": "node", "id": 3101356567, "lat": 58.0368101, "lon": 56.02315, "tags": {"amenity": "library", "name": "\u0411\u0438\u0431\u043b\u0438\u043e\u0442\u0435\u043a\u0430 \u211614"}}, {"type": "node", "id": 3141814192, "lat": 58.0114657, "lon": 56.2555784, "tags": {"amenity": "college", "name": "\u041c\u0435\u0434\u0438\u043a\u043e-\u0424\u0430\u0440\u043c\u0430\u0446\u0435\u0432\u0442\u0438\u0447\u0435\u0441\u043a\u043e\u0435 \u0423\u0447\u0438\u043b\u0438\u0449\u0435"}}, {"type": "node", "id": 3156127068, "lat": 58.0160625, "lon": 56.2481407, "tags": {"amenity": "school", "name": "\u041c\u0430\u0440\u0438\u0438\u043d\u0441\u043a\u0430\u044f \u0436\u0435\u043d\u0441\u043a\u0430\u044f \u0433\u0438\u043c\u043d\u0430\u0437\u0438\u044f", "tourism": "attraction", "wikidata": "Q4281406", "wikipedia": "ru:\u041c\u0430\u0440\u0438\u0438\u043d\u0441\u043a\u0430\u044f \u0436\u0435\u043d\u0441\u043a\u0430\u044f \u0433\u0438\u043c\u043d\u0430\u0437\u0438\u044f (\u041f\u0435\u0440\u043c\u044c)"}}, {"type": "node", "id": 3156159320, "lat": 58.0150254, "lon": 56.2446781, "tags": {"amenity": "library", "name": "\u0426\u0435\u043d\u0442\u0440\u0430\u043b\u044c\u043d\u0430\u044f \u0433\u043e\u0440\u043e\u0434\u0441\u043a\u0430\u044f \u0431\u0438\u0431\u043b\u0438\u043e\u0442\u0435\u043a\u0430 \u0438\u043c.\u00a0\u0410.\u00a0\u0421.\u00a0\u041f\u0443\u0448\u043a\u0438\u043d\u0430", "wheelchair": "no"}}, {"type": "node", "id": 3162444261, "lat": 58.0101553, "lon": 56.2490728, "tags": {"amenity": "school", "name": "\u0410\u043b\u044c\u044f\u043d\u0441 \u0424\u0440\u0430\u043d\u0441\u0435\u0437 \u2013 \u041f\u0435\u0440\u043c\u044c", "name:fr": "Alliance Fran\u00e7aise de Perm"}}, {"type": "node", "id": 3561511763, "lat": 58.0123798, "lon": 56.288728, "tags": {"amenity": "school", "name": "\u0421\u0442\u0430\u043d\u0446\u0438\u044f \u042e\u043d\u044b\u0445 \u0422\u0435\u0445\u043d\u0438\u043a\u043e\u0432"}}, {"type": "node", "id": 3561511776, "lat": 58.0152912, "lon": 56.2890548, "tags": {"amenity": "school", "name": "\u0414\u0435\u0442\u0441\u043a\u0438\u0439 \u043a\u043b\u0443\u0431 \u0438\u043c.\u00a0\u0412.\u00a0\u0422\u0435\u0440\u0435\u0448\u043a\u043e\u0432\u043e\u0439"}}, {"type": "node", "id": 3598761826, "lat": 58.0179254, "lon": 56.2936611, "tags": {"amenity": "kindergarten", "name": "\u0417\u0430\u0439\u043a\u0430 \u0417\u043d\u0430\u0439\u043a\u0430"}}, {"type": "node", "id": 3612712596, "lat": 58.0506936, "lon": 56.0846442, "tags": {"addr:housenumber": "64", "addr:street": "\u0425\u0430\u0431\u0430\u0440\u043e\u0432\u0441\u043a\u0430\u044f \u0443\u043b\u0438\u0446\u0430", "amenity": "kindergarten"}}, {"type": "node", "id": 3799504088, "lat": 58.0087235, "lon": 56.2504962, "tags": {"addr:city": "\u041f\u0435\u0440\u043c\u044c", "addr:housenumber": "33", "addr:street": "\u0421\u0438\u0431\u0438\u0440\u0441\u043a\u0430\u044f \u0443\u043b\u0438\u0446\u0430", "amenity": "school", "name": "\u0413\u0438\u043c\u043d\u0430\u0437\u0438\u044f \u211611 \u0438\u043c.\u00a0\u0421.\u00a0\u041f.\u00a0\u0414\u044f\u0433\u0438\u043b\u0435\u0432\u0430"}}, {"type": "node", "id": 4026396646, "lat": 57.9864971, "lon": 56.2191382, "tags": {"amenity": "library"}}, {"type": "node", "id": 4057732798, "lat": 58.0041836, "lon": 56.3289956, "tags": {"amenity": "kindergarten", "name": "\u0418\u0432\u0443\u0448\u043a\u0430"}}, {"type": "node", "id": 4314093492, "lat": 57.9984827, "lon": 56.2502373, "tags": {"amenity": "college", "name": "\u041f\u0435\u0440\u043c\u0441\u043a\u0438\u0439 \u0441\u0442\u0440\u043e\u0438\u0442\u0435\u043b\u044c\u043d\u044b\u0439 \u043a\u043e\u043b\u043b\u0435\u0434\u0436", "office": "government"}}, {"type": "node", "id": 4344631789, "lat": 57.9916678, "lon": 56.1982969, "tags": {"amenity": "library", "name": "\u0411\u0438\u0431\u043b\u0438\u043e\u0442\u0435\u043a\u0430 \u21162", "opening_hours": "Mo-Fr 11:00-19:00; Su 10:00-18:00; \"Closed at last workday of month\"", "wheelchair": "yes"}}, {"type": "node", "id": 4758064156, "lat": 58.003552, "lon": 56.3045304, "tags": {"amenity": "school", "name": "\u0427\u0430\u0441\u0442\u043d\u0430\u044f \u0448\u043a\u043e\u043b\u0430 \"\u0421\u043e\u0444\u0438\u044f\""}}, {"type": "node", "id": 4809406521, "lat": 58.0844448, "lon": 56.4079719, "tags": {"amenity": "school", "name": "\u041b\u0438\u0446\u0435\u0439 5", "name:en": "Lyceum 5", "name:ru": "\u041b\u0438\u0446\u0435\u0439 5", "opening_hours": "Mo-Su 09:00-17:00", "phone": "+7 342 2753835", "website": "http://www.lyceum5.perm.ru"}}, {"type": "node", "id": 4873415425, "lat": 57.9825434, "lon": 56.1970588, "tags": {"amenity": "school", "name": "\u041a\u0440\u0430\u0435\u0432\u043e\u0439 \u0438\u043d\u0434\u0443\u0441\u0442\u0440\u0438\u0430\u043b\u044c\u043d\u044b\u0439 \u0442\u0435\u0445\u043d\u0438\u043a\u0443\u043c", "name:en": "\u041a\u0440\u0430\u0435\u0432\u043e\u0439 \u0438\u043d\u0434\u0443\u0441\u0442\u0440\u0438\u0430\u043b\u044c\u043d\u044b\u0439 \u0442\u0435\u0445\u043d\u0438\u043a\u0443\u043c", "name:ru": "\u041a\u0440\u0430\u0435\u0432\u043e\u0439 \u0438\u043d\u0434\u0443\u0441\u0442\u0440\u0438\u0430\u043b\u044c\u043d\u044b\u0439 \u0442\u0435\u0445\u043d\u0438\u043a\u0443\u043c"}}, {"type": "node", "id": 5264387539, "lat": 58.0513383, "lon": 56.3547159, "tags": {"amenity": "kindergarten", "name": "\u0446\u0435\u043d\u0442\u0440 \u0440\u0430\u0437\u0432\u0438\u0442\u0438\u044f \u0440\u0435\u0431\u0451\u043d\u043a\u0430 \u0421\u043a\u0430\u0437\u043a\u0430"}}, {"type": "node", "id": 5264563932, "lat": 58.0524272, "lon": 56.3506151, "tags": {"amenity": "kindergarten", "name": "Caramel Kids"}}, {"type": "node", "id": 5264563933, "lat": 58.0522104, "lon": 56.3486943, "tags": {"amenity": "kindergarten", "name": "\u0422\u0435\u0440\u0440\u0438\u0442\u043e\u0440\u0438\u044f \u0434\u0435\u0442\u0441\u0442\u0432\u0430"}}, {"type": "node", "id": 5593784772, "lat": 58.0531397, "lon": 56.0961818, "tags": {"addr:city": "\u041f\u0435\u0440\u043c\u044c", "addr:housenumber": "38", "addr:street": "\u0425\u0430\u0431\u0430\u0440\u043e\u0432\u0441\u043a\u0430\u044f \u0443\u043b\u0438\u0446\u0430", "amenity": "college", "description": "\u0421\u0435\u0433\u043e\u0434\u043d\u044f \u0421\u0421\u0423\u0417 \u043f\u0440\u043e\u0432\u043e\u0434\u0438\u0442 \u043d\u0430\u0431\u043e\u0440 \u0430\u0431\u0438\u0442\u0443\u0440\u0438\u0435\u043d\u0442\u043e\u0432 \u043d\u0430 \u0434\u043d\u0435\u0432\u043d\u043e\u0435 \u043e\u0442\u0434\u0435\u043b\u0435\u043d\u0438\u0435 \u043d\u0430 \u0441\u043b\u0435\u0434\u0443\u044e\u0449\u0438\u0435 \u0441\u043f\u0435\u0446\u0438\u0430\u043b\u044c\u043d\u043e\u0441\u0442\u0438: \u0443\u0447\u0438\u0442\u0435\u043b\u044c \u043d\u0430\u0447\u0430\u043b\u044c\u043d\u044b\u0445 \u043a\u043b\u0430\u0441\u0441\u043e\u0432, \u043f\u0440\u043e\u0444\u0435\u0441\u0441\u0438\u043e\u043d\u0430\u043b\u044c\u043d\u043e\u0435 \u043e\u0431\u0440\u0430\u0437\u043e\u0432\u0430\u043d\u0438\u0435, \u0432\u043e\u0441\u043f\u0438\u0442\u0430\u0442\u0435\u043b\u044c \u0434\u043e\u0448\u043a\u043e\u043b\u044c\u043d\u044b\u0445 \u0443\u0447\u0440\u0435\u0436\u0434\u0435\u043d\u0438\u0439...", "email": "pgppk01@mail.ru", "name": "\u0413\u0411\u041f\u041e\u0423 \"\u041f\u0413\u041f\u041f\u041a\"", "operator": "\u0413\u0411\u041f\u041e\u0423 \u041f\u0435\u0440\u043c\u0441\u043a\u0438\u0439 \u0433\u043e\u0441\u0443\u0434\u0430\u0440\u0441\u0442\u0432\u0435\u043d\u043d\u044b\u0439 \u043f\u0440\u043e\u0444\u0435\u0441\u0441\u0438\u043e\u043d\u0430\u043b\u044c\u043d\u043e-\u043f\u0435\u0434\u0430\u0433\u043e\u0433\u0438\u0447\u0435\u0441\u043a\u0438 \u043a\u043e\u043b\u043b\u0435\u0434\u0436", "phone": "+7 342 2130337"}}, {"type": "node", "id": 5857198488, "lat": 58.0088896, "lon": 55.9328993, "tags": {"amenity": "library", "name": "\u0413\u043e\u0440\u043e\u0434\u0441\u043a\u0430\u044f \u0431\u0438\u0431\u043b\u0438\u043e\u0442\u0435\u043a\u0430 \u21167"}}, {"type": "node", "id": 6364071785, "lat": 58.0012803, "lon": 56.267626, "tags": {"addr:housenumber": "93\u0412", "addr:postcode": "614002", "addr:street": "\u0443\u043b\u0438\u0446\u0430 \u041d\u0438\u043a\u043e\u043b\u0430\u044f \u041e\u0441\u0442\u0440\u043e\u0432\u0441\u043a\u043e\u0433\u043e", "amenity": "school", "email": "24722202@list.ru", "name": "\u0427\u041e\u0423 \u00ab\u041b\u0438\u0446\u0435\u0439 \u0438\u043c. \u041c. \u0412. \u041b\u043e\u043c\u043e\u043d\u043e\u0441\u043e\u0432\u0430\u00bb", "opening_hours": "Mo-Su 08:00-20:00", "operator": "\u0414\u0435\u043d\u0438\u0441\u043e\u0432\u0430 \u041d\u0430\u0434\u0435\u0436\u0434\u0430 \u0410\u043b\u0435\u043a\u0441\u0435\u0435\u0432\u043d\u0430", "phone": "+7 342 2472220", "website": "http://www.\u043b\u043e\u043c\u043e\u043d\u043e\u0441\u043e\u0432.com"}}, {"type": "node", "id": 6809846785, "lat": 58.1035572, "lon": 56.2970573, "tags": {"amenity": "library"}}, {"type": "node", "id": 6939261108, "lat": 58.1109923, "lon": 56.3095279, "tags": {"amenity": "school", "name": "\u041c\u0410\u041e\u0423 \"\u0413\u0438\u043c\u043d\u0430\u0437\u0438\u044f \u043d\u043e\u043c\u0435\u0440 3\" \u0433. \u041f\u0435\u0440\u043c\u0438", "name:en": "Gimnasium 3", "opening_hours": "Mo-Fr 07:40-20:00", "website": "https://vk.com/gymnasium3_perm"}}, {"type": "node", "id": 6958548551, "lat": 57.9972888, "lon": 56.2207644, "tags": {"amenity": "kindergarten", "name": "\u041e\u0440\u0430\u043d\u0436\u0435\u0432\u044b\u0439 \u043a\u043e\u0442\u0435\u043d\u043e\u043a"}}, {"type": "node", "id": 6958548552, "lat": 57.9974929, "lon": 56.2211896, "tags": {"amenity": "kindergarten", "check_date": "2023-11-17", "name": "\u0421\u043e\u043a\u0440\u043e\u0432\u0438\u0449\u0430 \u043d\u0430\u0446\u0438\u0438"}}, {"type": "node", "id": 6965599116, "lat": 58.0056098, "lon": 56.3213216, "tags": {"amenity": "kindergarten", "description": "\u0440\u0430\u0437\u0432\u0438\u0432\u0430\u044e\u0449\u0438\u0439 \u0441\u0430\u0434-\u0446\u0435\u043d\u0442\u0440", "name": "\u041f\u0447\u0435\u043b\u043a\u0430"}}, {"type": "node", "id": 6983230377, "lat": 58.0120529, "lon": 56.2433555, "tags": {"amenity": "music_school", "name": "\u0425\u043e\u0440\u043e\u0432\u0430\u044f \u043a\u0430\u043f\u0435\u043b\u043b\u0430 \u043c\u0430\u043b\u044c\u0447\u0438\u043a\u043e\u0432", "official_name": "\u041c\u0443\u043d\u0438\u0446\u0438\u043f\u0430\u043b\u044c\u043d\u043e\u0435 \u0430\u0432\u0442\u043e\u043d\u043e\u043c\u043d\u043e\u0435 \u0443\u0447\u0440\u0435\u0436\u0434\u0435\u043d\u0438\u0435 \u0434\u043e\u043f\u043e\u043b\u043d\u0438\u0442\u0435\u043b\u044c\u043d\u043e\u0433\u043e \u043e\u0431\u0440\u0430\u0437\u043e\u0432\u0430\u043d\u0438\u044f \u0433\u043e\u0440\u043e\u0434\u0430 \u041f\u0435\u0440\u043c\u0438 \u0434\u0435\u0442\u0441\u043a\u0430\u044f \u0445\u043e\u0440\u043e\u0432\u0430\u044f \u0448\u043a\u043e\u043b\u0430 \u00ab\u0425\u043e\u0440\u043e\u0432\u0430\u044f \u043a\u0430\u043f\u0435\u043b\u043b\u0430 \u043c\u0430\u043b\u044c\u0447\u0438\u043a\u043e\u0432\u00bb", "website": "http://www.perm-capella.ru"}}, {"type": "node", "id": 7569568616, "lat": 58.0068352, "lon": 56.2358604, "tags": {"amenity": "university", "name": "\u041f\u0435\u0440\u043c\u0441\u043a\u0438\u0439 \u0433\u043e\u0441\u0443\u0434\u0430\u0440\u0441\u0442\u0432\u0435\u043d\u043d\u044b\u0439 \u043c\u0435\u0434\u0438\u0446\u0438\u043d\u0441\u043a\u0438\u0439 \u0443\u043d\u0438\u0432\u0435\u0440\u0441\u0438\u0442\u0435\u0442"}}, {"type": "node", "id": 7569568617, "lat": 58.006445, "lon": 56.2335276, "tags": {"amenity": "university", "name": "\u041f\u0435\u0440\u043c\u0441\u043a\u0438\u0439 \u0433\u043e\u0441\u0443\u0434\u0430\u0440\u0441\u0442\u0432\u0435\u043d\u043d\u044b\u0439 \u043c\u0435\u0434\u0438\u0446\u0438\u043d\u0441\u043a\u0438\u0439 \u0443\u043d\u0438\u0432\u0435\u0440\u0441\u0438\u0442\u0435\u0442"}}, {"type": "node", "id": 7862746806, "lat": 57.9843244, "lon": 56.2902698, "tags": {"amenity": "library", "entrance": "yes"}}, {"type": "node", "id": 7942465875, "lat": 58.0237532, "lon": 56.2900977, "tags": {"amenity": "school", "contact:email": "smartkid59@mail.ru", "contact:phone": "+7 951 9385238;+7 951 9427080", "contact:vk": "https://vk.com/doshkolnoeobrazovanie59", "name": "\u0423\u043c\u043d\u044b\u0439 \u0440\u0435\u0431\u0451\u043d\u043e\u043a", "opening_hours": "Mo-Fr 09:00-19:00;Sa-Su 09:00-17:00", "operator": "\u0423\u041c\u041d\u042b\u0419 \u0420\u0415\u0411\u0401\u041d\u041e\u041a"}}, {"type": "node", "id": 8237607366, "lat": 57.9792164, "lon": 56.1954438, "tags": {"amenity": "language_school", "contact:email": "euroschool.perm@bk.ru", "contact:facebook": "https://facebook.com/euroschool.perm", "contact:instagram": "https://instagram.com/euroschool.perm", "contact:phone": "+7 342 2919591", "contact:vk": "https://vk.com/euroschool59", "contact:website": "https://www.euroschool59.ru/", "name": "\u0415\u0432\u0440\u043e\u0448\u043a\u043e\u043b\u0430", "opening_hours": "Mo-Su 09:00-21:00", "operator": "\u0415\u0432\u0440\u043e\u0448\u043a\u043e\u043b\u0430"}}, {"type": "node", "id": 8635422648, "lat": 58.0022853, "lon": 56.2706972, "tags": {"amenity": "kindergarten", "contact:email": "colnkrug@colnkrug.ru", "contact:facebook": "https://www.facebook.com/colnkrug", "contact:instagram": "https://instagram.com/colnkrug", "contact:phone": "+7 342 2071210;+7 908 2711820", "contact:vk": "https://vk.com/colnkrug", "contact:website": "https://colnkrug.ru/", "contact:youtube": "https://www.youtube.com/channel/UCco7gsokufKI53VS1oyjQMw", "name": "\u0421\u043e\u043b\u043d\u0435\u0447\u043d\u044b\u0439", "opening_hours": "Mo-Fr 08:00-21:00;Sa-Su 09:00-20:00", "operator": "\u0421\u043e\u043b\u043d\u0435\u0447\u043d\u044b\u0439"}}, {"type": "node", "id": 9363449832, "lat": 57.9752683, "lon": 56.3186029, "tags": {"amenity": "ski_school", "club": "sport", "contact:website": "https://ll-perm.ru", "name": "\u0414\u042e\u0421\u0428\u041e\u0420 \"\u041b\u0435\u0442\u0430\u044e\u0449\u0438\u0439 \u043b\u044b\u0436\u043d\u0438\u043a\"", "official_name": "\u041c\u0443\u043d\u0438\u0446\u0438\u043f\u0430\u043b\u044c\u043d\u043e\u0435 \u0430\u0432\u0442\u043e\u043d\u043e\u043c\u043d\u043e\u0435 \u0443\u0447\u0440\u0435\u0436\u0434\u0435\u043d\u0438\u0435 \"\u0414\u0435\u0442\u0441\u043a\u043e-\u044e\u043d\u043e\u0448\u0435\u0441\u043a\u0430\u044f \u0441\u043f\u043e\u0440\u0442\u0438\u0432\u043d\u0430\u044f \u0448\u043a\u043e\u043b\u0430 \u043e\u043b\u0438\u043c\u043f\u0438\u0439\u0441\u043a\u043e\u0433\u043e \u0440\u0435\u0437\u0435\u0440\u0432\u0430 \"\u041b\u0435\u0442\u0430\u044e\u0449\u0438\u0439 \u043b\u044b\u0436\u043d\u0438\u043a\"\"", "short_name": "\u041c\u0410\u0423 \u0414\u042e\u0421\u0428\u041e\u0420 \"\u041b\u0435\u0442\u0430\u044e\u0449\u0438\u0439 \u043b\u044b\u0436\u043d\u0438\u043a\"\"", "sport": "skiing"}}, {"type": "node", "id": 9998221846, "lat": 57.997934, "lon": 56.2664469, "tags": {"addr:housenumber": "28", "addr:street": "\u0443\u043b\u0438\u0446\u0430 \u0427\u0435\u0440\u043d\u044b\u0448\u0435\u0432\u0441\u043a\u043e\u0433\u043e", "amenity": "university", "level": "9", "name": "\u041f\u0440\u0438\u043a\u0430\u043c\u0441\u043a\u0438\u0439 \u0441\u043e\u0446\u0438\u0430\u043b\u044c\u043d\u044b\u0439 \u0438\u043d\u0441\u0442\u0438\u0442\u0443\u0442"}}, {"type": "node", "id": 9998221848, "lat": 57.99798, "lon": 56.2666215, "tags": {"addr:housenumber": "28", "addr:street": "\u0443\u043b\u0438\u0446\u0430 \u0427\u0435\u0440\u043d\u044b\u0448\u0435\u0432\u0441\u043a\u043e\u0433\u043e", "amenity": "college", "level": "8", "name": "\u041f\u0435\u0440\u043c\u0441\u043a\u0438\u0439 \u0433\u0443\u043c\u0430\u043d\u0438\u0442\u0430\u0440\u043d\u043e-\u0442\u0435\u0445\u043d\u043e\u043b\u043e\u0433\u0438\u0447\u0435\u0441\u043a\u0438\u0439 \u043a\u043e\u043b\u043b\u0435\u0434\u0436"}}, {"type": "node", "id": 10086394613, "lat": 57.9973941, "lon": 56.2552379, "tags": {"amenity": "kindergarten", "description": "\u041a\u043e\u0440\u043f\u0443\u0441 3", "name": "\u0414\u0435\u0442\u0441\u043a\u0438\u0439 \u0441\u0430\u0434 \u2116178", "official_name": "\u041c\u0443\u043d\u0438\u0446\u0438\u043f\u0430\u043b\u044c\u043d\u043e\u0435 \u0430\u0432\u0442\u043e\u043d\u043e\u043c\u043d\u043e\u0435 \u0434\u043e\u0448\u043a\u043e\u043b\u044c\u043d\u043e\u0435 \u043e\u0431\u0440\u0430\u0437\u043e\u0432\u0430\u0442\u0435\u043b\u044c\u043d\u043e\u0435 \u0443\u0447\u0440\u0435\u0436\u0434\u0435\u043d\u0438\u0435 \u00ab\u0426\u0435\u043d\u0442\u0440 \u0440\u0430\u0437\u0432\u0438\u0442\u0438\u044f \u0440\u0435\u0431\u0435\u043d\u043a\u0430 - \u0434\u0435\u0442\u0441\u043a\u0438\u0439 \u0441\u0430\u0434 \u2116178\u00bb \u0433. \u041f\u0435\u0440\u043c\u0438", "old_ref": "33", "website": "http://petushok178.ru/"}}, {"type": "node", "id": 10086394614, "lat": 57.9976161, "lon": 56.2556719, "tags": {"amenity": "kindergarten", "description": "\u041a\u043e\u0440\u043f\u0443\u0441 2", "name": "\u0414\u0435\u0442\u0441\u043a\u0438\u0439 \u0441\u0430\u0434 \u2116178", "official_name": "\u041c\u0443\u043d\u0438\u0446\u0438\u043f\u0430\u043b\u044c\u043d\u043e\u0435 \u0430\u0432\u0442\u043e\u043d\u043e\u043c\u043d\u043e\u0435 \u0434\u043e\u0448\u043a\u043e\u043b\u044c\u043d\u043e\u0435 \u043e\u0431\u0440\u0430\u0437\u043e\u0432\u0430\u0442\u0435\u043b\u044c\u043d\u043e\u0435 \u0443\u0447\u0440\u0435\u0436\u0434\u0435\u043d\u0438\u0435 \u00ab\u0426\u0435\u043d\u0442\u0440 \u0440\u0430\u0437\u0432\u0438\u0442\u0438\u044f \u0440\u0435\u0431\u0435\u043d\u043a\u0430 - \u0434\u0435\u0442\u0441\u043a\u0438\u0439 \u0441\u0430\u0434 \u2116178\u00bb \u0433. \u041f\u0435\u0440\u043c\u0438", "old_ref": "230", "website": "http://petushok178.ru/"}}, {"type": "node", "id": 10114081226, "lat": 58.0221681, "lon": 56.2578535, "tags": {"amenity": "driving_school", "description": "\u041f\u043e\u0434\u0433\u043e\u0442\u043e\u0432\u043a\u0430 \u0432\u043e\u0434\u0438\u0442\u0435\u043b\u0435\u0439 \u043c\u0430\u043b\u043e\u043c\u0435\u0440\u043d\u044b\u0445 \u0441\u0443\u0434\u043e\u0432.", "name": "\u0428\u043a\u043e\u043b\u0430 \u0442\u0440\u0430\u043d\u0441\u043f\u043e\u0440\u0442\u0430 \u00ab\u041f\u0440\u043e\u0444\u0438\u00bb", "website": "https://prava-lodki.ru"}}, {"type": "node", "id": 10564879586, "lat": 58.0075883, "lon": 56.1805109, "tags": {"addr:city": "\u041f\u0435\u0440\u043c\u044c", "addr:housenumber": "27", "addr:postcode": "614068", "addr:street": "\u0443\u043b\u0438\u0446\u0430 \u0421\u0443\u0445\u043e\u0431\u0440\u0443\u0441\u0430", "amenity": "college", "name": "\u041f\u0440\u0438\u0432\u043e\u043b\u0436\u0441\u043a\u0438\u0439 \u0446\u0435\u043d\u0442\u0440 \u043f\u0440\u043e\u0444\u0435\u0441\u0441\u0438\u043e\u043d\u0430\u043b\u044c\u043d\u043e\u0433\u043e \u043e\u0431\u0443\u0447\u0435\u043d\u0438\u044f", "website": "http://edupcpo.ru/"}}, {"type": "node", "id": 10845591215, "lat": 57.9920877, "lon": 56.1357916, "tags": {"amenity": "trade_school", "contact:email": "info@cgno.ru", "contact:phone": "+7 965 5523000;+7 982 4951003", "contact:website": "https://cgno.ru/", "name": "\u0426\u0435\u043d\u0442\u0440 \u0413\u043e\u0440\u043d\u043e-\u041d\u0435\u0444\u0442\u044f\u043d\u043e\u0433\u043e \u041e\u0431\u0443\u0447\u0435\u043d\u0438\u044f", "opening_hours": "Mo-Fr 09:00-17:00"}}, {"type": "node", "id": 10928716697, "lat": 58.0026276, "lon": 56.2855341, "tags": {"amenity": "college", "name": "\u041f\u0435\u0440\u043c\u0441\u043a\u0438\u0439 \u043d\u0435\u0444\u0442\u044f\u043d\u043e\u0439 \u043a\u043e\u043b\u043b\u0435\u0434\u0436"}}, {"type": "node", "id": 10928740028, "lat": 58.0028578, "lon": 56.2845865, "tags": {"amenity": "college", "name": "\u0417\u0430\u043f\u0430\u0434\u043d\u043e-\u0423\u0440\u0430\u043b\u044c\u0441\u043a\u0438\u0439 \u0433\u043e\u0440\u043d\u044b\u0439 \u0442\u0435\u0445\u043d\u0438\u043a\u0443\u043c"}}, {"type": "node", "id": 10928754430, "lat": 58.0046318, "lon": 56.284372, "tags": {"amenity": "college", "name": "\u041f\u0435\u0440\u043c\u0441\u043a\u0438\u0439 \u0444\u0438\u043d\u0430\u043d\u0441\u043e\u0432\u043e-\u044d\u043a\u043e\u043d\u043e\u043c\u0438\u0447\u0435\u0441\u043a\u0438\u0439 \u043a\u043e\u043b\u043b\u0435\u0434\u0436"}}, {"type": "node", "id": 10965572965, "lat": 57.9790856, "lon": 56.2910942, "tags": {"amenity": "kindergarten", "building": "kindergarten"}}, {"type": "node", "id": 10989869865, "lat": 57.9862489, "lon": 56.29144, "tags": {"amenity": "kindergarten", "name": "\u042e\u0432\u0435\u043d\u0442\u0438\u043a"}}, {"type": "node", "id": 11203210960, "lat": 58.0319608, "lon": 56.2034761, "tags": {"amenity": "driving_school", "license_classes": "A;\u04301;\u043c", "name": "Borzo"}}, {"type": "node", "id": 11882066734, "lat": 58.0089728, "lon": 56.251714, "tags": {"amenity": "language_school", "name": "Britannia"}}]